{"type":"Feature","properties":{"towerId":"an-giang-long-xuyen","name":"Đài Phát Thanh TH An Giang","estimated":true,"model":"horizon+LOS srtm z10, rx 10m, tx 90m AGL"},"geometry":{"type":"Polygon","coordinates":[[[105.46137,10.82275],[105.47799,10.81796],[105.49394,10.80814],[105.5073,10.77991],[105.52891,10.8226],[105.54245,10.80228],[105.55845,10.79922],[105.57433,10.79561],[105.58501,10.77418],[105.6014,10.77395],[105.61792,10.77311],[105.6397,10.78415],[105.65313,10.77365],[105.66603,10.76277],[105.687,10.7674],[105.70167,10.7594],[105.71847,10.75471],[105.72754,10.73819],[105.73575,10.72154],[105.74311,10.70482],[105.77319,10.71558],[105.77676,10.69464],[105.79514,10.69006],[105.7971,10.66903],[105.8082,10.65731],[105.81536,10.64233],[105.80746,10.61618],[105.82037,10.60678],[105.83684,10.59932],[105.84931,10.58865],[105.84562,10.56846],[105.87332,10.56566],[105.88481,10.55336],[105.87084,10.52958],[105.89814,10.52381],[105.91691,10.5133],[105.90935,10.49341],[105.90534,10.47548],[105.89617,10.45692],[105.90862,10.44378],[105.92515,10.43069],[105.91411,10.41287],[105.91149,10.39682],[105.9174,10.38165],[105.91822,10.36597],[105.92761,10.35027],[105.93187,10.3341],[105.93555,10.31763],[105.91135,10.30376],[105.88678,10.2915],[105.92041,10.27063],[105.89494,10.25963],[105.90474,10.24152],[105.87425,10.23383],[105.91328,10.20578],[105.8907,10.19653],[105.88073,10.18357],[105.87454,10.16928],[105.88837,10.14532],[105.87276,10.13502],[105.85695,10.12553],[105.85259,10.1097],[105.84381,10.09642],[105.84932,10.07285],[105.82845,10.06802],[105.81121,10.06138],[105.8143,10.03749],[105.77673,10.05058],[105.77858,10.02699],[105.77301,10.00961],[105.7578,10.00256],[105.73686,10.00324],[105.73778,9.97579],[105.72433,9.96653],[105.71056,9.95773],[105.69192,9.95721],[105.67784,9.94953],[105.66549,9.9383],[105.65076,9.93155],[105.63409,9.92947],[105.62062,9.91957],[105.60807,9.90581],[105.59096,9.90537],[105.57621,9.89683],[105.55817,9.90196],[105.53905,9.91662],[105.52617,9.89641],[105.51004,9.89446],[105.49289,9.90652],[105.47778,9.88773],[105.46137,9.89644],[105.44544,9.90121],[105.42953,9.90204],[105.41271,9.89446],[105.39975,9.91867],[105.38448,9.92105],[105.36836,9.91955],[105.35094,9.91428],[105.33429,9.91401],[105.31468,9.90581],[105.29745,9.90689],[105.29207,9.93781],[105.27569,9.93976],[105.25525,9.93426],[105.24704,9.95351],[105.2331,9.9611],[105.2146,9.96155],[105.20352,9.97399],[105.20105,9.99763],[105.1915,10.01033],[105.1708,10.00946],[105.14363,10.00292],[105.12832,10.0108],[105.11648,10.02244],[105.11183,10.04051],[105.10804,10.05848],[105.10508,10.07634],[105.09557,10.08874],[105.07515,10.0939],[105.06241,10.10493],[105.06579,10.12553],[105.04596,10.1329],[105.03438,10.14532],[105.03152,10.16194],[105.02085,10.17512],[105.0578,10.20579],[105.14412,10.24901],[105.08801,10.24504],[105.00914,10.23933],[105.00993,10.25586],[104.99333,10.26906],[104.98166,10.28391],[104.98412,10.3009],[104.97808,10.31699],[105.00001,10.33442],[104.97685,10.35024],[105.00453,10.36597],[104.9871,10.38288],[104.97942,10.40007],[104.98599,10.41596],[104.98859,10.43224],[105.00071,10.44657],[104.99107,10.46557],[104.99542,10.48165],[105.00034,10.49756],[105.01873,10.50871],[105.02036,10.52548],[105.03518,10.53687],[105.0585,10.54353],[105.06155,10.55935],[105.05333,10.58192],[105.0579,10.59816],[105.06693,10.61187],[105.07644,10.62525],[105.08642,10.6383],[105.10387,10.64522],[105.11454,10.65731],[105.12894,10.66591],[105.16579,10.65128],[105.15825,10.68128],[105.15545,10.70869],[105.18245,10.70127],[105.17622,10.73609],[105.19777,10.73446],[105.21642,10.73566],[105.23253,10.73994],[105.25511,10.73168],[105.26073,10.75469],[105.27148,10.76955],[105.28476,10.77998],[105.29855,10.79001],[105.32559,10.76112],[105.33773,10.77418],[105.34731,10.79997],[105.36811,10.78163],[105.38586,10.77128],[105.39958,10.78252],[105.41496,10.78438],[105.4288,10.80814],[105.44508,10.80898],[105.46137,10.82275]]]}}