{"type":"Feature","properties":{"towerId":"ba-ria-vung-tau","name":"Đài Phát Thanh TH Bà Rịa Vũng Tàu","estimated":true,"model":"horizon+LOS srtm z10, rx 10m, tx 125m AGL"},"geometry":{"type":"Polygon","coordinates":[[[107.1843,10.96235],[107.19772,10.8677],[107.20825,10.82663],[107.22115,10.83455],[107.23209,10.82417],[107.24472,10.82676],[107.25473,10.81568],[107.26404,10.80434],[107.26504,10.76684],[107.27341,10.75962],[107.27822,10.74372],[107.36959,10.94043],[107.38547,10.9338],[107.30668,10.73672],[107.30891,10.72046],[107.29412,10.67711],[107.28371,10.64654],[107.2892,10.64304],[107.30532,10.65389],[107.31388,10.65318],[107.29311,10.61764],[107.32819,10.64724],[107.41001,10.71979],[107.48722,10.77744],[107.50405,10.77288],[107.52091,10.76751],[107.53777,10.76132],[107.56941,10.76485],[107.6169,10.77657],[107.62292,10.75917],[107.63219,10.74395],[107.64901,10.73264],[107.44335,10.61429],[107.51031,10.6327],[107.53214,10.62815],[107.68737,10.66975],[107.70213,10.65514],[107.53169,10.58794],[107.54826,10.57921],[107.50196,10.55643],[107.50411,10.54549],[107.49228,10.53262],[107.50269,10.52295],[107.50366,10.51201],[107.44481,10.49905],[107.44954,10.4901],[107.4448,10.48116],[107.45344,10.47159],[107.72541,10.43382],[107.72307,10.41529],[107.72006,10.39685],[107.71641,10.37852],[107.71211,10.36033],[107.70716,10.34229],[107.70158,10.32444],[107.69537,10.30679],[107.68854,10.28937],[107.6811,10.27218],[107.67305,10.25527],[107.66441,10.23864],[107.65518,10.22232],[107.64538,10.20632],[107.23737,10.455],[107.23609,10.4532],[107.23474,10.45145],[107.23334,10.44974],[107.23187,10.44808],[107.24679,10.43086],[107.26052,10.41257],[107.25772,10.41],[107.25777,10.40409],[107.25467,10.40162],[107.25148,10.39926],[107.25077,10.39328],[107.24729,10.39106],[107.45599,10.02669],[107.4394,10.01765],[107.2364,10.38513],[107.4053,10.0013],[107.38784,9.99401],[107.37013,9.98733],[107.35219,9.98126],[107.33405,9.97581],[107.31574,9.97098],[107.29726,9.96679],[107.27864,9.96323],[107.25991,9.96031],[107.24109,9.95804],[107.2222,9.95642],[107.20326,9.95544],[107.1843,9.95511],[107.16534,9.95544],[107.1464,9.95642],[107.12751,9.95804],[107.10869,9.96031],[107.08996,9.96323],[107.07134,9.96679],[107.05286,9.97098],[107.03455,9.97581],[107.01641,9.98126],[106.99847,9.98733],[106.98076,9.99401],[106.9633,10.0013],[106.94611,10.00918],[106.9292,10.01765],[106.91261,10.02669],[106.89634,10.0363],[107.07695,10.33362],[106.86487,10.05715],[106.84971,10.06838],[107.06971,10.35585],[107.06501,10.35987],[107.06681,10.37051],[107.06263,10.37461],[107.0586,10.37886],[106.76788,10.14599],[106.75592,10.16049],[106.74448,10.17539],[106.73358,10.19067],[106.72322,10.20632],[106.71342,10.22232],[106.74451,10.25981],[106.69966,10.25725],[106.69168,10.27402],[107.09103,10.45314],[107.08977,10.45636],[106.66702,10.32444],[106.679,10.34728],[106.69196,10.36908],[106.67007,10.38229],[106.66204,10.39921],[106.66364,10.41782],[106.66137,10.43573],[106.65062,10.45307],[106.73187,10.47436],[106.71328,10.48986],[106.75925,10.50452],[106.73719,10.52064],[106.73398,10.53643],[106.76307,10.54813],[106.72031,10.5703],[106.69209,10.59267],[106.67826,10.61382],[106.66974,10.63481],[106.69259,10.64685],[106.69413,10.66516],[107.12493,10.51379],[107.12581,10.51581],[107.12675,10.5178],[107.12777,10.51976],[107.13281,10.51943],[107.13388,10.52118],[107.13501,10.5229],[107.1251,10.53249],[107.12663,10.5345],[107.12824,10.53645],[107.12992,10.53835],[107.13166,10.54018],[107.13664,10.53873],[107.13227,10.54701],[107.13432,10.54877],[107.13361,10.55399],[107.13591,10.55569],[107.14849,10.5424],[107.15037,10.5436],[107.15457,10.54083],[107.15639,10.54182],[107.15823,10.54275],[107.16198,10.5395],[107.16374,10.54024],[107.07157,10.79442],[107.08245,10.7981],[107.08208,10.84031],[107.13338,10.69091],[107.12625,10.7585],[107.14059,10.73376],[107.14991,10.73066],[107.14985,10.81219],[107.16163,10.80869],[107.172,10.83624],[107.1843,10.96235]]]}}