{"type":"Feature","properties":{"towerId":"bac-giang-tan-my","name":"Trạm Phát Sóng Bắc Giang","estimated":true,"model":"horizon+LOS srtm z10, rx 10m, tx 150m AGL"},"geometry":{"type":"Polygon","coordinates":[[[106.16553,21.75623],[106.18463,21.76941],[106.19726,21.68326],[106.19585,21.52992],[106.24573,21.79148],[106.26729,21.7974],[106.26111,21.67942],[106.26618,21.6368],[106.30963,21.72837],[106.32707,21.72339],[106.37589,21.79811],[106.39592,21.79094],[106.39195,21.73386],[106.39891,21.70601],[106.38811,21.65055],[106.44625,21.7131],[106.4656,21.7075],[106.4713,21.68258],[106.51259,21.70507],[106.45734,21.60861],[106.50758,21.64017],[106.4567,21.5621],[106.49135,21.57505],[106.60403,21.65461],[106.55005,21.58311],[106.35793,21.4118],[106.37106,21.41098],[106.45869,21.45958],[106.39376,21.40478],[106.41128,21.4044],[106.70144,21.54854],[106.70757,21.52884],[106.60848,21.46209],[106.67316,21.47117],[106.68068,21.45454],[106.68303,21.43614],[106.68463,21.41783],[106.41146,21.32712],[106.45124,21.32772],[106.57636,21.34244],[106.60766,21.33365],[106.61485,21.31984],[106.76079,21.31884],[106.6903,21.29498],[106.68155,21.27761],[106.48881,21.2613],[106.66697,21.24454],[106.46392,21.2419],[106.45339,21.23316],[106.44737,21.22445],[106.57874,21.19317],[106.59005,21.17694],[106.57258,21.16648],[106.56875,21.1533],[106.46821,21.16963],[106.67275,21.0886],[106.62132,21.08918],[106.60577,21.07814],[106.39088,21.15896],[106.37414,21.15804],[106.35761,21.15808],[106.23916,21.2187],[106.23751,21.21633],[106.23577,21.21402],[106.23775,21.20899],[106.22465,21.21535],[106.2193,21.21647],[106.21411,21.21787],[106.21244,21.21632],[106.20426,21.2215],[106.20274,21.22027],[106.5387,20.81473],[106.52178,20.80287],[106.4937,20.80649],[106.48412,20.78464],[106.46611,20.77457],[106.19723,21.20602],[106.19513,21.20502],[106.19104,21.2082],[106.18721,21.21158],[106.18533,21.2109],[106.18342,21.21029],[106.18149,21.20974],[106.17837,21.21361],[106.17656,21.21322],[106.26738,20.72132],[106.24782,20.71389],[106.22884,20.69813],[106.20745,20.7009],[106.18633,20.70437],[106.16553,20.69953],[106.14473,20.70437],[106.12362,20.7009],[106.10222,20.69813],[106.08457,20.72279],[106.06119,20.70804],[106.03861,20.70297],[106.019,20.7118],[105.99725,20.71258],[106.15212,21.22312],[106.15068,21.22358],[105.94936,20.76117],[105.92496,20.75617],[105.90414,20.76026],[106.09989,21.14646],[106.09562,21.14866],[105.85457,20.7961],[105.86956,20.85129],[105.86005,20.86845],[105.82781,20.85733],[105.78822,20.84095],[105.81448,20.89701],[105.75771,20.8665],[105.73282,20.87061],[105.72559,20.89095],[105.75614,20.94028],[105.77088,20.97324],[105.68645,20.93584],[105.67853,20.95414],[105.66731,20.97017],[105.81498,21.07239],[105.65942,21.00964],[105.64596,21.02427],[105.64616,21.045],[105.61604,21.05353],[105.61761,21.07463],[105.62007,21.09538],[105.61878,21.11447],[105.60423,21.13014],[105.59019,21.14657],[105.56722,21.16217],[105.57814,21.18362],[105.58513,21.20374],[105.60733,21.2243],[105.6207,21.243],[105.83261,21.26128],[105.80867,21.27284],[105.82374,21.28353],[105.82476,21.29464],[105.78794,21.31063],[105.7995,21.32134],[105.79722,21.33413],[105.76734,21.3536],[105.70133,21.38491],[105.66483,21.41233],[105.67985,21.42547],[105.68626,21.44117],[105.63138,21.48207],[105.63124,21.50322],[105.64059,21.52045],[105.63382,21.54631],[105.68998,21.53735],[105.67248,21.57017],[105.75097,21.54126],[105.67768,21.61526],[105.69865,21.62515],[105.73779,21.61912],[106.10303,21.31782],[105.73529,21.67509],[105.75106,21.68883],[105.78918,21.67798],[105.8379,21.65106],[105.87552,21.63242],[105.90317,21.62301],[105.85774,21.71893],[105.85567,21.75978],[105.8837,21.75369],[105.89809,21.77063],[105.91738,21.77901],[106.00426,21.63259],[105.96349,21.77699],[106.02949,21.65072],[106.04151,21.66355],[106.01555,21.82001],[106.04876,21.77177],[106.06631,21.78412],[106.08262,21.80929],[106.10377,21.80718],[106.12465,21.80437],[106.15254,21.60763],[106.16553,21.75623]]]}}