{"type":"Feature","properties":{"towerId":"bac-lieu-dai-ptth","name":"Đài Phát Thanh TH Bạc Liêu","estimated":true,"model":"horizon+LOS srtm z10, rx 10m, tx 120m AGL"},"geometry":{"type":"Polygon","coordinates":[[[105.6908,9.8066],[105.70768,9.77483],[105.72581,9.7919],[105.74327,9.79039],[105.75938,9.77938],[105.77558,9.7723],[105.79705,9.79108],[105.81554,9.79148],[105.83418,9.79121],[105.84025,9.75176],[105.87027,9.78436],[105.88394,9.76955],[105.90794,9.77903],[105.91681,9.7551],[105.93927,9.75894],[105.94857,9.73843],[105.96399,9.72928],[105.97141,9.70843],[105.99917,9.7167],[106.00254,9.69166],[106.02507,9.69101],[106.02042,9.65922],[106.0425,9.65735],[106.06155,9.65125],[106.06363,9.62926],[106.0856,9.62487],[106.08251,9.60002],[106.12248,9.60745],[106.13693,9.59491],[106.13552,9.57223],[106.13308,9.55002],[106.14976,9.53884],[106.16617,9.52682],[106.16978,9.50849],[106.16845,9.4885],[106.17916,9.47347],[106.20239,9.46208],[106.18155,9.43696],[106.17729,9.41781],[106.19012,9.40284],[106.1935,9.38558],[106.20077,9.36883],[106.17574,9.34845],[106.19993,9.33325],[106.22817,9.3166],[106.22846,9.29808],[106.22811,9.27956],[106.2271,9.26107],[106.22543,9.24262],[106.22312,9.22424],[106.22016,9.20595],[106.2121,9.18872],[106.2123,9.16974],[106.20742,9.15186],[106.20191,9.13415],[106.19578,9.11665],[106.18903,9.09937],[106.18168,9.08233],[106.17373,9.06556],[106.16519,9.04907],[106.15608,9.03288],[106.14254,9.01941],[106.13617,9.0015],[106.1254,8.98634],[106.11409,8.97156],[106.10228,8.95718],[106.08996,8.94322],[106.07716,8.92969],[106.06389,8.91661],[106.05017,8.90399],[105.764,9.21236],[106.02143,8.88021],[106.00645,8.86908],[105.99109,8.85847],[105.97536,8.8484],[105.95929,8.83887],[105.94289,8.8299],[105.74072,9.19744],[105.90919,8.81369],[105.89193,8.80646],[105.87444,8.79983],[105.85671,8.79381],[105.83879,8.78841],[105.82069,8.78362],[105.80242,8.77946],[105.78324,8.78036],[105.76552,8.77304],[105.74692,8.77078],[105.72825,8.76917],[105.70954,8.7682],[105.6908,8.76788],[105.67206,8.7682],[105.65335,8.76917],[105.63468,8.77078],[105.61671,8.77749],[105.59757,8.77593],[105.58012,8.78386],[105.56091,8.78362],[105.54281,8.78841],[105.52489,8.79381],[105.50716,8.79983],[105.49137,8.81063],[105.47241,8.81369],[105.45542,8.8215],[105.43871,8.8299],[105.42231,8.83887],[105.40624,8.8484],[105.39051,8.85847],[105.37515,8.86908],[105.36017,8.88021],[105.34559,8.89185],[105.35273,8.9274],[105.3335,8.9328],[105.31752,8.9422],[105.2984,8.94925],[105.28281,8.96008],[105.27826,8.97988],[105.26724,8.99428],[105.26429,9.01409],[105.25835,9.03134],[105.24522,9.04415],[105.22444,9.0533],[105.21605,9.06951],[105.22071,9.09151],[105.20945,9.10613],[105.1901,9.1182],[105.20567,9.14253],[105.20481,9.16058],[105.18255,9.17302],[105.16505,9.18778],[105.1749,9.20832],[105.17652,9.22677],[105.1607,9.2431],[105.16814,9.26203],[105.1717,9.28022],[105.16681,9.2981],[105.1671,9.31615],[105.16803,9.33417],[105.18773,9.3503],[105.15826,9.37193],[105.16116,9.39023],[105.1781,9.40563],[105.18661,9.42214],[105.20005,9.43696],[105.19222,9.45793],[105.22387,9.46581],[105.21738,9.48683],[105.23265,9.49937],[105.22773,9.52092],[105.23587,9.53674],[105.26038,9.54329],[105.25382,9.56747],[105.25981,9.58487],[105.26651,9.60218],[105.27391,9.61937],[105.296,9.62487],[105.29761,9.64729],[105.31676,9.65437],[105.32641,9.67027],[105.3459,9.67592],[105.3624,9.68412],[105.37625,9.6952],[105.39585,9.69852],[105.40508,9.71589],[105.42487,9.71785],[105.4376,9.73064],[105.4552,9.73513],[105.46279,9.75914],[105.47552,9.77493],[105.49595,9.77371],[105.51602,9.77169],[105.53147,9.78169],[105.54994,9.78256],[105.56495,9.79584],[105.58455,9.79108],[105.60364,9.78558],[105.61967,9.79719],[105.63881,9.78592],[105.65419,9.81433],[105.6736,9.78382],[105.6908,9.8066]]]}}