{"type":"Feature","properties":{"towerId":"ben-tre-dai-ptth","name":"Đài PTTH Bến Tre","estimated":true,"model":"horizon+LOS srtm z10, rx 10m, tx 125m AGL"},"geometry":{"type":"Polygon","coordinates":[[[106.37765,10.7488],[106.39649,10.77096],[106.41532,10.76999],[106.43362,10.7639],[106.44898,10.73939],[106.47143,10.76321],[106.48994,10.75967],[106.49389,10.69878],[106.52398,10.74205],[106.54028,10.73244],[106.55451,10.71811],[106.57995,10.73258],[106.59729,10.72533],[106.61035,10.70942],[106.63331,10.71304],[106.64764,10.70008],[106.66621,10.69434],[106.67702,10.6767],[106.6977,10.67343],[106.71005,10.65863],[106.72762,10.6504],[106.73582,10.63145],[106.75584,10.62538],[106.75608,10.59968],[106.77539,10.59247],[106.76308,10.55839],[106.73804,10.51732],[106.78096,10.52852],[106.83267,10.5421],[106.83919,10.52391],[106.84895,10.50789],[106.85814,10.49154],[106.87085,10.47685],[106.85384,10.44883],[106.87365,10.43739],[106.88891,10.42329],[106.89506,10.40563],[106.89619,10.38652],[106.89216,10.36646],[106.88734,10.34686],[106.88178,10.32775],[106.88908,10.311],[106.87761,10.292],[106.61469,10.25691],[106.64252,10.24968],[106.88028,10.2403],[106.89821,10.22238],[106.90179,10.20419],[106.88653,10.18764],[106.91146,10.1664],[106.8815,10.15284],[106.86467,10.13842],[106.8563,10.12285],[106.8606,10.10399],[106.83374,10.09447],[106.84972,10.07117],[106.84341,10.05506],[106.79901,10.05569],[106.8332,10.02157],[106.75263,10.04414],[106.80865,9.99534],[106.77647,9.99501],[106.8129,9.95123],[106.77284,9.95764],[106.78772,9.92483],[106.77977,9.90805],[106.75757,9.90348],[106.7585,9.87812],[106.74225,9.8685],[106.71969,9.86624],[106.69156,9.87196],[106.68111,9.85786],[106.6754,9.83675],[106.65581,9.83423],[106.64607,9.81729],[106.62863,9.81223],[106.61972,9.79195],[106.58769,9.81626],[106.5855,9.78054],[106.56908,9.77368],[106.56489,9.73358],[106.54682,9.72746],[106.52478,9.73493],[106.49796,9.76509],[106.48767,9.73046],[106.4727,9.70927],[106.45066,9.7286],[106.43344,9.71746],[106.41392,9.72932],[106.39627,9.7149],[106.37765,9.70559],[106.3587,9.70591],[106.34137,9.72932],[106.32233,9.72193],[106.30209,9.71078],[106.28575,9.72699],[106.26762,9.73046],[106.24962,9.73454],[106.22926,9.7306],[106.21692,9.75312],[106.19663,9.75048],[106.1845,9.76951],[106.16237,9.7641],[106.14163,9.7637],[106.12488,9.77209],[106.12666,9.81223],[106.09956,9.80203],[106.08929,9.81931],[106.07453,9.82947],[106.04892,9.82594],[106.05787,9.86507],[106.03865,9.86959],[106.23487,10.09509],[106.2495,10.11884],[105.98417,9.89143],[105.96504,9.89936],[105.95319,9.91374],[105.94924,9.93381],[105.93105,9.94367],[105.94013,9.97113],[105.93874,9.99083],[105.91403,9.99759],[105.90158,10.01168],[105.89374,10.02817],[105.89919,10.04999],[105.90986,10.07272],[105.87813,10.08051],[105.86836,10.09651],[105.85468,10.1119],[105.86382,10.13277],[105.8558,10.14969],[105.88453,10.1721],[105.85967,10.18669],[105.84895,10.20387],[105.82968,10.22139],[106.12176,10.24058],[105.85702,10.25816],[105.99472,10.26681],[105.86859,10.29293],[105.83905,10.31471],[106.28764,10.25629],[105.87689,10.34501],[106.30227,10.25917],[105.87669,10.38159],[105.88198,10.39871],[105.87068,10.42176],[105.8774,10.43906],[105.89727,10.45066],[105.90089,10.46899],[105.90523,10.48733],[105.91823,10.50116],[105.92386,10.51916],[105.9416,10.52955],[105.95211,10.54435],[105.97396,10.55049],[105.97117,10.57571],[105.9765,10.59547],[105.98274,10.61527],[106.009,10.61568],[106.0256,10.62478],[106.03061,10.64696],[106.05088,10.65155],[106.06298,10.66616],[106.07571,10.68043],[106.09151,10.69053],[106.10994,10.69619],[106.12413,10.70907],[106.14293,10.71346],[106.158,10.72533],[106.17706,10.72841],[106.19764,10.72656],[106.21076,10.74527],[106.22752,10.75501],[106.24921,10.74677],[106.26821,10.74647],[106.28545,10.75435],[106.30184,10.77056],[106.32263,10.75495],[106.34093,10.75653],[106.35912,10.76197],[106.37765,10.7488]]]}}