{"type":"Feature","properties":{"towerId":"binh-thuan-phan-thiet","name":"Đài Phát Thanh TH Bình Thuận","estimated":true,"model":"horizon+LOS srtm z10, rx 10m, tx 130m AGL"},"geometry":{"type":"Polygon","coordinates":[[[108.11538,11.42845],[108.13267,11.41916],[108.15475,11.48556],[108.17245,11.46598],[108.18689,11.43253],[108.19184,11.35893],[108.21934,11.41323],[108.2319,11.39192],[108.24814,11.38765],[108.25711,11.36144],[108.25811,11.3183],[108.27343,11.31735],[108.28698,11.3117],[108.36073,11.42679],[108.17776,11.04896],[108.18181,11.04675],[108.18822,11.04822],[108.4206,11.37729],[108.25815,11.1266],[108.46271,11.36946],[108.47209,11.35041],[108.48362,11.3346],[108.50722,11.33143],[108.25711,11.06811],[108.27201,11.07219],[108.27684,11.06674],[108.27785,11.05836],[108.28218,11.05272],[108.3167,11.06702],[108.29799,11.04576],[108.35743,11.07087],[108.3662,11.06461],[108.2636,11.00475],[108.2744,11.00328],[108.28527,11.00116],[108.40382,11.03673],[108.294,10.99074],[108.29591,10.98459],[108.2976,10.97837],[108.29011,10.97024],[108.30032,10.96578],[108.29681,10.9588],[108.25658,10.94836],[108.60428,10.967],[108.66007,10.95202],[108.65579,10.93335],[108.67373,10.91417],[108.66811,10.89537],[108.6755,10.8755],[108.66853,10.85698],[108.66995,10.83728],[108.66617,10.81834],[108.66171,10.79954],[108.65659,10.7809],[108.65081,10.76245],[108.64438,10.74421],[108.63731,10.7262],[108.6296,10.70844],[108.62127,10.69096],[108.61232,10.67377],[108.60277,10.6569],[108.59263,10.64037],[108.5819,10.62419],[108.57061,10.6084],[108.55877,10.593],[108.54639,10.57801],[108.53349,10.56346],[108.52007,10.54936],[108.50617,10.53572],[108.49179,10.52258],[108.47696,10.50993],[108.46169,10.4978],[108.446,10.4862],[108.4299,10.47514],[108.41343,10.46464],[108.39659,10.45471],[108.37941,10.44537],[108.36191,10.43662],[108.34412,10.42847],[108.32604,10.42094],[108.30771,10.41404],[108.28915,10.40776],[108.27038,10.40213],[108.25142,10.39714],[108.23229,10.39281],[108.21302,10.38913],[108.19364,10.38611],[108.17416,10.38377],[108.15461,10.38209],[108.13501,10.38108],[108.11538,10.38074],[108.09576,10.38108],[108.07616,10.38209],[108.05661,10.38377],[108.03713,10.38611],[108.01774,10.38913],[107.99847,10.39281],[107.97935,10.39714],[107.96039,10.40213],[107.94161,10.40776],[107.92305,10.41404],[107.90472,10.42094],[107.88665,10.42847],[107.86885,10.43662],[107.99936,10.71941],[107.98953,10.71962],[107.982,10.72406],[107.98741,10.7474],[107.97012,10.73735],[107.9773,10.76017],[107.97122,10.765],[107.97143,10.77673],[108.00726,10.82383],[107.99683,10.82135],[107.9895,10.82247],[108.00315,10.84131],[107.97469,10.82582],[107.93021,10.80162],[107.93701,10.81559],[107.89799,10.80031],[107.9013,10.81234],[107.89307,10.81764],[107.90141,10.83125],[107.77666,10.78549],[107.7419,10.78537],[107.62507,10.75811],[107.61911,10.77502],[107.60496,10.78963],[107.71114,10.83457],[107.70785,10.84848],[107.85834,10.88921],[107.68916,10.8747],[107.86945,10.90834],[107.69968,10.905],[107.71721,10.91991],[107.85434,10.93371],[107.84991,10.94281],[107.82754,10.95345],[107.6644,10.98003],[107.66177,10.99607],[107.66876,11.0108],[107.7614,11.00748],[107.77757,11.01631],[107.7807,11.02784],[107.78424,11.03925],[107.77957,11.0536],[107.78828,11.06335],[107.78889,11.07631],[107.80651,11.08151],[107.77551,11.11096],[107.8376,11.09108],[107.91334,11.05767],[107.91786,11.06451],[107.73341,11.20582],[107.92402,11.08049],[107.96797,11.05518],[107.96897,11.06317],[107.97696,11.06498],[107.98489,11.06641],[107.94367,11.12091],[107.95042,11.12668],[108.00537,11.072],[107.9834,11.11205],[107.99495,11.10901],[107.99882,11.11684],[107.98018,11.16355],[108.00996,11.12835],[108.01694,11.13184],[108.02218,11.1392],[108.02095,11.16311],[108.02916,11.16621],[107.97223,11.36572],[107.98263,11.38765],[107.99553,11.40501],[108.00951,11.42202],[108.02457,11.43864],[108.03876,11.46816],[108.05879,11.46151],[108.07794,11.45864],[108.09649,11.4641],[108.11538,11.42845]]]}}