{"type":"Feature","properties":{"towerId":"binh-dinh-vung-chua","name":"Trạm Phát Sóng Vũng Chua","estimated":true,"model":"horizon+LOS srtm z10, rx 10m, tx 76m AGL"},"geometry":{"type":"Polygon","coordinates":[[[109.19218,14.03439],[109.20237,14.02972],[109.21125,14.01126],[109.21979,14.00151],[109.22701,13.98706],[109.23563,13.98573],[109.38541,14.6262],[109.41702,14.61911],[109.44834,14.61096],[109.47935,14.60175],[109.50363,14.5746],[109.53678,14.57187],[109.56631,14.55968],[109.53615,14.42939],[109.55616,14.40937],[109.57748,14.39274],[109.65233,14.45927],[109.67512,14.43952],[109.68609,14.40456],[109.70661,14.38388],[109.72025,14.35574],[109.73251,14.32746],[109.67878,14.23455],[109.67263,14.19594],[109.68159,14.17338],[109.69663,14.15653],[109.85021,14.24404],[109.76242,14.14769],[109.77648,14.12812],[109.78589,14.1057],[109.79843,14.08536],[109.80612,14.0625],[109.81291,14.03954],[109.81456,14.01468],[109.76788,13.97166],[109.77124,13.95048],[109.77378,13.92934],[109.77552,13.90829],[109.77196,13.88626],[109.77207,13.8656],[109.76684,13.84433],[109.76539,13.82417],[109.77241,13.80515],[109.78338,13.78605],[109.77515,13.7657],[109.77083,13.74594],[109.77505,13.72615],[109.77394,13.70641],[109.77212,13.68671],[109.78333,13.66518],[109.78002,13.64519],[109.73981,13.63288],[109.73088,13.61549],[109.73472,13.59481],[109.78606,13.55832],[109.77892,13.5383],[109.77534,13.51684],[109.77938,13.4917],[109.774,13.46997],[109.77185,13.44617],[109.77668,13.41767],[109.78016,13.38849],[109.77076,13.36626],[109.76793,13.33892],[109.77111,13.30577],[109.75493,13.28641],[109.75177,13.25555],[109.75369,13.21809],[109.74079,13.1929],[109.75141,13.14115],[109.74119,13.10876],[109.75199,13.04794],[109.73472,13.01846],[109.70829,13.00051],[109.68124,12.98347],[109.65359,12.96735],[109.62539,12.95218],[109.59667,12.93798],[109.56746,12.92476],[109.52919,12.93339],[109.30603,13.44235],[109.47584,12.89542],[109.44012,12.90362],[109.40979,12.89572],[109.20469,13.68943],[109.20343,13.68461],[109.31672,12.88273],[109.28619,12.87456],[109.25652,12.84947],[109.22421,12.85233],[109.19218,12.87876],[109.16224,12.91075],[109.16864,13.41916],[109.16125,13.4604],[109.14971,13.45272],[109.13839,13.44991],[109.1393,13.5047],[109.12953,13.50227],[109.15902,13.63422],[109.15643,13.63969],[109.15262,13.64097],[109.11767,13.56732],[109.1188,13.58639],[109.11309,13.58898],[109.15524,13.67911],[109.11353,13.6142],[109.15294,13.68559],[109.15077,13.68696],[109.05352,13.56104],[108.88488,13.36374],[108.87429,13.37784],[108.8211,13.34534],[108.87746,13.42942],[108.8397,13.41526],[108.78685,13.39124],[108.77433,13.4052],[108.82054,13.46396],[108.81435,13.47938],[108.81264,13.49739],[108.91757,13.57966],[108.74365,13.4944],[108.73078,13.50764],[108.73077,13.52738],[108.93433,13.63491],[108.93905,13.6471],[108.93997,13.65728],[108.87533,13.64636],[108.97419,13.68578],[108.97214,13.69321],[108.83458,13.6725],[108.85946,13.68939],[108.83469,13.69754],[108.85615,13.71207],[108.8274,13.72156],[108.83597,13.73427],[108.83573,13.74635],[108.83593,13.75844],[108.8458,13.76989],[108.83302,13.78301],[108.82078,13.79702],[108.36653,13.88656],[108.77998,13.83134],[108.3695,13.94431],[108.74696,13.87015],[108.77369,13.87826],[108.75689,13.90002],[108.41859,14.0486],[108.44261,14.06919],[108.46298,14.09049],[108.39373,14.15697],[108.52964,14.11669],[108.46059,14.18873],[108.46535,14.22077],[108.47154,14.25302],[108.47552,14.28817],[108.51324,14.29773],[108.53001,14.32341],[108.55451,14.34239],[108.85081,14.08924],[108.85091,14.11395],[108.83148,14.16314],[108.89531,14.11494],[108.90055,14.13569],[108.88874,14.18258],[108.77644,14.39071],[108.77428,14.44721],[108.77571,14.50458],[108.81145,14.50208],[108.82374,14.54736],[108.98712,14.23849],[108.87435,14.59149],[108.9295,14.52907],[108.9463,14.57639],[109.11368,14.05201],[109.12375,14.05888],[109.13503,14.06101],[109.1425,14.08947],[109.13738,14.25194],[109.17214,14.02472],[109.15974,14.64538],[109.19218,14.03439]]]}}