{"type":"Feature","properties":{"towerId":"binh-duong-thu-dau-mot","name":"Đài Phát Thanh TH Bình Dương","estimated":true,"model":"horizon+LOS srtm z10, rx 10m, tx 250m AGL"},"geometry":{"type":"Polygon","coordinates":[[[106.67336,11.66547],[106.69836,11.67404],[106.72301,11.66827],[106.74583,11.64826],[106.75192,11.52069],[106.79614,11.65493],[106.82802,11.68549],[106.83661,11.61432],[106.84795,11.56944],[106.88046,11.5973],[106.90572,11.59827],[106.89339,11.50657],[106.94405,11.56851],[106.97518,11.57907],[107.02033,11.61201],[106.99689,11.5219],[107.04304,11.5524],[107.08916,11.57662],[107.05364,11.48569],[107.11411,11.52544],[107.14828,11.5272],[107.16464,11.50726],[107.17697,11.48364],[107.19814,11.4692],[107.21888,11.45392],[107.2427,11.4407],[107.25898,11.42091],[107.27083,11.39794],[107.25511,11.35715],[107.28009,11.34411],[107.26905,11.30966],[107.28876,11.29325],[107.07295,11.16394],[107.2513,11.22484],[107.36199,11.2451],[107.34104,11.21064],[107.21821,11.1462],[107.35626,11.16434],[107.35817,11.13975],[107.37263,11.11804],[107.36379,11.09168],[107.15426,11.03895],[107.22921,11.02984],[107.13947,11.00464],[107.13572,10.9885],[107.18636,10.97257],[107.38283,10.94785],[107.20789,10.93583],[107.21989,10.91611],[107.21298,10.89805],[107.23702,10.87488],[107.21974,10.85845],[107.23753,10.83433],[107.25423,10.80884],[107.24367,10.79044],[107.24112,10.76947],[107.27593,10.73322],[107.25449,10.71823],[107.19987,10.72024],[107.22285,10.68541],[107.22812,10.65774],[107.24369,10.62219],[107.24981,10.59026],[107.1915,10.60254],[107.12041,10.62939],[107.13243,10.59402],[107.15602,10.54537],[107.13068,10.53848],[107.12131,10.5166],[107.10483,10.50153],[107.11423,10.45599],[107.08437,10.45539],[107.10866,10.38336],[107.08746,10.36881],[107.06335,10.35881],[107.02763,10.3692],[106.98028,10.4051],[106.96594,10.3828],[106.93554,10.39368],[106.9285,10.35168],[106.89381,10.37713],[106.85703,10.41699],[106.84473,10.3851],[106.83149,10.34904],[106.76276,10.55954],[106.78528,10.34859],[106.74845,10.44755],[106.74836,10.27089],[106.72373,10.26426],[106.69856,10.26296],[106.67336,10.24455],[106.64769,10.24948],[106.62236,10.25529],[106.59742,10.26194],[106.57288,10.26943],[106.54561,10.26002],[106.5204,10.26483],[106.50089,10.29232],[106.47182,10.28135],[106.45587,10.31434],[106.42327,10.29683],[106.40115,10.30998],[106.37408,10.31149],[106.34879,10.3181],[106.33432,10.34551],[106.3191,10.3692],[106.29063,10.37025],[106.26692,10.38],[106.23807,10.38336],[106.2174,10.39864],[106.20609,10.42495],[106.18386,10.43795],[106.16516,10.45505],[106.1405,10.46652],[106.12623,10.4881],[106.11283,10.51003],[106.09672,10.52952],[106.07761,10.5469],[106.06283,10.56757],[106.05266,10.59112],[106.04737,10.61713],[106.03509,10.6388],[106.01948,10.65889],[105.99617,10.67597],[105.99025,10.70104],[105.98098,10.72461],[105.97255,10.74849],[105.97816,10.77638],[105.96269,10.79812],[105.95688,10.82258],[105.97899,10.85197],[105.94335,10.87138],[105.9356,10.89597],[105.93785,10.92162],[105.94559,10.94718],[105.94967,10.97214],[106.03704,10.99415],[105.95131,11.02171],[105.97624,11.04412],[105.95193,11.07165],[105.95585,11.09631],[105.96961,11.11897],[105.97521,11.14299],[106.00369,11.16066],[106.01075,11.18349],[106.00999,11.20912],[106.00176,11.2384],[106.15829,11.19752],[106.15421,11.22092],[106.16333,11.23856],[106.12538,11.28277],[106.13283,11.30373],[106.19819,11.28693],[106.16507,11.33467],[106.16014,11.36567],[106.17442,11.38302],[106.16882,11.41788],[106.15851,11.45984],[106.17615,11.47718],[106.2313,11.45387],[106.35794,11.34141],[106.36841,11.35553],[106.37681,11.37301],[106.38866,11.38666],[106.41329,11.38091],[106.30155,11.60362],[106.39332,11.489],[106.36147,11.59927],[106.38022,11.61779],[106.47228,11.46072],[106.49448,11.45464],[106.48901,11.52889],[106.50765,11.53919],[106.52903,11.54016],[106.54836,11.54915],[106.55698,11.61951],[106.57048,11.68989],[106.60138,11.64378],[106.62468,11.65481],[106.64821,11.67853],[106.67336,11.66547]]]}}