{"type":"Feature","properties":{"towerId":"binh-phuoc-dong-xoai","name":"Đài Phát Thanh TH Bình Phước","estimated":true,"model":"horizon+LOS srtm z10, rx 10m, tx 113m AGL"},"geometry":{"type":"Polygon","coordinates":[[[106.888,11.87535],[106.89858,11.8347],[106.91108,11.86107],[106.9221,11.85561],[106.93212,11.84535],[106.94065,11.83037],[106.95009,11.82399],[106.96024,11.82169],[106.96651,11.80608],[106.97459,11.79896],[106.99327,11.82119],[107.0033,11.81742],[107.09367,11.98989],[107.00277,11.76845],[107.01523,11.77232],[107.0189,11.76004],[107.23158,12.07558],[107.24797,12.05978],[107.03917,11.74178],[107.29562,12.04806],[107.07399,11.75505],[107.08161,11.74856],[107.0858,11.73858],[107.09282,11.7317],[107.06203,11.6915],[107.09907,11.71145],[107.09425,11.69583],[107.19269,11.75467],[107.25357,11.77926],[107.09047,11.66194],[107.0868,11.65045],[107.08663,11.64148],[107.08606,11.63265],[107.12707,11.64226],[107.08379,11.61552],[107.09506,11.61185],[107.11502,11.61027],[107.08656,11.59381],[107.14633,11.60108],[107.16189,11.595],[107.1547,11.58405],[107.15163,11.57428],[107.15731,11.56571],[107.16271,11.55679],[107.15862,11.54724],[107.17254,11.53797],[107.11273,11.53033],[107.1169,11.52233],[107.12075,11.51404],[107.16519,11.4998],[107.18624,11.48642],[107.18421,11.47625],[107.19073,11.46398],[107.21435,11.4462],[107.21523,11.43371],[107.19838,11.42721],[107.18999,11.41835],[107.2693,11.37142],[107.27136,11.35453],[107.2484,11.35],[107.24148,11.33779],[107.05141,11.43798],[107.05154,11.42994],[107.21817,11.30269],[107.20958,11.29154],[107.35144,11.15621],[107.00051,11.43879],[107.0101,11.42251],[107.00272,11.42164],[106.9985,11.41778],[107.22089,11.14868],[107.22373,11.11625],[107.21659,11.09411],[107.06492,11.28083],[107.1721,11.09181],[107.21778,10.97716],[107.19764,10.96622],[107.17511,10.96003],[107.13393,10.99576],[107.03395,11.18369],[107.02125,11.17891],[107.00839,11.17457],[106.97267,11.24849],[106.96563,11.23268],[106.99468,11.04547],[106.97392,11.05984],[106.96641,10.99039],[106.93064,11.1401],[106.92953,10.95497],[106.90782,10.98086],[106.888,11.11992],[106.87329,11.12467],[106.86019,11.14785],[106.8468,11.15351],[106.83251,11.1507],[106.80764,11.09084],[106.79273,11.09825],[106.77714,11.10178],[106.76295,11.11016],[106.75629,11.14036],[106.74066,11.14088],[106.73176,11.15867],[106.70905,11.1437],[106.71519,11.19048],[106.67499,11.14497],[106.67029,11.16808],[106.64998,11.1643],[106.67011,11.22116],[106.63743,11.19968],[106.63681,11.22264],[106.63457,11.24176],[106.62417,11.25061],[106.58547,11.23066],[106.55823,11.22556],[106.54731,11.23703],[106.55785,11.26622],[106.52671,11.26104],[106.53559,11.2868],[106.50786,11.28641],[106.42143,11.25179],[106.4988,11.31751],[106.48713,11.32884],[106.44285,11.32488],[106.41877,11.33289],[106.48824,11.37949],[106.37083,11.3531],[106.3907,11.37928],[106.62779,11.46486],[106.46957,11.43555],[106.46167,11.44898],[106.45875,11.46361],[106.59718,11.49791],[106.59592,11.50788],[106.56755,11.51597],[106.56695,11.52694],[106.56675,11.53793],[106.56234,11.54906],[106.57666,11.55927],[106.38128,11.58984],[106.37887,11.60775],[106.59417,11.58871],[106.59166,11.59966],[106.59402,11.60975],[106.58351,11.62347],[106.5911,11.63244],[106.59895,11.641],[106.65389,11.63066],[106.63215,11.64956],[106.63215,11.66021],[106.63259,11.67099],[106.64146,11.67739],[106.64267,11.68812],[106.65578,11.69139],[106.6874,11.68076],[106.69623,11.68477],[106.54664,11.81827],[106.56366,11.82376],[106.5575,11.85028],[106.57202,11.85816],[106.60517,11.8454],[106.68132,11.77915],[106.62492,11.86752],[106.6233,11.89449],[106.63617,11.90332],[106.65666,11.90028],[106.66972,11.90797],[106.6852,11.91124],[106.74098,11.8331],[106.6636,12.03096],[106.7727,11.81742],[106.77486,11.84231],[106.78436,11.85027],[106.80569,11.81905],[106.80352,11.86968],[106.79147,11.98232],[106.83774,11.81708],[106.85284,11.78301],[106.85823,11.81536],[106.87006,11.7893],[106.8787,11.79875],[106.888,11.87535]]]}}