{"type":"Feature","properties":{"towerId":"ca-mau-ly-van-lam","name":"Trung Tâm Viễn Thông TP. Cà Mau","estimated":true,"model":"horizon+LOS srtm z10, rx 10m, tx 130m AGL"},"geometry":{"type":"Polygon","coordinates":[[[105.12938,9.67627],[105.14833,9.67145],[105.16629,9.65701],[105.18469,9.65543],[105.20175,9.6443],[105.22205,9.65478],[105.23749,9.63808],[105.25848,9.64713],[105.2727,9.62941],[105.29569,9.64127],[105.31189,9.63101],[105.32757,9.62025],[105.34642,9.61723],[105.36329,9.60946],[105.37774,9.59715],[105.39845,9.59609],[105.40244,9.56748],[105.41241,9.55036],[105.45102,9.57308],[105.46627,9.56173],[105.47816,9.54642],[105.48328,9.52414],[105.49994,9.51494],[105.52294,9.5113],[105.52917,9.4915],[105.53098,9.46885],[105.56046,9.46863],[105.57193,9.45357],[105.58286,9.43813],[105.5855,9.41757],[105.5991,9.40392],[105.61228,9.38968],[105.60863,9.36699],[105.61231,9.34852],[105.63218,9.33678],[105.63893,9.31934],[105.6364,9.2989],[105.65058,9.2838],[105.6466,9.26359],[105.65076,9.24569],[105.65429,9.22766],[105.66619,9.21076],[105.65488,9.19082],[105.66555,9.1733],[105.64829,9.1542],[105.62581,9.13634],[105.62549,9.11924],[105.62456,9.10216],[105.62302,9.08512],[105.64794,9.06435],[105.67195,9.0418],[105.66825,9.02316],[105.6639,9.00466],[105.65889,8.98633],[105.65325,8.96817],[105.64696,8.95023],[105.64005,8.93251],[105.63251,8.91504],[105.62436,8.89783],[105.61561,8.88093],[105.60627,8.86433],[105.59635,8.84806],[105.58586,8.83215],[105.53436,8.84572],[105.56324,8.80145],[105.54765,8.7896],[105.5385,8.77239],[105.52538,8.75851],[105.45811,8.80014],[105.36691,8.87596],[105.39555,8.82313],[105.38432,8.81415],[105.34337,8.84559],[105.35838,8.8011],[105.35602,8.77816],[105.36822,8.72772],[105.3323,8.75945],[105.32881,8.73247],[105.32551,8.7012],[105.29129,8.74057],[105.28342,8.71833],[105.26574,8.72183],[105.25978,8.68713],[105.23503,8.71781],[105.22774,8.67924],[105.20758,8.69827],[105.19332,8.68694],[105.17883,8.67159],[105.16048,8.69709],[105.14478,8.70077],[105.12938,8.66903],[105.11208,8.64685],[105.09385,8.63429],[105.07614,8.63582],[105.05723,8.62905],[105.03856,8.62742],[105.01781,8.61766],[105.00285,8.63491],[104.98521,8.63957],[104.96775,8.64484],[104.94583,8.63803],[104.93514,8.66134],[104.91294,8.656],[104.8961,8.66375],[104.87527,8.66413],[104.86556,8.68486],[104.85699,8.70567],[104.83431,8.70413],[104.82723,8.72548],[104.82408,8.75033],[104.81062,8.76108],[104.79146,8.76561],[104.78803,8.78719],[104.77589,8.79916],[104.76756,8.81456],[104.75291,8.82433],[104.74569,8.84026],[104.72441,8.84572],[104.7106,8.85734],[104.6817,8.86],[104.66825,8.87334],[104.6552,8.88727],[104.65076,8.90574],[104.63457,8.9187],[104.62294,8.9342],[104.61181,8.95023],[104.60552,8.96817],[104.59987,8.98633],[104.59487,9.00466],[104.59497,9.0241],[104.5913,9.04259],[104.5928,9.06182],[104.58594,9.07987],[104.5797,9.09831],[104.57867,9.11728],[104.5783,9.13627],[104.57861,9.15525],[104.57959,9.17422],[104.58123,9.19314],[104.58806,9.21138],[104.58653,9.23076],[104.59017,9.2494],[104.59447,9.26791],[104.59943,9.28627],[104.60503,9.30444],[104.61126,9.3224],[104.61814,9.34014],[104.62563,9.35763],[104.63374,9.37485],[104.65454,9.38547],[104.65572,9.40617],[104.66553,9.42232],[104.68725,9.4306],[104.72375,9.42719],[104.71629,9.45481],[104.73128,9.46596],[104.75673,9.46746],[104.76209,9.48634],[104.79687,9.47616],[104.79992,9.49743],[104.80408,9.51888],[104.83185,9.51216],[104.83726,9.53309],[104.84125,9.55781],[104.85633,9.56748],[104.87174,9.57663],[104.88317,9.59318],[104.90348,9.5933],[104.91978,9.60081],[104.93291,9.61608],[104.95469,9.60989],[104.96731,9.62844],[104.98229,9.64237],[105.0036,9.63405],[105.01938,9.64687],[105.03672,9.65478],[105.05384,9.66656],[105.07647,9.63307],[105.09566,9.61216],[105.11235,9.61752],[105.12938,9.67627]]]}}