{"type":"Feature","properties":{"towerId":"can-tho-ninh-kieu","name":"Đài Phát Thanh TH Cần Thơ","estimated":true,"model":"horizon+LOS srtm z10, rx 10m, tx 130m AGL"},"geometry":{"type":"Polygon","coordinates":[[[105.7684,10.53062],[105.78707,10.54379],[105.80477,10.52937],[105.82289,10.5278],[105.84223,10.53453],[105.85734,10.51396],[105.8787,10.52819],[105.89452,10.51537],[105.91336,10.51505],[105.93233,10.51404],[105.9514,10.51233],[105.97055,10.5099],[105.98975,10.50676],[106.01097,10.50694],[106.01527,10.47449],[106.02903,10.46184],[106.0519,10.46404],[106.06499,10.4503],[106.07745,10.43621],[106.08928,10.42179],[106.10047,10.40708],[106.13244,10.41546],[106.1336,10.38978],[106.15314,10.38324],[106.16245,10.36679],[106.17458,10.35304],[106.18981,10.34164],[106.17882,10.31113],[106.20792,10.30939],[106.17143,10.26557],[106.23145,10.28073],[106.25662,10.27308],[106.2407,10.24435],[106.26513,10.23528],[106.26828,10.21639],[106.28789,10.20369],[106.2811,10.18157],[106.19432,10.13796],[106.24707,10.13514],[106.29562,10.1279],[106.29018,10.10817],[106.27042,10.08709],[106.29072,10.07165],[106.27407,10.05244],[106.28866,10.03549],[106.27525,10.01762],[106.27947,10.00004],[106.29673,9.9812],[106.25877,9.96688],[106.28829,9.94563],[106.27191,9.93017],[106.27294,9.91198],[106.26886,9.89471],[106.29049,9.8701],[106.25455,9.86202],[106.26158,9.84078],[106.25076,9.82563],[106.25197,9.8055],[106.23184,9.79494],[106.2317,9.77492],[106.20701,9.76816],[106.0045,9.87257],[106.158,9.75879],[106.1707,9.72967],[106.14228,9.72988],[106.17025,9.68537],[106.06338,9.75611],[106.15227,9.65232],[106.1106,9.66849],[106.11326,9.64022],[106.12017,9.60447],[106.09129,9.61036],[106.06863,9.61043],[106.06675,9.58171],[106.05353,9.56791],[106.02832,9.57397],[106.00389,9.58119],[105.99827,9.55315],[105.97982,9.54964],[105.96312,9.54266],[105.9524,9.51935],[105.93042,9.52616],[105.91292,9.52089],[105.89524,9.51623],[105.87835,9.50778],[105.86023,9.50431],[105.84136,9.50592],[105.8232,9.50372],[105.80497,9.50215],[105.78685,9.49671],[105.7684,9.51888],[105.75026,9.5057],[105.73277,9.51561],[105.71502,9.51714],[105.69796,9.52373],[105.68051,9.52645],[105.65654,9.49898],[105.63715,9.49878],[105.62011,9.50793],[105.60918,9.53472],[105.58594,9.52358],[105.57197,9.53849],[105.55882,9.55375],[105.53653,9.54911],[105.5158,9.54942],[105.50619,9.57007],[105.47843,9.56028],[105.45986,9.56679],[105.44942,9.58495],[105.4427,9.60681],[105.43126,9.62171],[105.41743,9.63353],[105.40087,9.64259],[105.38779,9.65545],[105.36502,9.65971],[105.36654,9.68537],[105.355,9.69939],[105.32921,9.7032],[105.32588,9.72352],[105.31571,9.73891],[105.31399,9.75914],[105.29301,9.76857],[105.27626,9.7811],[105.28482,9.8055],[105.27335,9.82056],[105.26236,9.83615],[105.28224,9.86202],[105.26384,9.87509],[105.24136,9.88814],[105.25492,9.9101],[105.24241,9.92623],[105.2485,9.94563],[105.24624,9.96354],[105.23551,9.98088],[105.23907,9.99938],[105.23415,10.01758],[105.22531,10.03624],[105.22172,10.0552],[105.22335,10.07396],[105.24827,10.08957],[105.23762,10.10972],[105.24564,10.12698],[105.24981,10.14488],[105.25461,10.16262],[105.27308,10.17604],[105.26609,10.19756],[105.27275,10.21472],[105.30089,10.22252],[105.27143,10.25614],[105.30036,10.26255],[105.33307,10.26503],[105.32269,10.29173],[105.31749,10.31692],[105.33576,10.32696],[105.34337,10.3444],[105.36221,10.35304],[105.37774,10.36379],[105.38694,10.38012],[105.41273,10.38009],[105.4166,10.4021],[105.44809,10.39331],[105.45596,10.41117],[105.45664,10.43984],[105.4974,10.41304],[105.50673,10.42974],[105.52149,10.43848],[105.51722,10.48243],[105.53987,10.47866],[105.54704,10.50676],[105.56452,10.51407],[105.58852,10.50388],[105.60871,10.50121],[105.63226,10.4848],[105.64116,10.51973],[105.6619,10.5106],[105.67627,10.53167],[105.69583,10.52562],[105.71868,10.48308],[105.7432,10.37237],[105.7502,10.5303],[105.7684,10.53062]]]}}