{"type":"Feature","properties":{"towerId":"da-nang-son-tra","name":"Trạm Phát Sóng Đà Nẵng","estimated":true,"model":"horizon+LOS srtm z10, rx 10m, tx 50m AGL"},"geometry":{"type":"Polygon","coordinates":[[[108.27378,17.01759],[108.3066,17.01704],[108.33938,17.01538],[108.37208,17.01264],[108.40466,17.00879],[108.43707,17.00386],[108.46929,16.99784],[108.50126,16.99075],[108.53295,16.98259],[108.56433,16.97337],[108.59534,16.96311],[108.62596,16.95181],[108.65614,16.93949],[108.68585,16.92617],[108.71505,16.91186],[108.74371,16.89658],[108.77179,16.88035],[108.79925,16.86319],[108.82607,16.84511],[108.8522,16.82615],[108.87763,16.80633],[108.90231,16.78566],[108.92621,16.76418],[108.94932,16.74191],[108.97159,16.71888],[108.993,16.69512],[109.01353,16.67066],[109.03315,16.64552],[109.05184,16.61974],[109.06958,16.59335],[109.08633,16.56638],[109.10209,16.53886],[109.11684,16.51084],[109.13055,16.48233],[109.14321,16.45339],[109.15481,16.42404],[109.16533,16.39431],[108.29177,16.12322],[108.29194,16.12261],[108.29209,16.122],[108.29221,16.12139],[108.29232,16.12077],[108.2924,16.12014],[108.29245,16.11952],[108.29249,16.11889],[109.20989,16.11622],[109.20917,16.08484],[109.20731,16.0535],[109.19967,16.02274],[109.2002,15.99111],[109.19494,15.96013],[109.18857,15.92934],[109.18109,15.89879],[109.17251,15.8685],[109.16283,15.83853],[109.15208,15.80889],[109.14026,15.77963],[109.12739,15.75079],[109.11349,15.7224],[109.09857,15.69448],[109.08266,15.66709],[109.06576,15.64025],[108.52967,15.95216],[108.51592,15.94897],[109.00941,15.56334],[108.98882,15.53901],[108.96737,15.51539],[108.94507,15.4925],[108.92197,15.47038],[108.89808,15.44904],[108.87344,15.42852],[108.84808,15.40883],[108.82203,15.39001],[108.79531,15.37207],[108.74335,15.39322],[108.72377,15.36622],[108.68754,15.36749],[108.654,15.36621],[108.62465,15.35803],[108.59691,15.34673],[108.57038,15.33213],[108.53887,15.33122],[108.51151,15.31849],[108.48355,15.30664],[108.45212,15.3089],[108.41869,15.32555],[108.39315,15.29891],[108.36974,15.23726],[108.33684,15.24804],[108.30598,15.22848],[108.27378,15.24143],[108.24352,15.2824],[108.21232,15.27047],[108.20598,15.49665],[108.14471,15.23211],[108.20725,15.75513],[108.18927,15.73559],[108.16868,15.71248],[108.03092,15.30119],[108.03596,15.41251],[107.97717,15.33213],[107.9402,15.32169],[107.93613,15.3868],[107.90577,15.39048],[107.87964,15.40326],[107.84934,15.40911],[108.03116,15.74442],[107.86144,15.52887],[107.79657,15.48476],[107.88281,15.63601],[107.93446,15.72876],[107.93614,15.7571],[107.94268,15.78808],[107.92083,15.79],[108.03055,15.90751],[108.02304,15.91579],[108.00848,15.91878],[107.99006,15.91985],[107.9714,15.92192],[107.94068,15.91785],[107.92956,15.92688],[107.99708,15.97665],[107.9963,15.98799],[107.98746,15.99553],[107.98318,16.00521],[107.97924,16.01502],[107.58898,15.90319],[107.39748,15.87479],[107.37099,15.8999],[108.00373,16.06294],[107.81761,16.04048],[107.81968,16.05646],[108.23654,16.1145],[107.8256,16.08768],[107.84813,16.10356],[107.88061,16.1179],[107.57671,16.14052],[107.88618,16.14395],[107.87337,16.15831],[107.83795,16.17665],[107.868,16.18659],[107.95777,16.18254],[107.96483,16.19201],[107.9722,16.20109],[108.06894,16.18208],[107.98334,16.21957],[108.10881,16.18221],[108.11123,16.1877],[108.09701,16.20098],[108.13321,16.18999],[108.1359,16.19466],[107.94796,16.31341],[107.94358,16.33174],[107.5144,16.64552],[107.53402,16.67066],[107.55455,16.69512],[107.57596,16.71888],[107.59823,16.74191],[107.62134,16.76418],[107.64524,16.78566],[107.66992,16.80633],[107.69535,16.82615],[107.72148,16.84511],[107.7483,16.86319],[107.77576,16.88035],[107.80384,16.89658],[107.8325,16.91186],[107.8617,16.92617],[107.89141,16.93949],[107.92159,16.95181],[107.95221,16.96311],[107.98322,16.97337],[108.0146,16.98259],[108.04629,16.99075],[108.07826,16.99784],[108.11048,17.00386],[108.14289,17.00879],[108.17547,17.01264],[108.20817,17.01538],[108.24095,17.01704],[108.27378,17.01759]]]}}