{"type":"Feature","properties":{"towerId":"da-nang-dai-ptth","name":"Đài PTTH Đà Nẵng","estimated":true,"model":"horizon+LOS srtm z10, rx 10m, tx 50m AGL"},"geometry":{"type":"Polygon","coordinates":[[[108.25021,16.1334],[108.25087,16.13339],[108.25152,16.13335],[108.25217,16.1333],[108.25282,16.13322],[108.25346,16.13313],[108.2541,16.13301],[108.25474,16.13286],[108.25537,16.1327],[108.256,16.13252],[108.25662,16.13231],[108.25723,16.13209],[108.25783,16.13184],[108.25842,16.13158],[108.259,16.13129],[108.25957,16.13099],[108.26013,16.13067],[108.26068,16.13032],[108.26122,16.12996],[108.26174,16.12959],[108.26225,16.12919],[108.26274,16.12878],[108.26322,16.12835],[108.26368,16.12791],[108.26413,16.12745],[108.26455,16.12697],[108.26497,16.12649],[108.26536,16.12598],[108.26573,16.12547],[108.26609,16.12494],[108.26643,16.1244],[108.26674,16.12386],[108.26704,16.1233],[108.26732,16.12273],[108.26757,16.12215],[108.26781,16.12156],[108.26802,16.12097],[108.27271,16.12161],[108.27292,16.12085],[108.2731,16.12009],[108.27326,16.11931],[108.27339,16.11854],[108.27349,16.11776],[108.27356,16.11698],[108.2736,16.1162],[108.27361,16.11541],[108.2736,16.11463],[108.27356,16.11384],[108.27349,16.11306],[108.27339,16.11228],[108.27326,16.11151],[108.2731,16.11074],[108.27292,16.10997],[108.27271,16.10921],[108.27692,16.10707],[108.94868,15.86975],[108.9393,15.84648],[108.92908,15.82354],[108.91805,15.80096],[108.89796,15.78301],[108.5054,15.97362],[108.52783,15.94843],[108.51772,15.94175],[108.70766,15.79512],[108.7178,15.76332],[108.71188,15.74206],[108.70497,15.72078],[108.70379,15.69325],[108.69143,15.67506],[108.69389,15.64045],[108.69735,15.6017],[108.70711,15.55153],[108.68639,15.53656],[108.66514,15.52229],[108.64339,15.50873],[108.61652,15.50372],[108.55918,15.55538],[108.56317,15.49683],[108.55003,15.46616],[108.5124,15.48988],[108.49754,15.46033],[108.45498,15.50805],[108.44567,15.45832],[108.42963,15.42161],[108.39087,15.47761],[108.35395,15.54857],[108.32752,15.58551],[108.30877,15.57877],[108.28864,15.5861],[108.27415,15.45481],[108.25021,15.47689],[108.22758,15.49076],[108.22479,15.76553],[108.21065,15.75318],[108.19625,15.74582],[108.17964,15.73014],[108.16571,15.73274],[108.12821,15.64417],[108.10863,15.6399],[108.24443,16.09831],[108.06656,15.62941],[108.04208,15.61918],[108.01475,15.60591],[108.04136,15.70308],[107.94562,15.56333],[108.0283,15.74535],[107.95079,15.65379],[107.92381,15.64918],[107.88519,15.63127],[107.87359,15.6509],[107.93788,15.75695],[108.23769,16.10205],[108.23721,16.10247],[108.02487,15.90601],[108.02087,15.91671],[108.00664,15.91873],[107.9886,15.9187],[107.97406,15.92229],[107.94397,15.91655],[107.93297,15.92455],[107.92623,15.9353],[107.99828,15.98649],[107.99375,15.99502],[107.98526,16.00185],[107.98563,16.0125],[107.58685,15.88216],[107.93876,16.01792],[107.8545,16.00598],[108.0005,16.05544],[108.00305,16.06479],[108.00136,16.0731],[108.23167,16.11291],[108.23159,16.11353],[108.23154,16.11416],[108.2315,16.11478],[108.23149,16.11541],[107.85726,16.12823],[107.89065,16.13926],[107.81721,16.15869],[107.87468,16.16577],[107.86289,16.18065],[107.86549,16.1936],[107.95945,16.18484],[107.96665,16.19331],[107.9741,16.20139],[108.02581,16.19373],[108.07656,16.18272],[108.09195,16.18302],[108.11134,16.18042],[108.11379,16.18503],[108.1164,16.18956],[108.12712,16.18924],[108.13764,16.1883],[108.13657,16.19467],[108.23546,16.12649],[108.23587,16.12697],[108.2363,16.12745],[108.23674,16.12791],[108.23721,16.12835],[108.23768,16.12878],[108.23818,16.12919],[108.23868,16.12959],[108.23921,16.12996],[108.23974,16.13032],[108.24029,16.13067],[108.24085,16.13099],[108.24142,16.13129],[108.242,16.13158],[108.2426,16.13184],[108.2432,16.13209],[108.24381,16.13231],[108.24443,16.13252],[108.24505,16.1327],[108.24568,16.13286],[108.24632,16.13301],[108.24696,16.13313],[108.24761,16.13322],[108.24825,16.1333],[108.24891,16.13335],[108.24956,16.13339],[108.25021,16.1334]]]}}