{"type":"Feature","properties":{"towerId":"dak-lak-deo-ha-lan","name":"Trạm phát sóng Đèo Hà Lan","estimated":true,"model":"horizon+LOS srtm z10, rx 10m, tx 57m AGL"},"geometry":{"type":"Polygon","coordinates":[[[108.24326,13.1025],[108.25373,13.10682],[108.26806,13.16011],[108.27946,13.15011],[108.29146,13.14867],[108.30179,13.13797],[108.31046,13.12259],[108.32033,13.11575],[108.33234,13.11727],[108.3617,13.16964],[108.36961,13.15272],[108.38511,13.15655],[108.44054,13.24596],[108.4498,13.22687],[108.4601,13.21165],[108.43026,13.13008],[108.45859,13.1502],[108.4679,13.13894],[108.44949,13.09111],[108.48203,13.11225],[108.48957,13.1005],[108.49965,13.09194],[108.50622,13.07982],[108.49561,13.05199],[108.51425,13.05227],[108.49428,13.01981],[108.50147,13.01114],[108.5046,12.9996],[108.51872,12.99561],[108.60728,13.03607],[108.53898,12.98092],[108.93236,13.17057],[109.01947,13.18218],[109.05325,13.16462],[109.08668,13.1452],[109.10665,13.11935],[108.79186,12.98783],[108.75332,12.95676],[108.82975,12.95657],[108.7893,12.92727],[108.78843,12.90785],[108.78227,12.88801],[108.79373,12.87054],[108.74475,12.84843],[109.07752,12.8418],[109.09638,12.81334],[109.14183,12.78259],[109.0895,12.75565],[109.10058,12.72543],[108.99187,12.71103],[108.9423,12.69355],[108.90146,12.6774],[108.90059,12.65399],[108.67747,12.69289],[108.68597,12.674],[108.69364,12.65439],[108.76447,12.6087],[108.74835,12.59476],[108.71534,12.58958],[109.05624,12.39127],[108.78972,12.50614],[108.75494,12.50207],[108.74725,12.48233],[108.73876,12.46273],[108.70412,12.46273],[108.68068,12.45595],[108.66758,12.44128],[108.65066,12.4302],[108.65582,12.39713],[108.63449,12.39004],[108.60134,12.39768],[108.72195,12.21546],[108.50852,12.45807],[108.50075,12.4418],[108.4897,12.42945],[108.47578,12.4213],[108.46157,12.41363],[108.44711,12.40644],[108.42865,12.40797],[108.41572,12.39774],[108.40072,12.39212],[108.38552,12.38702],[108.37015,12.38244],[108.35685,12.36966],[108.33897,12.37486],[108.30963,12.44716],[108.29709,12.44067],[108.28705,12.40776],[108.29682,12.0656],[108.26253,12.27545],[108.24326,12.01881],[108.21438,12.00582],[108.18074,11.94],[108.15245,11.9695],[108.12554,11.99536],[108.11389,12.0973],[108.06263,11.98337],[108.05859,12.09039],[108.03411,12.10143],[108.06976,12.29292],[108.04966,12.29492],[107.9693,12.15167],[107.91967,12.10386],[107.89448,12.1153],[107.89772,12.17925],[107.87065,12.1836],[107.79727,12.1165],[107.81879,12.19928],[107.81865,12.24324],[107.80414,12.26513],[107.7582,12.24936],[107.74751,12.27625],[107.69347,12.2578],[107.6739,12.27685],[107.66525,12.3056],[107.60517,12.2908],[107.5832,12.31005],[107.57669,12.34078],[107.48776,12.31578],[107.48595,12.35137],[107.44594,12.36386],[107.48303,12.41887],[107.51064,12.46481],[107.53637,12.50652],[107.51295,12.52567],[107.40358,12.51503],[107.47649,12.57044],[107.46375,12.59543],[107.45635,12.62209],[107.34629,12.62716],[107.35368,12.66018],[107.36689,12.69311],[107.35844,12.72252],[107.46139,12.76024],[107.32165,12.78173],[107.36247,12.81325],[107.3629,12.84322],[107.39202,12.87137],[107.38993,12.90076],[107.34777,12.93585],[107.37534,12.96243],[107.52563,12.96239],[107.40137,13.01788],[107.70213,12.96537],[107.45743,13.06227],[107.52753,13.0675],[107.60554,13.06493],[107.7415,13.03188],[107.4712,13.18022],[107.97845,12.9518],[107.44709,13.26092],[107.47924,13.27825],[107.50013,13.30147],[107.49552,13.34225],[107.54771,13.34255],[107.54574,13.38319],[107.56308,13.40958],[107.58814,13.42924],[107.60412,13.45762],[108.1383,12.92831],[108.14243,12.93181],[108.14384,12.93871],[107.814,13.38914],[107.98759,13.18365],[107.87095,13.39408],[108.14174,12.98604],[108.15444,12.97748],[108.17651,12.94808],[108.18133,12.95027],[108.05288,13.27325],[108.05519,13.31747],[108.07333,13.32357],[108.10189,13.29446],[108.1371,13.22918],[108.1424,13.27652],[108.19195,13.09812],[108.21371,13.01954],[108.21286,13.09645],[108.22974,13.00311],[108.23311,13.09783],[108.24326,13.1025]]]}}