{"type":"Feature","properties":{"towerId":"dong-nai-cam-my","name":"Đài Phát Thanh Cẩm Mỹ, Đồng Nai","estimated":true,"model":"horizon+LOS srtm z10, rx 10m, tx 75m AGL"},"geometry":{"type":"Polygon","coordinates":[[[107.21617,11.45324],[107.23843,11.43936],[107.26098,11.44271],[107.28235,11.43184],[107.3094,11.46482],[107.3285,11.43909],[107.3497,11.43046],[107.35153,11.34698],[107.4401,11.5797],[107.39049,11.34068],[107.44997,11.44422],[107.43092,11.33579],[107.51663,11.47593],[107.54402,11.47331],[107.50253,11.34263],[107.59698,11.46091],[107.55398,11.34458],[107.6703,11.47421],[107.58814,11.31651],[107.63687,11.34239],[107.72628,11.41021],[107.74715,11.39236],[107.71311,11.31891],[107.78692,11.35457],[107.81601,11.34368],[107.38107,10.95052],[107.37858,10.93925],[107.3829,10.93361],[107.38702,10.92782],[107.87317,11.21671],[107.24393,10.83045],[107.74212,11.0887],[107.78038,11.08425],[107.78961,11.06475],[107.25013,10.82819],[107.25059,10.82702],[107.251,10.82583],[107.25138,10.82463],[107.25171,10.82342],[107.84783,10.94589],[107.25224,10.82096],[107.25244,10.81972],[107.2526,10.81847],[107.25271,10.81722],[107.25735,10.81613],[107.25737,10.81471],[107.25277,10.81346],[107.25271,10.81221],[107.62132,10.77262],[107.5108,10.7739],[107.57677,10.75204],[107.59222,10.73596],[107.58918,10.72312],[107.5769,10.71287],[107.70355,10.65871],[107.6977,10.6421],[107.67007,10.63415],[107.65919,10.62054],[107.87382,10.49864],[107.85008,10.48264],[107.90908,10.4205],[107.80945,10.44958],[107.87938,10.37399],[107.54923,10.57667],[107.52617,10.57648],[107.83585,10.30251],[107.52208,10.54377],[107.51556,10.53033],[107.50528,10.52024],[107.48547,10.52054],[107.46899,10.51838],[107.45269,10.51698],[107.45003,10.49814],[107.66831,10.15456],[107.64462,10.13947],[107.62041,10.12519],[107.59571,10.11175],[107.57055,10.09917],[107.54497,10.08746],[107.51898,10.07663],[107.49263,10.0667],[107.46595,10.05767],[107.43896,10.04957],[107.41171,10.0424],[107.38327,10.04056],[107.35652,10.03088],[107.32802,10.031],[107.26014,10.40329],[107.24392,10.42446],[107.22958,10.43723],[107.21617,10.02331],[107.18813,10.02379],[107.16011,10.02524],[107.13169,10.02317],[107.18561,10.60098],[107.07662,10.03531],[107.15721,10.54201],[107.14867,10.54856],[107.13549,10.53807],[107.13136,10.55811],[107.08168,10.4513],[106.91677,10.08497],[107.1064,10.57233],[107.10187,10.58433],[107.09376,10.58839],[106.81194,10.12519],[106.78773,10.13947],[106.76404,10.15456],[106.7409,10.17046],[106.76325,10.24391],[106.74327,10.25978],[106.68113,10.22948],[106.65752,10.24493],[106.63763,10.26443],[106.62523,10.29063],[106.60349,10.30831],[106.58947,10.33239],[106.57272,10.35417],[106.54539,10.36894],[106.54158,10.39938],[106.53118,10.42501],[106.50564,10.44237],[106.49283,10.46695],[106.49342,10.49748],[106.47833,10.52075],[106.46832,10.54622],[106.45921,10.57202],[106.44663,10.59687],[106.45264,10.62668],[106.43744,10.65107],[106.44108,10.67945],[106.41859,10.70355],[106.41509,10.73096],[106.45366,10.7614],[106.42017,10.78639],[106.43335,10.81373],[106.41545,10.84115],[106.47623,10.86465],[106.41465,10.89641],[106.44069,10.92076],[106.51709,10.93496],[106.48142,10.96717],[106.47837,10.99442],[106.48517,11.0196],[106.53212,11.03212],[106.51869,11.06307],[106.50666,11.09521],[106.56732,11.09752],[106.56126,11.12744],[106.65377,11.10764],[106.62478,11.14915],[106.65258,11.15971],[106.63474,11.19888],[106.64503,11.22121],[106.64897,11.24883],[106.77728,11.1757],[106.82789,11.15748],[106.84691,11.16434],[106.86275,11.17355],[106.7682,11.30227],[106.86256,11.22787],[106.78981,11.34947],[106.77938,11.40373],[106.80832,11.40717],[106.82722,11.4246],[106.86066,11.41811],[106.96432,11.27913],[107.12782,10.99253],[107.13419,10.99545],[107.13895,11.00232],[106.9981,11.40197],[107.17088,10.95156],[107.17072,10.97032],[107.1785,10.96306],[107.18379,10.96426],[107.18913,10.96528],[107.1945,10.96611],[107.13605,11.56153],[107.16303,11.55933],[107.19295,11.46633],[107.21617,11.45324]]]}}