{"type":"Feature","properties":{"towerId":"dong-thap-cao-lanh","name":"Đài Phát Thanh TH Đồng Tháp","estimated":true,"model":"horizon+LOS srtm z10, rx 10m, tx 130m AGL"},"geometry":{"type":"Polygon","coordinates":[[[105.63158,11.00113],[105.65093,11.00979],[105.66961,10.99983],[105.6876,10.98925],[105.70745,10.99592],[105.72385,10.9797],[105.74014,10.96743],[105.76012,10.97212],[105.7755,10.95876],[105.79718,10.96635],[105.818,10.96881],[105.83919,10.97044],[105.85513,10.9589],[105.87251,10.95093],[105.89175,10.94633],[105.90636,10.93322],[105.92523,10.92731],[105.94144,10.91696],[105.94918,10.89514],[105.9727,10.8946],[105.97593,10.86887],[105.9931,10.86014],[105.99732,10.8378],[106.02678,10.84062],[106.02281,10.81181],[106.04889,10.80972],[106.0464,10.78413],[106.05002,10.76442],[106.07175,10.75741],[106.08182,10.74213],[106.07547,10.71754],[106.10839,10.71478],[106.1128,10.6963],[106.12486,10.68147],[106.11946,10.65938],[106.12171,10.64098],[106.14938,10.63097],[106.1461,10.61064],[106.13759,10.58965],[106.15956,10.57592],[106.15861,10.55696],[106.16604,10.53944],[106.141,10.51827],[106.16535,10.50229],[106.15258,10.4835],[106.16659,10.46559],[106.16166,10.44739],[106.1561,10.42954],[106.15902,10.41108],[106.13863,10.39555],[106.1493,10.37582],[106.14577,10.35811],[106.14162,10.34053],[106.12366,10.32684],[106.13145,10.30585],[106.12545,10.2888],[106.13155,10.26688],[106.12417,10.24985],[106.09567,10.24296],[106.0794,10.2314],[106.09452,10.20265],[106.08102,10.18931],[106.07092,10.17406],[106.06768,10.15386],[106.06712,10.13077],[106.05146,10.11892],[106.0355,10.10774],[105.74009,10.36294],[105.99961,10.09061],[105.99828,10.06483],[105.75791,10.31789],[105.95772,10.05484],[105.95635,10.0257],[105.93799,10.01855],[105.92436,10.00449],[105.90326,10.00252],[105.87382,10.01731],[105.86376,9.99714],[105.84144,10.00178],[105.83169,9.97818],[105.81116,9.98006],[105.79383,9.97419],[105.77379,9.97757],[105.75639,9.97299],[105.73505,9.9866],[105.72512,9.94348],[105.70465,9.95395],[105.68741,9.94281],[105.66821,9.95018],[105.65006,9.94475],[105.63158,9.94443],[105.61342,9.95373],[105.59528,9.95467],[105.57814,9.96517],[105.55725,9.94504],[105.53962,9.95234],[105.52432,9.96901],[105.50677,9.97299],[105.49063,9.98189],[105.47215,9.98275],[105.45357,9.98429],[105.42977,9.97401],[105.4106,9.97713],[105.43739,10.07395],[105.38078,10.00142],[105.36447,10.01031],[105.35573,10.0312],[105.33028,10.02601],[105.33363,10.0621],[105.31668,10.06903],[105.2852,10.05939],[105.27099,10.07152],[105.25405,10.0809],[105.2439,10.09722],[105.22766,10.10774],[105.21869,10.12471],[105.21403,10.14463],[105.20288,10.15916],[105.18846,10.17154],[105.16667,10.17976],[105.27145,10.26124],[105.15958,10.2187],[105.14287,10.2311],[105.14317,10.25168],[105.14855,10.27365],[105.12913,10.28571],[105.14041,10.30865],[105.10876,10.31812],[105.09938,10.33506],[105.09058,10.35246],[105.11836,10.37661],[105.09739,10.39175],[105.09051,10.40965],[105.09795,10.42889],[105.09694,10.44723],[105.09201,10.46558],[105.09687,10.48395],[105.10238,10.50198],[105.11761,10.51874],[105.11072,10.53758],[105.12708,10.55309],[105.13942,10.5685],[105.13446,10.58749],[105.13906,10.60447],[105.15297,10.61853],[105.14576,10.63945],[105.13097,10.66441],[105.15086,10.676],[105.1339,10.70416],[105.16691,10.70847],[105.15199,10.73772],[105.17746,10.7445],[105.19142,10.75741],[105.20573,10.7697],[105.22038,10.78137],[105.22481,10.80106],[105.26419,10.79078],[105.26276,10.81567],[105.28177,10.82165],[105.34061,10.78336],[105.31081,10.84134],[105.31587,10.86274],[105.32207,10.88424],[105.32173,10.91696],[105.34523,10.91588],[105.35451,10.93711],[105.37142,10.94633],[105.38865,10.95497],[105.41363,10.94658],[105.43428,10.94543],[105.45458,10.94346],[105.4674,10.96207],[105.48261,10.97605],[105.49861,10.98957],[105.51635,10.99822],[105.53613,10.99742],[105.55508,11.00037],[105.5746,10.9982],[105.59324,11.00431],[105.6124,11.0053],[105.63158,11.00113]]]}}