{"type":"Feature","properties":{"towerId":"ha-noi-me-tri","name":"Trạm Phát Sóng Mễ Trì","estimated":true,"model":"horizon+LOS srtm z10, rx 10m, tx 130m AGL"},"geometry":{"type":"Polygon","coordinates":[[[105.76376,21.37546],[105.77522,21.30783],[105.78699,21.31175],[105.79958,21.31975],[105.81213,21.32284],[105.81739,21.28565],[105.83099,21.29692],[105.85252,21.33381],[105.9076,21.46901],[105.92202,21.45548],[105.96378,21.51341],[105.98646,21.51491],[105.99766,21.49092],[106.02434,21.49915],[106.04281,21.49036],[106.05367,21.4693],[106.01709,21.37958],[106.01213,21.34503],[106.09026,21.42028],[106.04313,21.33509],[106.1301,21.40832],[106.13212,21.38279],[106.09908,21.32538],[106.06227,21.27062],[106.05058,21.24271],[106.15197,21.30529],[106.04882,21.20964],[106.21671,21.30824],[106.08364,21.2031],[106.1524,21.22817],[106.16897,21.21985],[106.18538,21.21072],[106.23632,21.21645],[106.10289,21.14274],[106.03189,21.1031],[106.29396,21.18136],[106.23145,21.14334],[106.33383,21.15375],[106.33912,21.13508],[106.155,21.0794],[106.26684,21.08427],[106.33164,21.07577],[106.32442,21.05632],[106.34529,21.03921],[106.32703,21.01968],[106.34175,21.00127],[106.31726,20.9833],[106.33059,20.9643],[106.34794,20.94391],[106.33107,20.92684],[106.3184,20.90999],[106.32399,20.89008],[106.31943,20.87189],[106.31419,20.85387],[106.30371,20.83743],[106.30622,20.81684],[106.29003,20.80267],[106.28662,20.78381],[106.27812,20.7669],[106.26476,20.75241],[106.25926,20.73398],[106.23671,20.72519],[106.23402,20.70489],[106.22262,20.68975],[106.21444,20.67222],[106.19449,20.66353],[106.17801,20.65272],[106.17505,20.63004],[106.14759,20.62984],[106.14307,20.60751],[106.12195,20.6023],[106.09501,20.60507],[106.07717,20.59816],[106.06459,20.58446],[106.0539,20.56728],[106.04947,20.5386],[106.02976,20.53355],[105.99743,20.55348],[105.98835,20.5297],[105.95984,20.54769],[105.95587,20.50776],[105.9462,20.47614],[105.91989,20.49213],[105.89732,20.50044],[105.88053,20.4876],[105.86461,20.46639],[105.83792,20.50796],[105.81746,20.52374],[105.79993,20.51779],[105.78369,20.46747],[105.76376,20.55259],[105.74817,20.58432],[105.73394,20.60302],[105.71757,20.59082],[105.69559,20.54804],[105.67787,20.54611],[105.66391,20.56238],[105.65684,20.60081],[105.61159,20.5051],[105.62867,20.61303],[105.61259,20.61344],[105.61255,20.65197],[105.61128,20.68177],[105.60572,20.69906],[105.59901,20.71234],[105.51397,20.59707],[105.49901,20.60545],[105.48437,20.61432],[105.46443,20.61638],[105.43841,20.61217],[105.52887,20.7403],[105.57707,20.80833],[105.55326,20.79834],[105.4111,20.68328],[105.40654,20.70099],[105.53159,20.82],[105.38113,20.72221],[105.39808,20.75341],[105.47262,20.81844],[105.42518,20.80414],[105.41381,20.81303],[105.41544,20.82879],[105.4178,20.8442],[105.40331,20.85189],[105.52721,20.91281],[105.52401,20.92057],[105.50737,20.92424],[105.49998,20.9314],[105.47413,20.93456],[105.46706,20.94309],[105.44132,20.94885],[105.44428,20.96002],[105.4381,20.96997],[105.19213,20.96397],[105.19101,20.98261],[105.18577,21.00127],[105.38345,21.01422],[105.38892,21.0263],[105.37086,21.04034],[105.36774,21.05373],[105.36039,21.06814],[105.35365,21.08309],[105.35691,21.0964],[105.19833,21.15252],[105.2364,21.16123],[105.21995,21.18593],[105.28086,21.18349],[105.22614,21.22453],[105.24344,21.238],[105.36346,21.20021],[105.35855,21.21985],[105.36283,21.23529],[105.34374,21.26575],[105.54923,21.14748],[105.29965,21.33936],[105.31625,21.35139],[105.32599,21.36876],[105.35042,21.37345],[105.3612,21.38992],[105.3792,21.39947],[105.42544,21.37737],[105.44863,21.37755],[105.4458,21.40939],[105.43144,21.46045],[105.45909,21.45576],[105.47628,21.46541],[105.49836,21.46656],[105.56265,21.38607],[105.59094,21.36365],[105.61365,21.34822],[105.56042,21.52185],[105.58003,21.52816],[105.60923,21.50358],[105.63165,21.49522],[105.65929,21.45964],[105.67903,21.44948],[105.69653,21.44752],[105.71377,21.44496],[105.7331,21.41044],[105.74977,21.37524],[105.76376,21.37546]]]}}