{"type":"Feature","properties":{"towerId":"ha-noi-van-ho","name":"Trạm Phát Sóng Vân Hồ","estimated":true,"model":"horizon+LOS srtm z10, rx 10m, tx 170m AGL"},"geometry":{"type":"Polygon","coordinates":[[[105.84656,21.55766],[105.86985,21.62923],[105.89278,21.6236],[105.89858,21.46968],[105.93878,21.61909],[105.96246,21.62014],[105.98432,21.61159],[105.99393,21.55875],[106.03052,21.60547],[106.03479,21.54781],[106.04659,21.52023],[106.06564,21.5134],[106.11796,21.57574],[106.10928,21.51002],[106.14384,21.52892],[106.17285,21.53447],[106.19749,21.53114],[106.20329,21.50078],[106.23005,21.49975],[106.24223,21.47988],[106.27209,21.48045],[106.28949,21.4663],[106.3097,21.45482],[106.31217,21.427],[106.32393,21.40858],[106.35713,21.40718],[106.3679,21.38755],[106.16266,21.22287],[106.17446,21.21495],[106.19015,21.20889],[106.23505,21.21772],[106.30658,21.23644],[106.43206,21.27418],[106.39745,21.2368],[106.4504,21.23541],[106.44485,21.21103],[106.47956,21.19966],[106.47698,21.17647],[106.34704,21.12474],[106.36047,21.1102],[106.40665,21.10029],[106.43833,21.08565],[106.45998,21.06814],[106.45696,21.04782],[106.47244,21.02833],[106.49682,21.00784],[106.27495,20.99457],[106.48545,20.96616],[106.33502,20.96043],[106.46631,20.9266],[106.48649,20.90247],[106.47737,20.88264],[106.49088,20.85774],[106.45707,20.84438],[106.45051,20.82459],[106.45225,20.80192],[106.46192,20.77551],[106.43524,20.76299],[106.42998,20.74197],[106.41962,20.72313],[106.40441,20.70689],[106.38463,20.69369],[106.37648,20.67383],[106.36751,20.65412],[106.34259,20.6457],[106.33606,20.62396],[106.27864,20.64446],[106.29233,20.60555],[106.29031,20.5783],[106.27716,20.56075],[106.24786,20.56081],[106.23679,20.5409],[106.22472,20.52119],[106.19291,20.52783],[106.18744,20.49775],[106.17056,20.48305],[106.13728,20.49666],[106.1201,20.48346],[106.09646,20.48309],[106.07312,20.48361],[106.0534,20.47654],[106.03787,20.45729],[105.9763,20.58543],[105.99863,20.43745],[105.97725,20.43284],[105.95073,20.4555],[105.9347,20.42127],[105.91326,20.41429],[105.8904,20.42145],[105.86682,20.46531],[105.84656,20.50995],[105.82779,20.50576],[105.81072,20.5291],[105.79185,20.52162],[105.77639,20.54151],[105.7615,20.55737],[105.74969,20.58241],[105.73848,20.60328],[105.70097,20.53355],[105.68481,20.54286],[105.67245,20.56109],[105.65764,20.57121],[105.60444,20.49953],[105.63177,20.5967],[105.62327,20.61587],[105.62072,20.64287],[105.61227,20.65809],[105.61004,20.68086],[105.5275,20.5977],[105.50939,20.6048],[105.48527,20.60567],[105.46723,20.61434],[105.43941,20.61397],[105.40423,20.60868],[105.40023,20.63239],[105.44153,20.69066],[105.5547,20.79566],[105.55079,20.80795],[105.54345,20.81771],[105.28408,20.67932],[105.37182,20.75211],[105.43034,20.80169],[105.4142,20.81141],[105.38511,20.81641],[105.41382,20.84513],[105.28149,20.8159],[105.52609,20.91151],[105.51801,20.92076],[105.29553,20.87982],[105.46041,20.93198],[105.46723,20.94619],[105.44602,20.95604],[105.43948,20.96864],[105.19326,20.96517],[105.23528,20.98805],[105.18184,21.00778],[105.38919,21.02337],[105.36595,21.03976],[105.36736,21.0554],[105.36459,21.0716],[105.3577,21.0888],[105.38454,21.10007],[105.20093,21.15797],[105.23006,21.17281],[105.21815,21.19828],[105.23011,21.21712],[105.22928,21.24041],[105.35304,21.2132],[105.35661,21.23111],[105.31826,21.27002],[105.30739,21.29825],[105.2857,21.3346],[105.43052,21.27007],[105.33879,21.35191],[105.3214,21.3903],[105.33598,21.40718],[105.43394,21.35459],[105.44016,21.37405],[105.43389,21.40643],[105.40038,21.46963],[105.41791,21.48389],[105.46879,21.45866],[105.46307,21.49975],[105.47355,21.52311],[105.50591,21.51591],[105.56148,21.46835],[105.54928,21.52892],[105.57108,21.53425],[105.61067,21.50185],[105.63474,21.49674],[105.67968,21.43576],[105.69428,21.44521],[105.72141,21.41533],[105.74843,21.37554],[105.76222,21.37851],[105.78872,21.31462],[105.79953,21.32077],[105.79454,21.46968],[105.82535,21.29167],[105.83544,21.30567],[105.84656,21.55766]]]}}