{"type":"Feature","properties":{"towerId":"ha-tinh-ky-anh","name":"Trạm Phát Sóng Kỳ Anh","estimated":true,"model":"horizon+LOS srtm z10, rx 10m, tx 40m AGL"},"geometry":{"type":"Polygon","coordinates":[[[106.29941,18.14939],[106.30255,18.14934],[106.30569,18.14918],[106.30881,18.14892],[106.31259,18.15301],[106.31585,18.15252],[106.38515,18.44659],[106.39918,18.44351],[106.41308,18.43997],[106.42684,18.43597],[106.44045,18.43151],[106.45388,18.42661],[106.46712,18.42126],[106.48016,18.41548],[106.49298,18.40927],[106.50556,18.40264],[106.51788,18.39559],[106.52994,18.38814],[106.54172,18.38029],[106.5532,18.37206],[106.56437,18.36345],[106.57521,18.35448],[106.57913,18.33869],[106.58564,18.32612],[106.59862,18.31947],[106.48072,18.20839],[106.36279,18.11101],[106.36831,18.11152],[106.36609,18.10669],[106.36762,18.10445],[106.36906,18.10216],[106.35789,18.0935],[106.35894,18.09154],[106.36856,18.0932],[106.34766,18.08248],[106.34831,18.08086],[106.38039,18.08895],[106.38126,18.08625],[106.38662,18.0846],[106.39195,18.08263],[106.39258,18.07955],[106.63204,18.1081],[106.63815,18.0975],[106.65333,18.08716],[106.66341,18.0757],[106.66833,18.0636],[106.66336,18.05153],[106.61078,18.043],[106.65213,18.02838],[106.43991,18.04513],[106.68122,17.99955],[106.45206,18.03304],[106.45542,18.0269],[106.44941,18.02299],[106.45231,18.01665],[106.45937,18.00852],[106.47914,17.99481],[106.46354,17.99438],[106.46089,17.98898],[106.45803,17.98367],[106.45499,17.97846],[106.44775,17.97573],[106.44442,17.97086],[106.41798,17.98198],[106.41862,17.97533],[106.41168,17.97432],[106.40832,17.97065],[106.38783,17.98272],[106.37823,17.98631],[106.37217,17.98708],[106.36627,17.98816],[106.36054,17.98953],[106.35499,17.99119],[106.35229,17.98939],[106.34702,17.99149],[106.34433,17.98996],[106.33937,17.99248],[106.33672,17.9912],[106.3321,17.99412],[106.32952,17.99307],[106.32529,17.99634],[106.32279,17.99553],[106.31896,17.99912],[106.31657,17.99851],[106.31416,17.99798],[106.31173,17.99753],[106.30928,17.99716],[106.30683,17.99687],[106.30436,17.99667],[106.30189,17.99654],[106.29941,17.9965],[106.29694,17.99654],[106.29447,17.99667],[106.29151,17.9924],[106.28889,17.99271],[106.28628,17.9931],[106.28369,17.99358],[106.28111,17.99414],[106.28768,18.02505],[106.29357,18.04685],[106.26384,17.97099],[106.26045,17.97223],[106.25711,17.97358],[106.25382,17.97503],[106.25059,17.9766],[106.24741,17.97827],[106.25181,17.99149],[106.24918,17.99312],[106.24384,17.99119],[106.18012,17.91864],[106.22952,17.98471],[106.22666,17.98708],[106.22388,17.98954],[106.23819,18.00772],[106.23617,18.00978],[106.17268,17.96275],[106.16532,17.96424],[106.10442,17.92906],[106.09175,17.93058],[106.21521,18.0139],[106.21342,18.01672],[106.21174,18.0196],[106.04452,17.94552],[106.09643,17.97789],[106.23803,18.04036],[106.24609,18.04549],[106.24544,18.04727],[106.24486,18.04907],[106.24435,18.05089],[106.23928,18.05179],[106.23887,18.05379],[106.23385,18.05518],[106.23827,18.05783],[106.12957,18.05259],[106.21906,18.06127],[106.21901,18.06394],[106.21906,18.0666],[106.23808,18.06802],[106.24297,18.06959],[106.23852,18.07208],[106.23886,18.07409],[106.22539,18.0789],[106.23057,18.08026],[106.22666,18.08377],[106.22293,18.08756],[106.22385,18.09008],[106.22485,18.09257],[106.22595,18.09503],[106.22713,18.09745],[106.17826,18.12514],[106.22567,18.10441],[106.13889,18.1592],[106.22489,18.11171],[106.18457,18.14321],[106.18009,18.1525],[106.18704,18.15352],[106.21502,18.13615],[106.22113,18.13578],[106.22381,18.13833],[106.22976,18.13746],[106.24467,18.12595],[106.24698,18.12773],[106.15191,18.2567],[106.16968,18.24657],[106.18652,18.23552],[106.20237,18.22359],[106.21496,18.2148],[106.22056,18.21751],[106.22625,18.22004],[106.23203,18.22237],[106.24113,18.21606],[106.24822,18.21362],[106.25505,18.21091],[106.27652,18.15121],[106.27974,18.15192],[106.28298,18.15252],[106.28624,18.15301],[106.28952,18.15339],[106.29281,18.15367],[106.29611,18.15383],[106.29941,18.14939]]]}}