{"type":"Feature","properties":{"towerId":"ha-tinh-thien-tuong","name":"Trạm Phát Sóng Thiên Tượng","estimated":true,"model":"horizon+LOS srtm z10, rx 10m, tx 80m AGL"},"geometry":{"type":"Polygon","coordinates":[[[105.70407,19.29594],[105.73067,19.27752],[105.75791,19.28517],[105.78574,19.29188],[105.81281,19.28873],[105.83974,19.28469],[105.70802,18.57609],[105.70866,18.57595],[105.7093,18.57579],[105.70994,18.5756],[105.71056,18.5754],[105.71118,18.57517],[105.71179,18.57493],[105.71239,18.57466],[105.71298,18.57438],[105.71831,18.58186],[105.71413,18.57375],[105.71999,18.58086],[105.7208,18.58032],[105.7216,18.57976],[105.72237,18.57916],[105.72312,18.57855],[105.72055,18.57467],[105.71772,18.57099],[105.71817,18.57053],[105.71861,18.57006],[105.71903,18.56957],[105.71942,18.56907],[105.7198,18.56856],[105.72016,18.56803],[105.72051,18.56749],[105.72083,18.56694],[105.72113,18.56638],[105.72141,18.56581],[105.72167,18.56524],[105.7219,18.56465],[105.72212,18.56406],[105.72231,18.56345],[105.72248,18.56285],[105.72263,18.56224],[105.72276,18.56162],[105.72286,18.561],[105.72294,18.56038],[105.723,18.55975],[105.72304,18.55912],[105.72305,18.5585],[105.72304,18.55787],[105.723,18.55724],[105.72294,18.55662],[105.72286,18.55599],[105.72276,18.55537],[105.72263,18.55476],[105.72248,18.55415],[105.72231,18.55354],[105.72212,18.55294],[105.7219,18.55235],[105.72166,18.55176],[105.72141,18.55118],[105.72113,18.55061],[105.72083,18.55005],[105.7205,18.5495],[105.72016,18.54897],[105.7198,18.54844],[105.71942,18.54793],[105.71902,18.54742],[105.71861,18.54694],[106.17882,18.15172],[106.22806,18.07674],[106.13465,18.13428],[106.12511,18.1136],[106.0721,18.14135],[106.01294,18.18265],[105.98784,18.18723],[106.09274,18.01011],[106.07986,17.98613],[106.01148,18.05201],[106.04579,17.94677],[106.01488,17.95202],[105.91382,18.11063],[105.83178,18.25827],[105.82875,18.2331],[105.79481,18.29333],[105.79413,18.26023],[105.77968,18.27052],[105.85927,17.8635],[105.75998,18.25737],[105.7778,18.05976],[105.78062,17.86533],[105.75253,17.8991],[105.72749,17.92037],[105.70407,17.82555],[105.67753,17.83498],[105.65004,17.82284],[105.63787,17.95924],[105.62182,18.00187],[105.5859,17.92079],[105.55573,17.89429],[105.57364,18.06107],[105.53986,18.0138],[105.54037,18.07946],[105.50836,18.04712],[105.51798,18.12064],[105.51161,18.14762],[105.50698,18.17445],[105.48856,18.17326],[105.48634,18.20011],[105.42325,18.1312],[105.41037,18.14448],[105.40088,18.16173],[105.37776,18.16136],[105.38461,18.19655],[105.34937,18.18391],[105.3391,18.19911],[105.3397,18.22392],[105.33464,18.24221],[105.3015,18.23724],[105.30855,18.26464],[105.25209,18.24608],[105.25654,18.27132],[105.24623,18.2863],[105.22011,18.29258],[105.21478,18.31088],[105.19319,18.32127],[105.16747,18.33095],[105.1594,18.34885],[105.19647,18.3825],[105.10475,18.37275],[105.07549,18.38642],[105.02357,18.39628],[105.01334,18.41794],[105.10185,18.45682],[105.10782,18.47809],[105.05334,18.49252],[105.19788,18.52426],[105.18269,18.54052],[105.13014,18.55763],[105.07353,18.57832],[105.10301,18.59738],[104.94426,18.63265],[104.96621,18.65531],[104.9842,18.67738],[105.18412,18.66249],[105.13293,18.69253],[105.12905,18.71379],[105.06276,18.75473],[105.03012,18.78953],[105.03018,18.81502],[105.46995,18.65712],[105.47372,18.6648],[105.24276,18.79015],[105.06606,18.90591],[105.05902,18.93865],[105.1524,18.90972],[105.08856,18.98038],[105.10823,18.99773],[105.38749,18.8097],[105.42875,18.79299],[105.46835,18.77388],[105.49624,18.76216],[105.51024,18.76224],[105.52703,18.7582],[105.53742,18.7604],[105.57849,18.72216],[105.3396,19.06886],[105.36371,19.07299],[105.39006,19.07227],[105.38456,19.12598],[105.51653,18.92214],[105.4214,19.15803],[105.57413,18.8628],[105.58543,18.86692],[105.59835,18.86638],[105.60977,18.86969],[105.61554,18.89443],[105.54562,19.26217],[105.58336,19.20499],[105.65778,18.87019],[105.6703,18.86259],[105.68386,18.83212],[105.67681,19.29549],[105.70407,19.29594]]]}}