{"type":"Feature","properties":{"towerId":"hai-phong-nguyen-binh","name":"Trạm Phát Sóng Hải Phòng","estimated":true,"model":"horizon+LOS srtm z10, rx 10m, tx 130m AGL"},"geometry":{"type":"Polygon","coordinates":[[[106.67909,21.17035],[106.69104,21.17015],[106.70297,21.16957],[106.71387,21.15965],[106.72607,21.16278],[106.7377,21.16106],[106.74927,21.15896],[106.76074,21.15648],[106.77212,21.15363],[106.78338,21.15041],[106.79617,21.15105],[106.81094,21.15539],[106.82421,21.15501],[106.83549,21.15009],[106.84658,21.14481],[106.8454,21.1197],[106.82976,21.07601],[106.83538,21.06723],[106.92567,21.1674],[106.92843,21.14855],[106.84632,21.03701],[106.97914,21.1616],[106.86985,21.03535],[106.88009,21.03214],[107.00868,21.12758],[107.041,21.13396],[106.91825,21.02533],[106.92461,21.01742],[107.14273,21.14214],[107.15331,21.12684],[107.16332,21.11121],[107.1642,21.09106],[106.94745,20.97309],[107.18531,21.06067],[106.97376,20.96201],[107.16343,21.01496],[107.1784,21.00182],[107.18371,20.98545],[107.18839,20.96891],[107.15004,20.94393],[107.0204,20.90697],[106.96506,20.8884],[106.98542,20.8809],[106.95273,20.86875],[107.19369,20.86711],[106.96298,20.85085],[107.00607,20.84011],[107.16859,20.8184],[106.98051,20.82121],[106.96015,20.81394],[107.10063,20.78108],[106.9849,20.79005],[106.98709,20.77902],[107.01192,20.76153],[107.03578,20.74233],[107.05406,20.72303],[107.04459,20.71257],[107.05673,20.69339],[107.19725,20.61377],[107.14147,20.62037],[107.14503,20.59865],[107.15157,20.57403],[107.14094,20.55879],[107.13749,20.5386],[107.1331,20.51828],[107.12774,20.49788],[107.11428,20.48346],[107.10031,20.46949],[107.08582,20.45599],[107.07084,20.44296],[107.05538,20.43044],[107.03948,20.41842],[107.02313,20.40693],[106.78124,20.7094],[106.7708,20.71378],[106.97169,20.37575],[106.95381,20.3665],[106.9356,20.35783],[106.91707,20.34976],[106.89826,20.34231],[106.87919,20.33547],[106.85987,20.32926],[106.84034,20.32368],[106.82061,20.31874],[106.80071,20.31445],[106.78067,20.31081],[106.7605,20.30782],[106.74023,20.3055],[106.71989,20.30383],[106.69917,20.31182],[106.67909,20.31599],[106.65901,20.31182],[106.63829,20.30383],[106.61795,20.3055],[106.59768,20.30782],[106.57752,20.31081],[106.55846,20.31885],[106.54104,20.33183],[106.52048,20.33232],[106.50127,20.33781],[106.48227,20.34392],[106.46171,20.34648],[106.445,20.35799],[106.42678,20.36592],[106.41111,20.37842],[106.39606,20.39134],[106.38164,20.40467],[106.35449,20.39971],[106.3463,20.4215],[106.33344,20.43617],[106.31203,20.44079],[106.29375,20.44966],[106.28567,20.46896],[106.27166,20.48202],[106.61118,20.79391],[106.24512,20.50948],[106.22131,20.51551],[106.21681,20.53595],[106.21327,20.55627],[106.19035,20.56445],[106.18409,20.58283],[106.17013,20.59701],[106.16956,20.61774],[106.18305,20.6437],[106.1578,20.65322],[106.13266,20.66413],[106.58301,20.82188],[106.11998,20.70021],[106.11466,20.71854],[106.11942,20.73893],[106.11554,20.75725],[106.11235,20.77568],[106.56904,20.84024],[106.09844,20.81215],[106.0973,20.83112],[106.09206,20.85009],[106.10197,20.86895],[106.10295,20.88776],[106.10942,20.90608],[106.10225,20.92584],[106.12908,20.94078],[106.1186,20.96143],[106.13706,20.97642],[106.14204,20.99402],[106.19812,20.99632],[106.16757,21.02411],[106.27269,21.00389],[106.15965,21.06612],[106.15063,21.09076],[106.16415,21.10575],[106.17396,21.12239],[106.20078,21.12921],[106.21145,21.14464],[106.25005,21.14129],[106.42093,21.03914],[106.32458,21.1282],[106.34951,21.12758],[106.49544,21.01654],[106.3609,21.15808],[106.38227,21.15826],[106.40326,21.15744],[106.42678,21.15209],[106.38136,21.2328],[106.39853,21.23855],[106.42346,21.23223],[106.44271,21.23255],[106.45941,21.23606],[106.51845,21.15817],[106.52414,21.17554],[106.53276,21.18873],[106.54714,21.18907],[106.57032,21.16324],[106.57807,21.17956],[106.5916,21.17829],[106.6039,21.18095],[106.6188,21.16991],[106.63077,21.17169],[106.6423,21.17754],[106.65487,21.17405],[106.67018,21.08926],[106.67909,21.17035]]]}}