{"type":"Feature","properties":{"towerId":"hau-giang-vi-thanh","name":"Đài PTTH Hậu Giang","estimated":true,"model":"horizon+LOS srtm z10, rx 10m, tx 150m AGL"},"geometry":{"type":"Polygon","coordinates":[[[105.49696,10.3585],[105.5169,10.36265],[105.53713,10.36611],[105.55285,10.32413],[105.57584,10.35306],[105.59061,10.32344],[105.61385,10.34189],[105.63186,10.33318],[105.65065,10.32822],[105.67351,10.33544],[105.68453,10.30792],[105.71097,10.322],[105.72188,10.29789],[105.7494,10.31005],[105.763,10.29312],[105.77801,10.27978],[105.78511,10.25458],[105.81382,10.26302],[105.82732,10.24821],[105.85142,10.2472],[105.85232,10.21753],[105.82402,10.15831],[105.76344,10.07252],[105.89131,10.17552],[105.90094,10.15872],[105.91337,10.14461],[105.9361,10.13837],[105.81097,10.02543],[105.83767,10.02705],[105.96561,10.08892],[105.9399,10.05244],[105.99696,10.06232],[106.0018,10.043],[105.99753,10.02002],[105.99651,9.99932],[106.0161,9.98661],[106.00931,9.96449],[106.01478,9.94678],[106.03292,9.93212],[106.05509,9.91732],[106.05436,9.89728],[106.06646,9.87929],[106.06887,9.85966],[106.06603,9.83965],[106.05336,9.81961],[106.03998,9.80049],[106.02138,9.78247],[106.04314,9.76284],[106.04598,9.7436],[106.06619,9.72159],[106.03158,9.70758],[106.02347,9.69019],[106.01922,9.67216],[106.00118,9.65801],[106.01748,9.63378],[105.98553,9.62525],[106.02126,9.59164],[105.99271,9.58292],[105.99696,9.56007],[105.99617,9.53879],[105.95896,9.53756],[105.96866,9.50989],[105.95807,9.49384],[105.9506,9.47552],[105.93521,9.4629],[105.92995,9.44224],[105.90345,9.43962],[105.90352,9.41335],[105.88955,9.3996],[105.87206,9.38969],[105.85436,9.38049],[105.85047,9.35427],[105.8291,9.34967],[105.8053,9.34971],[105.79397,9.33175],[105.77492,9.32572],[105.76435,9.30453],[105.73865,9.31181],[105.73046,9.28325],[105.71201,9.27553],[105.68552,9.28959],[105.66872,9.27914],[105.64891,9.27787],[105.63363,9.25987],[105.61441,9.2555],[105.59426,9.25622],[105.57621,9.2443],[105.55458,9.2598],[105.53668,9.24021],[105.51683,9.23918],[105.49696,9.24334],[105.4774,9.24817],[105.45692,9.23572],[105.43981,9.26427],[105.42023,9.26211],[105.39965,9.25622],[105.38423,9.2775],[105.36469,9.27733],[105.34625,9.28219],[105.32519,9.27914],[105.30995,9.29381],[105.28872,9.29221],[105.28381,9.32845],[105.24529,9.29159],[105.23383,9.31247],[105.21444,9.31792],[105.19753,9.32793],[105.18352,9.34225],[105.16481,9.34967],[105.15465,9.36846],[105.12785,9.3667],[105.11271,9.37966],[105.11069,9.40608],[105.08384,9.4071],[105.09723,9.44564],[105.06047,9.43935],[105.05153,9.45735],[105.03963,9.47288],[105.09627,9.53415],[105.05615,9.52899],[105.02312,9.53079],[105.04602,9.56419],[105.01742,9.56995],[105.00953,9.58659],[104.96842,9.58995],[104.97411,9.61289],[104.98077,9.63517],[104.95767,9.64804],[104.94815,9.66559],[105.1935,9.73721],[104.93089,9.70206],[104.93676,9.72286],[104.94339,9.74313],[104.92801,9.76123],[104.92238,9.78066],[104.92656,9.80044],[104.94055,9.81961],[104.93698,9.83904],[104.96136,9.85596],[104.97718,9.87249],[104.98901,9.88877],[105.00582,9.9034],[105.0186,9.91807],[105.03181,9.93198],[105.01501,9.95481],[105.03791,9.96517],[105.06094,9.97414],[105.0882,9.97991],[105.06604,10.00762],[105.05748,10.03073],[105.0263,10.06814],[105.03993,10.08178],[105.01983,10.1174],[105.03873,10.12834],[105.05781,10.13837],[105.08054,10.14461],[105.09977,10.15271],[105.10918,10.16928],[105.11294,10.19208],[105.13316,10.19837],[105.14159,10.21753],[105.14249,10.2472],[105.17735,10.23367],[105.18265,10.2593],[105.19425,10.27745],[105.22048,10.272],[105.23091,10.29312],[105.26859,10.26157],[105.26645,10.31021],[105.28637,10.31366],[105.30938,10.30792],[105.32606,10.31833],[105.34957,10.30661],[105.36427,10.32446],[105.37816,10.35069],[105.39933,10.34558],[105.4168,10.36197],[105.43771,10.35544],[105.45742,10.35714],[105.47733,10.35366],[105.49696,10.3585]]]}}