{"type":"Feature","properties":{"towerId":"hue-hung-vuong","name":"Trạm Phát Sóng Huế","estimated":true,"model":"horizon+LOS srtm z10, rx 10m, tx 125m AGL"},"geometry":{"type":"Polygon","coordinates":[[[107.5969,16.98762],[107.61659,17.00078],[107.63626,16.99979],[107.65588,16.99814],[107.67543,16.99584],[107.69488,16.99288],[107.71421,16.98928],[107.73339,16.98503],[107.75241,16.98014],[107.77124,16.97462],[107.78985,16.96847],[107.8047,16.95337],[107.81868,16.93791],[107.83592,16.93019],[107.84844,16.91397],[107.86478,16.90528],[107.8783,16.89223],[107.91227,16.90862],[107.92838,16.89779],[107.94408,16.88643],[107.92606,16.83672],[107.94268,16.82881],[107.94931,16.81055],[107.95842,16.79543],[107.97736,16.78913],[107.99986,16.78485],[108.0151,16.77392],[108.03382,16.76501],[108.0524,16.75521],[108.06679,16.74216],[108.08079,16.7285],[108.0902,16.71215],[108.08211,16.68764],[108.06428,16.66035],[108.05815,16.63956],[108.07316,16.62707],[108.08335,16.61241],[108.09755,16.59849],[108.11132,16.58381],[108.11544,16.56652],[108.1143,16.54833],[107.75943,16.48335],[107.76479,16.47837],[108.10683,16.49508],[108.09834,16.47771],[108.0986,16.46092],[108.10294,16.44396],[108.09262,16.42768],[108.09573,16.41063],[108.09819,16.39333],[108.09077,16.37739],[108.08739,16.36091],[108.0925,16.34236],[108.03833,16.33959],[108.03361,16.32489],[107.94916,16.33818],[107.94011,16.32816],[107.94787,16.31125],[107.93377,16.30355],[108.01458,16.24789],[108.0106,16.23178],[108.00992,16.21329],[107.98512,16.20971],[107.97194,16.19952],[107.95849,16.1899],[107.93406,16.18955],[107.84055,16.25075],[107.87984,16.19894],[107.86037,16.19935],[107.85694,16.184],[107.84068,16.18236],[107.83038,16.17437],[107.77033,16.23226],[107.75666,16.23405],[107.74333,16.23647],[107.73038,16.2395],[107.82097,16.05643],[107.79998,16.0613],[107.77772,16.07119],[107.76868,16.05286],[107.75533,16.04314],[107.74004,16.03809],[107.72843,16.02058],[107.71573,16.00336],[107.69999,15.99526],[107.68219,15.99652],[107.66136,16.02067],[107.64483,16.02325],[107.63116,15.99052],[107.61274,16.02561],[107.5969,16.22769],[107.58204,16.05257],[107.5672,16.05332],[107.57145,16.22897],[107.56496,16.24332],[107.55705,16.24452],[107.57157,16.34715],[107.47356,15.9859],[107.46537,16.02058],[107.46676,16.07658],[107.53121,16.28826],[107.39191,15.97362],[107.36862,15.96845],[107.35291,15.98043],[107.34435,16.00478],[107.34659,16.04469],[107.3316,16.05332],[107.32215,16.06991],[107.30809,16.07934],[107.28287,16.07505],[107.29004,16.10994],[107.23056,16.07022],[107.2198,16.08596],[107.20974,16.10194],[107.20037,16.11814],[107.20603,16.1461],[107.15796,16.13162],[107.1727,16.16507],[107.15829,16.17692],[107.50945,16.40907],[107.2683,16.27914],[107.26186,16.29025],[107.25162,16.29959],[107.24593,16.31125],[107.26672,16.33324],[107.21384,16.32736],[107.227,16.34586],[107.22301,16.35831],[107.18765,16.36321],[107.17515,16.37508],[107.14917,16.3853],[107.16522,16.40287],[107.14003,16.41496],[107.14795,16.43092],[107.12835,16.4453],[107.11865,16.46097],[107.35322,16.46953],[107.09634,16.49448],[107.0605,16.51488],[107.05809,16.53342],[107.05639,16.55218],[107.06,16.57021],[107.1417,16.5698],[107.17749,16.57636],[107.13279,16.60551],[107.14271,16.61943],[107.14001,16.63788],[107.1424,16.65489],[107.17927,16.65624],[107.18245,16.67221],[107.20258,16.67923],[107.11904,16.74691],[107.14921,16.7502],[107.18662,16.74656],[107.18242,16.77116],[107.19755,16.78196],[107.19547,16.80714],[107.19814,16.82972],[107.23469,16.82024],[107.25113,16.82881],[107.2738,16.82984],[107.32219,16.79795],[107.37885,16.74879],[107.38419,16.76336],[107.38784,16.78173],[107.47487,16.66397],[107.34316,16.91794],[107.34963,16.94635],[107.36746,16.95433],[107.38558,16.96171],[107.40395,16.96847],[107.42402,16.97035],[107.44529,16.96718],[107.46611,16.96322],[107.48842,16.9497],[107.50629,16.95303],[107.52428,16.95577],[107.54187,16.96237],[107.55985,16.96839],[107.57803,16.97831],[107.5969,16.98762]]]}}