{"type":"Feature","properties":{"towerId":"khanh-hoa-nha-trang","name":"Đài PTTH Khánh Hòa","estimated":true,"model":"horizon+LOS srtm z10, rx 10m, tx 250m AGL"},"geometry":{"type":"Polygon","coordinates":[[[109.16246,12.36006],[109.16616,12.36],[109.16985,12.35981],[109.17353,12.35949],[109.19579,12.48818],[109.20405,12.48691],[109.21321,12.48975],[109.21929,12.47915],[109.22466,12.46843],[109.23504,12.47473],[109.24279,12.47212],[109.25217,12.47342],[109.243,12.43326],[109.24926,12.43041],[109.25542,12.42734],[109.26376,12.42796],[109.2625,12.41297],[109.26802,12.40946],[109.27342,12.40577],[109.27584,12.39835],[109.27492,12.38751],[109.28569,12.39028],[109.27759,12.37306],[109.28499,12.37219],[109.28904,12.36794],[109.28941,12.36066],[109.28942,12.3535],[109.22948,12.30421],[109.65519,12.58056],[109.65863,12.55881],[109.749,12.58651],[109.74005,12.5558],[109.37761,12.35906],[109.73471,12.50478],[109.72184,12.47673],[109.72068,12.45447],[109.72739,12.43531],[109.73784,12.41716],[109.73873,12.39637],[109.73885,12.3757],[109.73819,12.3552],[109.74134,12.33551],[109.74378,12.31572],[109.35986,12.27006],[109.73734,12.27566],[109.73765,12.25604],[109.73726,12.23642],[109.73616,12.21684],[109.73437,12.19729],[109.73644,12.17719],[109.73776,12.15688],[109.73832,12.13637],[109.32764,12.21634],[109.29072,12.22067],[109.27186,12.22188],[109.27919,12.21509],[109.2819,12.20945],[109.28014,12.2054],[109.26997,12.20537],[109.28026,12.19539],[109.28198,12.18916],[109.71978,11.91534],[109.70725,11.89654],[109.72004,11.85963],[109.70191,11.84363],[109.69035,11.82258],[109.68476,11.7958],[109.68119,11.76575],[109.66336,11.74836],[109.64492,11.73159],[109.6259,11.71545],[109.60632,11.69998],[109.32461,12.03832],[109.56556,11.67108],[109.54444,11.65768],[109.52286,11.64502],[109.20134,12.18517],[109.2169,12.14751],[109.1924,12.19091],[109.20726,12.14824],[109.20337,12.14677],[109.19942,12.14545],[109.19543,12.14425],[109.18917,12.15192],[109.18637,12.14668],[109.18243,12.14593],[109.19254,12.04735],[109.17352,12.15378],[109.17016,12.14898],[109.16632,12.14879],[109.16246,12.14872],[109.15877,12.15328],[109.15508,12.15347],[109.15189,12.15826],[109.14902,12.16313],[109.14569,12.16364],[109.14238,12.16427],[109.14021,12.16938],[109.13837,12.17451],[109.13546,12.17538],[109.12628,12.15945],[109.12283,12.16074],[109.11943,12.16215],[109.1181,12.16772],[109.11711,12.17326],[109.03602,12.04243],[109.03089,12.05069],[109.02362,12.0553],[108.99492,12.03104],[109.13414,12.2212],[109.13289,12.22219],[109.12244,12.21319],[109.1337,12.22753],[109.13268,12.22852],[109.12827,12.22655],[109.12722,12.22773],[109.12621,12.22895],[108.94295,12.10061],[108.94514,12.11323],[108.94794,12.1255],[108.99914,12.16441],[108.99188,12.16792],[108.98468,12.17182],[108.97756,12.1761],[108.98759,12.18752],[108.98954,12.19507],[108.81688,12.14665],[108.67174,12.11863],[108.7474,12.15516],[108.72602,12.16561],[108.7185,12.17976],[108.71146,12.19432],[108.71864,12.21069],[108.71726,12.22585],[108.73021,12.24155],[108.70692,12.25626],[108.70257,12.27195],[108.70338,12.28762],[108.71849,12.30187],[108.71124,12.31822],[108.6865,12.33821],[108.83381,12.32469],[108.84537,12.33369],[108.67566,12.39255],[108.68079,12.40907],[108.66487,12.43305],[108.67574,12.44824],[108.67865,12.46654],[108.73615,12.45934],[108.73957,12.47586],[109.01497,12.33979],[109.01803,12.34477],[109.02127,12.34964],[109.04702,12.33855],[109.03913,12.35074],[109.0461,12.352],[109.04615,12.35891],[109.04988,12.36282],[109.05054,12.36983],[109.07622,12.35019],[109.05593,12.38062],[109.06043,12.38418],[109.07046,12.38031],[109.07751,12.37965],[109.09172,12.36722],[109.11413,12.33841],[109.13437,12.30825],[109.10596,12.3698],[109.11004,12.37165],[108.9829,12.69017],[109.00325,12.68336],[109.02004,12.68425],[109.03924,12.67589],[109.03979,12.73655],[109.13758,12.37099],[109.14248,12.36735],[109.09446,12.72863],[109.1538,12.33713],[109.15444,12.36878],[109.15877,12.36],[109.16246,12.36006]]]}}