{"type":"Feature","properties":{"towerId":"kien-giang-hon-me","name":"Trung Tâm Phát Sóng Hòn Me","estimated":true,"model":"horizon+LOS srtm z10, rx 10m, tx 98m AGL"},"geometry":{"type":"Polygon","coordinates":[[[104.88808,10.64391],[104.905,10.58966],[104.9136,10.47216],[104.92679,10.47554],[104.94026,10.47844],[104.9516,10.46757],[104.97365,10.50915],[104.98654,10.50161],[104.999,10.49366],[104.97849,10.387],[104.98814,10.38372],[104.99768,10.38012],[105.00521,10.37209],[105.12471,10.59013],[105.13718,10.57377],[105.14651,10.55325],[105.16196,10.5441],[105.18733,10.54933],[105.19992,10.53515],[105.22034,10.53126],[105.2438,10.52991],[105.24611,10.50409],[105.26611,10.49801],[105.27623,10.48167],[105.29927,10.47712],[105.30491,10.457],[105.30963,10.43694],[105.32455,10.4249],[105.34291,10.41473],[105.34168,10.39179],[105.34731,10.37379],[105.14226,10.24621],[105.38519,10.35145],[105.38497,10.33058],[105.3542,10.29827],[105.37335,10.28674],[105.41398,10.28102],[105.39762,10.25669],[105.41569,10.24234],[105.41993,10.22414],[105.42352,10.2058],[105.41288,10.18549],[105.41056,10.16695],[105.39846,10.14805],[105.42219,10.13124],[105.40878,10.1129],[105.39474,10.0955],[105.41657,10.0765],[105.41492,10.05837],[105.41264,10.0403],[105.41422,10.02154],[105.41063,10.00352],[105.41083,9.98454],[105.40594,9.96666],[105.38305,9.95454],[105.3814,9.93608],[105.37481,9.91924],[105.37179,9.9008],[105.36806,9.88234],[105.33138,9.8808],[105.33471,9.85895],[105.32156,9.84615],[105.32694,9.82134],[105.32001,9.8038],[105.32314,9.77805],[105.29703,9.77489],[105.2814,9.76406],[105.27862,9.74137],[105.26204,9.73142],[105.23914,9.72884],[105.22823,9.71356],[105.19984,9.71985],[105.20178,9.68754],[105.17632,9.69194],[105.17088,9.66703],[105.16402,9.642],[105.13861,9.6487],[105.12001,9.64441],[105.11068,9.62029],[105.0948,9.60878],[105.07681,9.60198],[105.05578,9.60436],[105.03766,9.59891],[105.02047,9.58972],[104.99901,9.59869],[104.97282,9.63947],[104.96297,9.58787],[104.94528,9.57667],[104.92561,9.584],[104.90638,9.59652],[104.88808,9.5917],[104.86993,9.60101],[104.85086,9.58849],[104.8304,9.5722],[104.81129,9.57451],[104.79226,9.57747],[104.77336,9.58109],[104.75459,9.58536],[104.73724,9.59459],[104.84152,9.97218],[104.83499,9.96964],[104.68648,9.62129],[104.66363,9.61619],[104.64616,9.6242],[104.62899,9.63281],[104.61214,9.642],[104.59803,9.65559],[104.58964,9.67702],[104.65473,9.79674],[104.64647,9.80849],[104.63288,9.81353],[104.62242,9.82248],[104.51095,9.72818],[104.49426,9.73825],[104.48121,9.75201],[104.46516,9.76331],[104.4566,9.78083],[104.44139,9.79321],[104.43032,9.80875],[104.4198,9.82466],[104.40985,9.84092],[104.40048,9.85752],[104.3917,9.87443],[104.38353,9.89163],[104.37597,9.9091],[104.37332,9.92836],[104.36273,9.94476],[104.55449,10.01895],[104.55134,10.03047],[104.41911,10.01482],[104.34845,10.01917],[104.34091,10.03714],[104.34761,10.05694],[104.49626,10.0861],[104.38598,10.09567],[104.33997,10.11286],[104.54571,10.1249],[104.49163,10.14036],[104.64276,10.1386],[104.60761,10.15199],[104.62265,10.15927],[104.63784,10.16557],[104.59107,10.18606],[104.65972,10.17768],[104.58825,10.20905],[104.4028,10.28674],[104.61695,10.22101],[104.58334,10.24668],[104.53483,10.28264],[104.53297,10.29889],[104.4447,10.36482],[104.45388,10.3799],[104.49394,10.37458],[104.44791,10.42754],[104.47735,10.42865],[104.46774,10.45989],[104.47689,10.47712],[104.49334,10.48791],[104.50686,10.50124],[104.51779,10.51744],[104.54119,10.51959],[104.54736,10.54188],[104.56277,10.55333],[104.57858,10.56424],[104.59963,10.56697],[104.61591,10.5766],[104.63037,10.58964],[104.65346,10.58609],[104.66852,10.59796],[104.68243,10.61355],[104.69875,10.62453],[104.71701,10.63073],[104.73549,10.63629],[104.76745,10.58886],[104.77965,10.6147],[104.80149,10.59598],[104.82123,10.58085],[104.83212,10.63653],[104.85138,10.62916],[104.87116,10.58966],[104.88808,10.64391]]]}}