{"type":"Feature","properties":{"towerId":"lam-dong-da-lat","name":"Đài PTTH Lâm Đồng","estimated":true,"model":"horizon+LOS srtm z10, rx 10m, tx 100m AGL"},"geometry":{"type":"Polygon","coordinates":[[[108.44639,12.04275],[108.4504,12.04718],[108.45441,12.04697],[108.46995,12.15396],[108.47135,12.10849],[108.47754,12.10753],[108.48846,12.12835],[108.49869,12.13989],[108.50724,12.1423],[108.51604,12.14437],[108.53135,12.16299],[108.53944,12.15995],[108.54742,12.15664],[108.47259,11.98737],[108.563,12.1492],[108.57978,12.16066],[108.58532,12.15216],[108.59815,12.15473],[108.61673,12.16396],[108.61346,12.14384],[108.54983,12.05537],[108.51099,12.005],[108.71804,12.20964],[108.48938,11.97543],[108.65487,12.11829],[108.65777,12.10817],[108.65657,12.09532],[108.66217,12.08804],[108.65987,12.07556],[108.66476,12.06818],[108.66142,12.05616],[108.68998,12.06139],[108.69848,12.05496],[108.70261,12.04628],[108.68937,12.03074],[108.62782,11.99936],[108.63001,11.99313],[108.61872,11.98312],[108.62034,11.9772],[108.61275,11.96937],[108.59577,11.96056],[108.48735,11.94046],[108.4921,11.93953],[108.84989,11.96215],[108.89195,11.9497],[108.48775,11.93483],[108.48314,11.93357],[108.6802,11.91874],[108.67948,11.91076],[108.67848,11.90282],[108.65456,11.89884],[108.64866,11.89269],[108.64257,11.8869],[108.64074,11.88023],[108.6343,11.87502],[108.57161,11.8902],[108.56569,11.88764],[108.56813,11.88176],[108.56203,11.87961],[108.55999,11.8757],[108.55781,11.87186],[108.5555,11.86809],[108.54924,11.86692],[108.63964,11.79733],[108.63462,11.79081],[108.62585,11.78736],[108.61707,11.78434],[108.55214,11.83485],[108.54851,11.8313],[108.54476,11.82788],[108.54384,11.82114],[108.53973,11.81788],[108.5355,11.81477],[108.53373,11.80807],[108.52672,11.80898],[108.67128,11.55311],[108.65324,11.55361],[108.63752,11.55082],[108.62,11.55275],[108.60285,11.55539],[108.5861,11.55873],[108.57828,11.53708],[108.66244,11.19562],[108.48195,11.79521],[108.50462,11.66652],[108.49582,11.66027],[108.50515,11.52516],[108.4608,11.80067],[108.45568,11.80475],[108.45632,11.65621],[108.44639,11.51665],[108.44318,11.84495],[108.43998,11.84512],[108.43678,11.84539],[108.43424,11.85023],[108.43203,11.85512],[108.4292,11.85566],[108.42527,11.85193],[108.42233,11.8527],[108.41374,11.83647],[108.40554,11.82497],[108.40164,11.82643],[108.1722,11.33084],[108.15287,11.34462],[108.18147,11.44636],[108.1711,11.4674],[108.15705,11.4809],[108.16411,11.52463],[108.16044,11.54908],[108.13276,11.54134],[108.39323,11.87282],[108.40027,11.8847],[108.39532,11.88307],[108.39681,11.88797],[108.39517,11.88969],[108.39711,11.89436],[108.39569,11.89607],[108.40178,11.90311],[108.40448,11.90717],[108.40352,11.90862],[108.39067,11.90335],[107.68459,11.53694],[107.68733,11.57112],[108.40021,11.91471],[108.39952,11.9163],[108.4032,11.91945],[108.40268,11.92093],[108.40221,11.92243],[108.40626,11.92504],[108.40593,11.92641],[108.40566,11.9278],[108.40543,11.92919],[108.17217,11.9065],[108.25842,11.92191],[108.26267,11.92849],[108.40503,11.93483],[108.17998,11.94381],[108.40054,11.93796],[108.37783,11.94187],[108.37812,11.94421],[108.20647,11.97611],[108.20359,11.98521],[108.20107,11.99455],[108.2166,11.99919],[108.21466,12.00838],[108.23039,12.01164],[108.23326,12.01897],[108.24479,12.02255],[108.25218,12.02741],[108.25966,12.03188],[108.25128,12.04493],[108.25533,12.05152],[108.26723,12.05295],[108.27155,12.059],[108.27609,12.06489],[108.29141,12.06196],[108.29604,12.06718],[108.30747,12.06599],[108.30904,12.07388],[108.31408,12.07849],[108.31929,12.08292],[108.32465,12.08717],[108.32746,12.09487],[108.33581,12.09511],[108.3416,12.09878],[108.35672,12.08669],[108.35355,12.10554],[108.36575,12.09648],[108.37157,12.09913],[108.3792,12.09742],[108.41022,12.03201],[108.41371,12.03319],[108.41724,12.03424],[108.42081,12.03518],[108.42345,12.04039],[108.42723,12.04111],[108.43039,12.04615],[108.43437,12.04663],[108.43837,12.04697],[108.44238,12.04718],[108.44639,12.04275]]]}}