{"type":"Feature","properties":{"towerId":"long-an-tan-an","name":"Đài Phát Thanh TH Long An","estimated":true,"model":"horizon+LOS srtm z10, rx 10m, tx 120m AGL"},"geometry":{"type":"Polygon","coordinates":[[[106.40455,11.06265],[106.4231,11.05783],[106.44194,11.06137],[106.46058,11.05976],[106.47915,11.05752],[106.49365,11.0325],[106.516,11.05113],[106.53422,11.047],[106.54976,11.03359],[106.56735,11.0283],[106.57375,10.99285],[106.59674,11.00344],[106.60949,10.98834],[106.60933,10.94872],[106.65616,11.00097],[106.67251,10.99205],[106.68854,10.98258],[106.69909,10.96511],[106.71953,10.96202],[106.73445,10.95095],[106.74898,10.93938],[106.76308,10.92731],[106.77674,10.91477],[106.78995,10.90177],[106.77543,10.86429],[106.81142,10.87157],[106.82668,10.86017],[106.81196,10.82702],[106.80303,10.80031],[106.85489,10.81263],[106.82077,10.77234],[106.74397,10.71369],[106.84471,10.74716],[106.72642,10.67721],[106.89678,10.73156],[106.9077,10.71608],[106.91375,10.69871],[106.91919,10.68114],[106.92399,10.6634],[106.92369,10.64457],[106.92719,10.62669],[106.75335,10.58454],[106.93229,10.59063],[106.76502,10.56112],[106.87538,10.55236],[106.91223,10.53614],[106.87533,10.52003],[106.90181,10.50197],[106.88663,10.48636],[106.85738,10.47364],[106.89087,10.45185],[106.91438,10.42956],[106.89252,10.41651],[106.90113,10.3961],[106.90018,10.37776],[106.87276,10.36857],[106.86651,10.35261],[106.84717,10.34237],[106.85232,10.32137],[106.8444,10.30614],[106.83595,10.29119],[106.8231,10.27893],[106.8137,10.26472],[106.79642,10.25615],[106.75385,10.26782],[106.76508,10.23864],[106.78482,10.19933],[106.75621,10.20213],[106.76632,10.1676],[106.75606,10.15207],[106.65421,10.24366],[106.60712,10.28136],[106.61137,10.25637],[106.69062,10.1189],[106.66596,10.1246],[106.65804,10.10419],[106.63613,10.10767],[106.63278,10.07573],[106.6163,10.06818],[106.60299,10.05286],[106.58416,10.05057],[106.5626,10.05754],[106.5405,10.0697],[106.52387,10.06532],[106.50614,10.06591],[106.49257,10.04499],[106.47382,10.05118],[106.45562,10.05804],[106.4415,10.01621],[106.42192,10.04671],[106.40455,10.05541],[106.38829,10.07817],[106.36951,10.04312],[106.35061,10.03121],[106.33654,10.06008],[106.31732,10.04942],[106.30105,10.05711],[106.27971,10.0435],[106.26105,10.04376],[106.26059,10.10031],[106.24989,10.11819],[106.23857,10.13209],[106.20206,10.08873],[106.19031,10.10403],[106.18581,10.1315],[106.23319,10.24444],[106.16247,10.15512],[106.12358,10.12636],[106.09312,10.11441],[106.08395,10.13244],[106.06688,10.14024],[106.06219,10.1621],[106.1157,10.24207],[106.0496,10.199],[106.06498,10.23549],[106.00555,10.2068],[105.99769,10.22346],[105.98682,10.23761],[105.97647,10.25213],[105.97437,10.27176],[105.94942,10.27767],[105.95663,10.30191],[105.94036,10.31347],[105.92854,10.32769],[105.91294,10.34077],[105.90199,10.35621],[105.90457,10.37636],[105.90357,10.39486],[105.88996,10.40994],[105.8813,10.42674],[105.87771,10.44476],[105.90192,10.46669],[105.89973,10.48397],[105.90728,10.50197],[105.87892,10.51807],[105.88772,10.53613],[105.88343,10.55401],[105.88892,10.57157],[105.89046,10.58924],[105.90622,10.60499],[105.89993,10.6236],[105.92122,10.63715],[105.88954,10.66232],[105.90311,10.67745],[105.8997,10.69733],[105.91,10.71302],[105.90807,10.73324],[105.9279,10.74469],[105.92733,10.76484],[105.93977,10.77897],[105.94072,10.79926],[105.95421,10.81263],[105.96048,10.83043],[105.97118,10.84548],[105.98241,10.86017],[105.99416,10.87445],[106.00641,10.88833],[106.01915,10.90177],[106.03235,10.91477],[106.04602,10.92731],[106.06012,10.93938],[106.07464,10.95095],[106.08957,10.96202],[106.10488,10.97256],[106.12056,10.98258],[106.13658,10.99205],[106.15294,11.00097],[106.1696,11.00932],[106.19028,11.00888],[106.20548,11.02011],[106.22122,11.03087],[106.23891,11.03686],[106.2568,11.04223],[106.28264,11.01646],[106.30073,11.01595],[106.31943,11.01036],[106.33122,11.04862],[106.34851,11.05976],[106.36715,11.06137],[106.38584,11.06233],[106.40455,11.06265]]]}}