{"type":"Feature","properties":{"towerId":"ninh-binh-vtn","name":"Trạm Phát Sóng Ninh Bình","estimated":true,"model":"horizon+LOS srtm z10, rx 10m, tx 80m AGL"},"geometry":{"type":"Polygon","coordinates":[[[105.96889,20.71771],[105.98432,20.67699],[106.00074,20.68969],[106.01864,20.70627],[106.03512,20.70437],[106.05069,20.69751],[106.06583,20.69017],[106.07585,20.66492],[106.09075,20.66118],[106.11593,20.68687],[106.01319,20.37764],[106.14172,20.66371],[106.15653,20.65781],[106.17323,20.65546],[106.18545,20.64457],[106.20675,20.64892],[106.22097,20.64089],[106.2268,20.62124],[106.23431,20.60531],[106.24985,20.59995],[106.26221,20.59055],[106.24201,20.54738],[106.19229,20.48013],[106.304,20.56623],[106.25787,20.50703],[106.32202,20.54068],[106.3397,20.53447],[106.35345,20.5248],[106.36293,20.51205],[106.37193,20.49899],[106.37211,20.48118],[106.3545,20.45524],[106.40025,20.46014],[106.39413,20.44045],[106.40489,20.42809],[106.41073,20.41372],[106.41603,20.39916],[106.41617,20.38321],[106.39239,20.36204],[106.43333,20.3555],[106.44117,20.341],[106.44849,20.32611],[106.4505,20.31037],[106.44236,20.29397],[106.44797,20.2786],[106.4578,20.26288],[106.45266,20.24704],[106.42783,20.23285],[106.42639,20.21784],[106.41016,20.2048],[106.38882,20.19356],[106.36721,20.18364],[106.37327,20.16845],[106.35567,20.15902],[106.35608,20.14502],[106.34243,20.13551],[106.34187,20.12167],[106.33198,20.11138],[106.31749,20.10355],[106.31554,20.09011],[106.30473,20.08112],[106.29774,20.07024],[106.19122,20.1226],[106.27483,20.05449],[106.27063,20.04183],[106.2439,20.04656],[106.24631,20.02865],[106.24429,20.01345],[106.22155,20.01755],[106.22504,19.99604],[106.20573,19.99816],[106.20748,19.97638],[106.19948,19.9651],[106.19092,19.954],[106.17929,19.94692],[106.16979,19.93633],[106.15975,19.92598],[106.14501,19.92398],[106.13229,19.91842],[106.11938,19.91328],[106.10465,19.91279],[106.04433,20.04544],[106.03091,20.06039],[106.02563,20.04976],[106.01765,20.04803],[106.00879,20.05099],[105.99821,20.06763],[105.99091,20.06679],[105.98392,20.0617],[105.97591,20.07481],[105.96889,20.0657],[105.96137,20.06133],[105.95453,20.07067],[105.94787,20.07573],[105.94224,20.08544],[105.93979,20.10856],[105.93206,20.10081],[105.9295,20.11521],[105.92006,20.10362],[105.91414,20.10531],[105.90993,20.11143],[105.90252,20.10928],[105.90072,20.11977],[105.89541,20.12209],[105.88346,20.11266],[105.81097,20.00647],[105.92065,20.19109],[105.91799,20.19272],[105.91538,20.19443],[105.91579,20.19977],[105.91345,20.20154],[105.75431,20.03954],[105.84579,20.14383],[105.72099,20.03848],[105.70922,20.04372],[105.91016,20.2173],[105.81791,20.15275],[105.81388,20.15777],[105.81004,20.1629],[105.79421,20.16101],[105.7905,20.16679],[105.91811,20.23822],[105.79665,20.18462],[105.79382,20.19031],[105.75124,20.18088],[105.74379,20.18651],[105.89596,20.24131],[105.89518,20.24371],[105.72248,20.20573],[105.90326,20.25045],[105.90753,20.25339],[105.90719,20.25541],[105.67816,20.23464],[105.68203,20.2445],[105.67191,20.25358],[105.71005,20.26337],[105.70062,20.27214],[105.68196,20.28214],[105.67328,20.29245],[105.66978,20.30273],[105.66196,20.31404],[105.65463,20.32591],[105.64317,20.3394],[105.60466,20.36109],[105.6085,20.37296],[105.59473,20.39081],[105.70206,20.36442],[105.61386,20.41134],[105.52457,20.46603],[105.54509,20.47415],[105.57815,20.47446],[105.55769,20.50374],[105.5908,20.50202],[105.58433,20.5248],[105.60566,20.52895],[105.75201,20.43395],[105.74777,20.44996],[105.74102,20.46957],[105.73881,20.48659],[105.79549,20.44392],[105.78378,20.47013],[105.84483,20.41233],[105.87867,20.37994],[105.88574,20.3791],[105.77293,20.55707],[105.86332,20.43487],[105.83141,20.50569],[105.8384,20.51408],[105.84782,20.5182],[105.87179,20.48866],[105.85556,20.55507],[105.87392,20.53723],[105.83773,20.69143],[105.8561,20.68673],[105.87095,20.69457],[105.88625,20.70194],[105.94351,20.43276],[105.94682,20.46032],[105.95349,20.46989],[105.95833,20.54667],[105.96889,20.71771]]]}}