{"type":"Feature","properties":{"towerId":"quang-ninh-ha-long","name":"Trạm Phát Sóng Quảng Ninh","estimated":true,"model":"horizon+LOS srtm z10, rx 10m, tx 70m AGL"},"geometry":{"type":"Polygon","coordinates":[[[107.09808,21.09964],[107.10498,21.14],[107.11153,21.13518],[107.11824,21.13463],[107.12492,21.13386],[107.13324,21.14173],[107.14018,21.14048],[107.14707,21.13899],[107.15123,21.12864],[107.15767,21.1268],[107.15908,21.11208],[107.16128,21.10166],[107.18436,21.13647],[107.19107,21.13355],[107.19993,21.13438],[107.20655,21.13095],[107.23094,21.15399],[107.23288,21.14209],[107.2426,21.14122],[107.11587,20.97701],[107.13523,20.99708],[107.13676,20.99585],[107.14493,21.00103],[107.14659,20.99947],[107.1661,21.0129],[107.1645,21.00776],[107.15881,21.00003],[107.16433,21.00067],[107.17395,21.00351],[107.17569,21.00101],[107.17734,20.99845],[107.20015,21.00638],[107.24529,21.02271],[107.18168,20.99048],[107.18293,20.98773],[107.17502,20.98188],[107.17595,20.97935],[107.17678,20.9768],[107.11677,20.9601],[107.11692,20.95949],[107.11705,20.95887],[107.11716,20.95825],[107.11724,20.95763],[107.1173,20.957],[107.11733,20.95638],[107.11734,20.95575],[107.11733,20.95512],[107.1173,20.95449],[107.11724,20.95387],[107.11716,20.95325],[107.1455,20.94794],[107.14518,20.94639],[107.12144,20.95031],[107.12122,20.94955],[107.12098,20.9488],[107.12071,20.94806],[107.11594,20.94901],[107.11568,20.94843],[107.11539,20.94786],[107.37418,20.81831],[107.37719,20.80489],[107.28986,20.84365],[107.2417,20.86517],[107.19932,20.887],[107.24974,20.84495],[107.19762,20.87768],[107.19107,20.8775],[107.37817,20.70251],[107.22508,20.83279],[107.15927,20.89225],[107.18778,20.85583],[107.3407,20.66502],[107.18575,20.84295],[107.17611,20.84762],[107.3272,20.6124],[107.17746,20.82722],[107.1681,20.83266],[107.11919,20.91533],[107.18611,20.77087],[107.24925,20.60547],[107.23609,20.60076],[107.21833,20.60931],[107.20402,20.60992],[107.1516,20.75504],[107.14208,20.76222],[107.12982,20.78747],[107.12218,20.79545],[107.11719,20.78581],[107.11117,20.78081],[107.10245,20.83891],[107.09808,20.83434],[107.09405,20.8479],[107.08734,20.81221],[107.08752,20.86184],[107.07532,20.80435],[107.06718,20.7919],[107.06008,20.78861],[107.05619,20.79868],[107.053,20.80878],[107.04606,20.80606],[107.04214,20.81208],[107.03681,20.81399],[107.02765,20.80785],[107.02217,20.81024],[107.01678,20.8128],[107.03072,20.8467],[107.04198,20.87185],[107.02005,20.84762],[107.01889,20.85387],[106.98849,20.82461],[106.97748,20.82137],[106.96289,20.81535],[106.95439,20.8166],[106.97348,20.84325],[106.95507,20.83534],[106.96539,20.85165],[106.954,20.85049],[106.96572,20.86584],[106.98237,20.88279],[106.95524,20.87229],[106.95221,20.877],[106.69473,20.75473],[106.74791,20.79573],[106.67629,20.77965],[106.66996,20.79351],[106.69124,20.81685],[106.67714,20.8274],[106.66796,20.83994],[106.99064,20.9307],[106.74971,20.88621],[106.91793,20.92598],[106.78347,20.91416],[106.7438,20.9206],[107.03084,20.95135],[107.03071,20.95354],[107.03549,20.95574],[107.04034,20.95762],[106.97319,20.96386],[107.04062,20.96138],[106.95025,20.97509],[107.03169,20.96667],[107.02743,20.96976],[106.95322,20.98941],[106.83413,21.02619],[106.8415,21.03337],[106.92608,21.01411],[106.94176,21.01463],[106.95286,21.01604],[106.95954,21.01877],[107.01728,20.99584],[106.71391,21.16216],[106.73414,21.16744],[106.78631,21.15159],[106.80553,21.15373],[106.82452,21.15486],[106.85433,21.14634],[106.91899,21.1061],[106.90736,21.12744],[106.93736,21.11093],[106.97877,21.07935],[106.92453,21.14856],[106.94671,21.1364],[106.94505,21.15212],[107.00376,21.0862],[107.01125,21.08538],[106.97031,21.16209],[107.02342,21.08675],[107.00933,21.12547],[107.03732,21.08308],[107.02224,21.13084],[107.03213,21.12475],[107.03701,21.13108],[107.04227,21.13728],[107.04793,21.14335],[107.05699,21.13608],[107.06376,21.13731],[107.0699,21.14277],[107.07692,21.14357],[107.08429,21.13966],[107.09102,21.14449],[107.09808,21.09964]]]}}