{"type":"Feature","properties":{"towerId":"quang-binh-dong-hoi","name":"Trạm Phát Sóng Quảng Bình","estimated":true,"model":"horizon+LOS srtm z10, rx 10m, tx 90m AGL"},"geometry":{"type":"Polygon","coordinates":[[[106.62324,17.9463],[106.64089,17.946],[106.65852,17.94512],[106.67264,17.91235],[106.69362,17.9416],[106.71106,17.93897],[106.72838,17.93575],[106.74558,17.93197],[106.76262,17.92761],[106.77804,17.91841],[106.79456,17.91298],[106.81088,17.907],[106.82889,17.90459],[106.84488,17.89748],[106.86059,17.88984],[106.87602,17.88167],[106.89113,17.87301],[106.90062,17.85639],[106.91757,17.85055],[106.93442,17.84406],[106.94507,17.83003],[106.95824,17.81909],[106.97429,17.81095],[106.98674,17.79905],[106.99874,17.78675],[107.01028,17.77405],[107.02135,17.76098],[107.03194,17.74754],[107.04202,17.73377],[107.05159,17.71966],[107.06063,17.70525],[107.06914,17.69054],[107.07711,17.67556],[107.08452,17.66032],[107.09136,17.64485],[107.09764,17.62915],[107.10333,17.61326],[107.10844,17.59719],[107.11296,17.58096],[107.11688,17.56458],[107.12019,17.54809],[107.1229,17.5315],[107.125,17.51482],[107.12649,17.49809],[107.12737,17.48131],[107.12763,17.46452],[107.12727,17.44773],[107.12631,17.43096],[107.12473,17.41424],[107.12254,17.39757],[107.11974,17.38099],[107.11634,17.36452],[107.11233,17.34816],[107.10774,17.33195],[107.10255,17.31591],[107.09678,17.30004],[107.09044,17.28438],[107.08353,17.26893],[107.07606,17.25373],[107.06804,17.23879],[107.05948,17.22412],[107.05039,17.20974],[107.04078,17.19568],[107.03067,17.18194],[107.02006,17.16855],[107.00897,17.15552],[106.96948,17.16699],[106.90767,17.20257],[106.89789,17.19326],[106.94752,17.12071],[106.91964,17.12737],[106.92446,17.09642],[106.91632,17.07933],[106.86267,17.12578],[106.87501,17.07985],[106.72685,17.29379],[106.85729,17.04417],[106.8212,17.07707],[106.80309,17.07894],[106.80997,17.02314],[106.79533,17.01296],[106.77292,17.02462],[106.72181,17.13663],[106.72679,17.06809],[106.70735,17.08688],[106.70653,17.01345],[106.68999,17.01096],[106.67583,16.98665],[106.64982,17.10182],[106.63654,17.10115],[106.62324,17.10093],[106.60601,16.9933],[106.58847,16.98968],[106.57114,16.99112],[106.55388,16.99314],[106.53914,17.00903],[106.57332,17.24084],[106.56401,17.23827],[106.59467,17.37006],[106.58539,17.35396],[106.58296,17.35952],[106.57912,17.36092],[106.57533,17.36246],[106.49942,17.22263],[106.56573,17.36192],[106.55964,17.36001],[106.55583,17.36219],[106.55211,17.36449],[106.5457,17.36328],[106.54202,17.36593],[106.53542,17.36525],[106.53181,17.36823],[106.52833,17.37133],[106.51479,17.36517],[106.5322,17.38691],[106.31671,17.21924],[106.50072,17.37376],[106.49745,17.3779],[106.47091,17.36704],[106.3277,17.28861],[106.32142,17.29856],[106.29058,17.296],[106.3015,17.31509],[106.2919,17.32406],[106.28694,17.33517],[106.29123,17.34954],[106.42156,17.40253],[106.42392,17.41052],[106.41747,17.4161],[106.4158,17.42298],[106.40974,17.42913],[106.40388,17.43562],[106.39824,17.44247],[106.39284,17.44966],[106.36414,17.45636],[106.35926,17.46498],[106.37354,17.47332],[106.37399,17.48163],[106.36067,17.49131],[106.39447,17.49569],[106.39572,17.50329],[106.39725,17.51084],[106.41278,17.51509],[106.4102,17.5233],[106.41694,17.52897],[106.41053,17.53887],[106.41335,17.5459],[106.41212,17.55466],[106.39432,17.57147],[106.39834,17.57903],[106.18585,17.70525],[106.20291,17.71491],[106.25149,17.70369],[106.27574,17.70537],[106.29964,17.70575],[106.23982,17.77117],[106.37071,17.68163],[106.38559,17.68367],[106.27548,17.80772],[106.28824,17.81909],[106.43819,17.67519],[106.46926,17.6529],[106.48178,17.65064],[106.4913,17.65151],[106.48819,17.67103],[106.50054,17.66762],[106.40367,17.85809],[106.41406,17.87324],[106.41758,17.90459],[106.4356,17.907],[106.45029,17.9172],[106.46698,17.92269],[106.48385,17.92761],[106.5009,17.93197],[106.5181,17.93575],[106.53542,17.93897],[106.55286,17.9416],[106.57038,17.94365],[106.58796,17.94512],[106.60559,17.946],[106.62324,17.9463]]]}}