{"type":"Feature","properties":{"towerId":"quang-nam-doi-an-ha","name":"Trạm phát sóng Đồi An Hà","estimated":true,"model":"horizon+LOS srtm z10, rx 10m, tx 120m AGL"},"geometry":{"type":"Polygon","coordinates":[[[108.47857,15.94172],[108.49212,15.96397],[108.5063,15.97226],[108.51768,15.94874],[108.53129,15.95166],[108.53622,15.90538],[108.55148,15.92085],[108.56341,15.91819],[108.58944,15.96268],[108.63183,16.04424],[108.66744,16.0895],[108.68543,16.08285],[108.71461,16.10023],[108.70418,16.03544],[108.71797,16.02361],[108.7687,16.07367],[108.78604,16.06362],[108.80301,16.053],[108.81958,16.04181],[108.66848,15.82476],[108.67985,15.82168],[108.69435,15.82145],[108.70583,15.81729],[108.71389,15.80951],[108.73905,15.81649],[108.76857,15.82491],[108.78794,15.82331],[108.79995,15.81541],[108.80401,15.80196],[108.80749,15.78851],[108.80634,15.77285],[108.8086,15.75962],[108.8061,15.74449],[108.89688,15.76982],[109.01585,15.7992],[109.02305,15.78101],[109.02958,15.7626],[109.03544,15.74397],[108.9998,15.71547],[108.97655,15.69233],[108.9937,15.67784],[109.01039,15.66231],[109.01728,15.64485],[109.05615,15.62912],[109.05715,15.60969],[109.05745,15.59023],[109.05704,15.57077],[109.028,15.55329],[109.03091,15.53436],[109.03312,15.51519],[109.04839,15.49343],[109.04448,15.47433],[109.03989,15.45538],[109.03461,15.4366],[109.02866,15.418],[109.02203,15.39961],[108.87217,15.43735],[108.86209,15.42605],[108.85169,15.41523],[108.8204,15.4155],[108.82997,15.3951],[108.82661,15.38102],[108.85354,15.34676],[108.87083,15.31576],[108.83861,15.31939],[108.79645,15.33351],[108.88033,15.2416],[108.70669,15.37846],[108.69885,15.37092],[108.68763,15.367],[108.6764,15.36355],[108.66231,15.36413],[108.64851,15.36537],[108.63764,15.36353],[108.62931,15.35832],[108.62079,15.35339],[108.60992,15.35273],[108.59713,15.35654],[108.59047,15.34859],[108.58163,15.34498],[108.57266,15.34166],[108.56502,15.33437],[108.5544,15.33595],[108.54512,15.33355],[108.53576,15.33147],[108.52876,15.31642],[108.5175,15.32381],[108.50732,15.32713],[108.49841,15.31736],[108.49256,15.20451],[108.47857,15.31219],[108.46832,15.30787],[108.45808,15.30839],[108.44787,15.30925],[108.44093,15.33271],[108.42918,15.32085],[108.41944,15.32268],[108.38725,15.23756],[108.39119,15.29704],[108.35904,15.236],[108.29379,15.10076],[108.27792,15.11144],[108.2607,15.11847],[108.38043,15.39697],[108.24236,15.16207],[108.1991,15.12351],[108.22671,15.20188],[108.20758,15.20312],[108.24568,15.28165],[108.22603,15.27902],[108.19993,15.27046],[108.14491,15.23318],[108.16125,15.27377],[108.06294,15.20327],[108.04915,15.21748],[108.03945,15.23504],[108.02316,15.24724],[108.26722,15.44287],[108.03411,15.30137],[107.98835,15.29497],[108.26038,15.46947],[107.9681,15.32863],[108.24792,15.48245],[108.24412,15.49027],[107.94239,15.38146],[107.93511,15.39961],[108.32321,15.5423],[108.32154,15.54755],[108.32459,15.55394],[108.09058,15.51118],[108.32228,15.56438],[108.32603,15.57028],[108.33001,15.57589],[108.3249,15.58058],[108.31995,15.58559],[108.32451,15.59093],[108.32927,15.59595],[108.29228,15.60345],[108.07457,15.63151],[108.09477,15.64259],[108.12446,15.65082],[108.13598,15.66084],[108.14324,15.67123],[107.93069,15.74151],[107.9409,15.75846],[108.16694,15.69996],[108.17107,15.71037],[108.17131,15.72245],[108.17625,15.7327],[108.17331,15.74699],[108.1994,15.74594],[108.20914,15.75285],[108.2113,15.76432],[108.00949,15.91822],[108.0364,15.92275],[108.23516,15.78739],[108.08937,15.92763],[108.10181,15.9405],[108.12448,15.94327],[108.09984,15.99499],[108.31939,15.77349],[108.12429,16.02653],[108.14307,16.03454],[108.16986,16.03065],[108.18352,16.04457],[108.23767,15.99195],[108.23477,16.03155],[108.24885,16.04351],[108.24444,16.09612],[108.26116,16.10785],[108.28007,16.11485],[108.30067,16.11692],[108.31859,16.1269],[108.33815,16.13196],[108.36277,16.11436],[108.39488,16.04708],[108.42259,15.97392],[108.43359,16.0024],[108.45051,15.97675],[108.46388,15.99543],[108.47857,15.94172]]]}}