{"type":"Feature","properties":{"towerId":"quang-tri-vtn","name":"Trạm Phát Sóng Quảng Trị","estimated":true,"model":"horizon+LOS srtm z10, rx 10m, tx 80m AGL"},"geometry":{"type":"Polygon","coordinates":[[[107.09624,17.07313],[107.10198,16.97861],[107.11494,17.077],[107.12623,17.09411],[107.14929,17.182],[107.16408,17.18886],[107.17746,17.18637],[107.19303,17.19216],[107.20781,17.19302],[107.22132,17.18907],[107.23629,17.18889],[107.24963,17.18398],[107.2647,17.18275],[107.27987,17.18094],[107.31724,17.21823],[107.31274,17.17947],[107.32818,17.17583],[107.33571,17.16042],[107.35072,17.15585],[107.35987,17.1436],[107.36845,17.13116],[107.37643,17.11854],[107.38384,17.10577],[107.39743,17.0991],[107.40388,17.08587],[107.18984,16.89645],[107.42612,17.06745],[107.12284,16.83982],[107.1235,16.83892],[107.45918,17.03784],[107.51986,17.05471],[107.53226,17.04252],[107.54005,17.02782],[107.5473,17.01287],[107.54527,16.99433],[107.52918,16.97159],[107.56571,16.96669],[107.5707,16.95092],[107.57512,16.93499],[107.57896,16.91892],[107.5822,16.90274],[107.58485,16.88646],[107.58691,16.87009],[107.58837,16.85367],[107.58923,16.83721],[107.58949,16.82073],[107.58914,16.80426],[107.5882,16.7878],[107.58666,16.77139],[107.55662,16.75886],[107.47546,16.75695],[107.50042,16.73866],[107.41062,16.74602],[107.40316,16.73681],[107.42667,16.71823],[107.44474,16.69953],[107.44878,16.68458],[107.50355,16.64717],[107.52644,16.61982],[107.48158,16.62464],[107.47823,16.60963],[107.49014,16.58505],[107.46963,16.5796],[107.44922,16.57522],[107.43634,16.56635],[107.41967,16.56094],[107.43087,16.53221],[107.41339,16.52746],[107.43827,16.48141],[107.42568,16.47019],[107.40667,16.4663],[107.38491,16.46679],[107.36908,16.461],[107.34794,16.4633],[107.33724,16.45129],[107.32128,16.44736],[107.31632,16.42418],[107.26275,16.49389],[107.27548,16.43511],[107.22976,16.50442],[107.26455,16.37758],[107.24686,16.37651],[107.23058,16.37175],[107.21528,16.36317],[107.19757,16.36387],[107.17925,16.36962],[107.15691,16.4072],[107.13789,16.4412],[107.12306,16.4535],[107.11014,16.43934],[107.09624,16.50206],[107.08462,16.50226],[107.07334,16.50733],[107.06241,16.51275],[107.0525,16.52298],[107.04329,16.53348],[107.0309,16.52662],[107.03154,16.57262],[107.02253,16.57493],[106.99912,16.53477],[107.00798,16.58891],[106.99781,16.58783],[106.98937,16.59126],[106.98722,16.60709],[106.97948,16.61087],[106.97189,16.61489],[106.96196,16.61536],[106.94667,16.60878],[106.93351,16.60663],[106.97197,16.66892],[106.9665,16.67316],[106.96118,16.67759],[106.90064,16.62716],[106.89031,16.63068],[106.88001,16.63466],[106.86974,16.63911],[106.77459,16.58022],[106.92532,16.70232],[106.90553,16.69803],[106.90115,16.70447],[106.89701,16.71106],[106.80612,16.67335],[106.81776,16.69104],[106.80032,16.69492],[106.81329,16.71164],[106.68602,16.67789],[106.66318,16.68609],[106.7442,16.72435],[106.73631,16.73507],[106.72879,16.74621],[106.70777,16.75537],[106.71024,16.76902],[106.71322,16.78243],[106.63238,16.78975],[106.61272,16.80459],[106.61238,16.82076],[106.62203,16.83663],[106.64161,16.85125],[106.76915,16.85397],[106.66348,16.87907],[106.68898,16.88963],[106.89402,16.86236],[106.61735,16.93499],[106.69863,16.93001],[106.70283,16.94323],[106.68982,16.96241],[106.68211,16.98093],[106.68817,16.99467],[106.6905,17.01016],[106.70178,17.02149],[106.71339,17.03231],[106.70534,17.05447],[106.69065,17.08243],[106.70804,17.09055],[106.98143,16.90711],[106.98103,16.91378],[106.98447,16.91757],[106.98805,16.92125],[106.99176,16.9248],[106.99559,16.92823],[106.99955,16.93153],[107.00363,16.93469],[106.86115,17.1304],[106.89366,17.10827],[107.03397,16.91665],[106.90566,17.13666],[106.91951,17.13887],[106.9002,17.20517],[106.9201,17.19917],[106.94108,17.18815],[106.96425,17.16777],[106.98135,17.15914],[106.99766,17.1498],[107.02568,17.09182],[107.04049,17.07202],[107.04968,17.07373],[107.05958,17.07068],[107.06919,17.06728],[107.07852,17.06355],[107.08704,17.07298],[107.09624,17.07313]]]}}