{"type":"Feature","properties":{"towerId":"soc-trang-dai-ptth","name":"Đài Phát Thanh TH Sóc Trăng","estimated":true,"model":"horizon+LOS srtm z10, rx 10m, tx 125m AGL"},"geometry":{"type":"Polygon","coordinates":[[[105.97656,10.11168],[105.99489,10.10687],[106.01192,10.08798],[106.00661,9.8718],[106.04966,10.10214],[106.07015,10.1126],[106.08386,10.08707],[106.10141,10.08307],[106.12133,10.08712],[106.14168,10.09039],[106.15462,10.07172],[106.15959,10.03612],[106.18273,10.04598],[106.20277,10.04669],[106.20808,10.01878],[106.23227,10.02612],[106.25483,10.02849],[106.26508,10.0112],[106.25833,9.97193],[106.29701,9.99387],[106.31112,9.98259],[106.32176,9.9675],[106.34127,9.96186],[106.3575,9.9522],[106.3633,9.93286],[106.3717,9.91646],[106.38301,9.90266],[106.35687,9.86209],[106.40414,9.87394],[106.42167,9.86381],[106.44691,9.8573],[106.42785,9.82621],[106.4154,9.80071],[106.46847,9.80554],[106.44615,9.77673],[106.46963,9.76658],[106.44083,9.73844],[106.4765,9.73101],[106.50332,9.71912],[106.46738,9.69256],[106.49316,9.67948],[106.47793,9.65917],[106.50728,9.64466],[106.51342,9.62667],[106.50982,9.60802],[106.48731,9.5897],[106.50065,9.57163],[106.44508,9.55745],[106.37108,9.54896],[106.3739,9.53477],[106.22353,9.54704],[106.49829,9.4803],[106.37468,9.49194],[106.49799,9.44219],[106.49243,9.42434],[106.23789,9.49616],[106.47942,9.38926],[106.472,9.37208],[106.46398,9.35516],[106.45536,9.33853],[106.44222,9.32446],[106.43639,9.30621],[106.42607,9.29056],[106.41519,9.27528],[106.40378,9.26037],[106.39186,9.24587],[106.37943,9.23179],[106.36651,9.21815],[106.35311,9.20495],[106.33926,9.19223],[106.32497,9.17999],[106.31025,9.16825],[106.29513,9.15703],[106.27708,9.15006],[106.26375,9.13617],[106.24753,9.12656],[106.23098,9.11752],[106.21412,9.10905],[106.19697,9.10117],[106.17956,9.09388],[106.16189,9.0872],[106.14401,9.08112],[106.12592,9.07567],[106.10765,9.07085],[106.08921,9.06665],[106.07065,9.06309],[106.05197,9.06017],[106.03319,9.0579],[106.01435,9.05628],[105.99547,9.0553],[105.97656,9.05497],[105.95765,9.0553],[105.93876,9.05628],[105.91992,9.0579],[105.90115,9.06017],[105.88246,9.06309],[105.8639,9.06665],[105.84547,9.07085],[105.8272,9.07567],[105.81332,9.09396],[105.79744,9.1041],[105.83661,9.24817],[105.81905,9.24087],[105.75893,9.14948],[105.74989,9.16915],[105.75107,9.20448],[105.72311,9.18958],[105.69383,9.17617],[105.666,9.16795],[105.65686,9.18598],[105.64862,9.20412],[105.63516,9.21564],[105.60948,9.21467],[105.59643,9.22753],[105.59736,9.25288],[105.56823,9.25166],[105.54933,9.26037],[105.54529,9.28057],[105.53837,9.29812],[105.5283,9.31338],[105.51878,9.32897],[105.51785,9.34911],[105.50551,9.36307],[105.49359,9.37758],[105.47369,9.38926],[105.47972,9.41132],[105.46935,9.42713],[105.47264,9.44717],[105.4723,9.4657],[105.4682,9.48312],[105.44676,9.49753],[105.45282,9.51709],[105.45961,9.53611],[105.46255,9.55425],[105.44791,9.57147],[105.44756,9.58967],[105.45697,9.60757],[105.45334,9.62575],[105.46852,9.64234],[105.46163,9.66103],[105.45995,9.67948],[105.45449,9.69906],[105.46751,9.7148],[105.45906,9.73594],[105.47755,9.74951],[105.47062,9.77118],[105.50696,9.77673],[105.50133,9.79824],[105.50488,9.81644],[105.52123,9.82832],[105.5339,9.8416],[105.53532,9.86143],[105.54898,9.87394],[105.5482,9.8964],[105.5665,9.90542],[105.57791,9.91934],[105.57963,9.94187],[105.61205,9.9366],[105.60867,9.96509],[105.62829,9.97084],[105.6273,9.9998],[105.64766,10.00449],[105.66791,10.00828],[105.68292,10.01865],[105.7007,10.02468],[105.7117,10.04169],[105.72572,10.0545],[105.74233,10.06285],[105.75736,10.07473],[105.78324,10.06113],[105.79536,10.08017],[105.81143,10.09039],[105.83052,10.09144],[105.85281,10.07871],[105.86926,10.08707],[105.89726,10.03289],[105.91046,10.05316],[105.92404,10.08198],[105.94055,10.09695],[105.9587,10.09338],[105.97656,10.11168]]]}}