{"type":"Feature","properties":{"towerId":"tay-ninh-tp","name":"Đài Phát Thanh TH Tây Ninh","estimated":true,"model":"horizon+LOS srtm z10, rx 10m, tx 94m AGL"},"geometry":{"type":"Polygon","coordinates":[[[106.09809,11.81767],[106.11621,11.82186],[106.13431,11.82093],[106.15236,11.81938],[106.1697,11.81276],[106.18824,11.81444],[106.20602,11.81105],[106.22145,11.79832],[106.24117,11.80245],[106.25565,11.78871],[106.2709,11.7788],[106.29253,11.78511],[106.30921,11.77817],[106.32562,11.77066],[106.33959,11.75862],[106.15085,11.40361],[106.15643,11.40557],[106.15966,11.40352],[106.1628,11.40135],[106.16305,11.39554],[106.16591,11.39327],[106.16562,11.38756],[106.16819,11.38521],[106.17398,11.38589],[106.17308,11.38024],[106.17188,11.37474],[106.174,11.37218],[106.17973,11.37219],[106.18175,11.36936],[106.51458,11.56872],[106.5035,11.5431],[106.55601,11.55225],[106.5642,11.53643],[106.56763,11.51852],[106.46819,11.46037],[106.49473,11.45528],[106.49515,11.44023],[106.48174,11.42164],[106.39184,11.3857],[106.38074,11.37282],[106.3691,11.36078],[106.3706,11.35148],[106.3672,11.34166],[106.51442,11.34231],[106.53349,11.32864],[106.51081,11.31377],[106.55178,11.29817],[106.59209,11.27977],[106.56776,11.26527],[106.57026,11.2486],[106.57666,11.2309],[106.47029,11.23622],[106.41837,11.23556],[106.50788,11.1985],[106.50787,11.18316],[106.52448,11.16149],[106.51029,11.15038],[106.53767,11.12169],[106.34529,11.19568],[106.48652,11.11114],[106.4632,11.10699],[106.53325,11.04686],[106.47794,11.06237],[106.49097,11.03363],[106.4555,11.03977],[106.42449,11.04507],[106.41472,11.03407],[106.40127,11.02653],[106.42265,10.98395],[106.39846,10.98642],[106.3778,10.98669],[106.32655,11.02695],[106.38343,10.92831],[106.35419,10.94116],[106.33836,10.93644],[106.3225,10.93234],[106.33241,10.8812],[106.31688,10.87345],[106.3048,10.85801],[106.27991,10.87206],[106.26409,10.86611],[106.24807,10.8607],[106.22809,10.86882],[106.21993,10.83409],[106.2028,10.83022],[106.17998,10.85793],[106.165,10.8465],[106.14978,10.83108],[106.13099,10.85203],[106.11471,10.84669],[106.09809,10.83741],[106.08132,10.8422],[106.06329,10.82511],[106.04784,10.84449],[106.03055,10.84204],[106.01303,10.84021],[106.00004,10.86101],[105.97958,10.84718],[105.97062,10.87746],[105.9566,10.88637],[105.93679,10.87879],[105.91285,10.86372],[105.90812,10.89499],[105.89334,10.90175],[105.88095,10.91298],[105.85768,10.90507],[105.84087,10.90973],[105.82921,10.92251],[105.81276,10.92831],[105.80203,10.94185],[105.7831,10.94532],[105.77936,10.96635],[105.80215,11.01309],[105.762,10.99526],[105.75766,11.01298],[105.73664,11.01613],[105.74069,11.03977],[105.74596,11.06276],[105.70307,11.05229],[105.67847,11.05641],[105.67351,11.07318],[105.64903,11.07939],[105.64094,11.0949],[105.64178,11.11435],[105.63494,11.13009],[105.62436,11.14451],[105.63604,11.16641],[105.61784,11.17857],[105.61774,11.19618],[105.64969,11.22023],[105.61502,11.23011],[105.61231,11.2467],[105.6102,11.26336],[105.59495,11.27912],[105.60775,11.29686],[105.62118,11.31367],[105.60769,11.33044],[105.59026,11.34844],[105.59178,11.36579],[105.58937,11.38371],[105.59666,11.4003],[105.60451,11.41648],[105.60844,11.43331],[105.63503,11.44383],[105.62246,11.46513],[105.63675,11.47825],[105.65138,11.49058],[105.64114,11.51305],[105.66088,11.52268],[105.67668,11.5333],[105.70462,11.53637],[105.72056,11.54495],[105.74043,11.5502],[105.74534,11.56493],[105.69655,11.62107],[105.71477,11.62885],[105.74329,11.62676],[105.82405,11.57319],[105.83025,11.58564],[105.82779,11.60799],[105.85024,11.6033],[105.84654,11.62931],[105.86333,11.63045],[105.8696,11.64574],[105.88887,11.64193],[105.89838,11.65278],[105.90625,11.66734],[105.92097,11.66965],[105.90382,11.74121],[105.92089,11.74343],[106.02119,11.52109],[106.02861,11.52359],[105.95628,11.79813],[105.97251,11.80705],[105.99017,11.81105],[106.01035,11.80115],[106.03161,11.77714],[106.04624,11.79702],[106.06317,11.80299],[106.07998,11.82186],[106.09809,11.81767]]]}}