{"type":"Feature","properties":{"towerId":"thai-binh-hoang-dieu","name":"Trạm Phát Sóng Thái Bình","estimated":true,"model":"horizon+LOS srtm z10, rx 10m, tx 125m AGL"},"geometry":{"type":"Polygon","coordinates":[[[106.35462,20.97179],[106.37378,20.97148],[106.39359,20.97951],[106.41251,20.97345],[106.43237,20.97569],[106.45246,20.97726],[106.46975,20.96495],[106.48742,20.95652],[106.50991,20.96483],[106.52722,20.95517],[106.54399,20.945],[106.56384,20.94268],[106.57784,20.92733],[106.59307,20.91571],[106.57147,20.84019],[106.58073,20.82509],[106.63515,20.87842],[106.66952,20.89506],[106.61755,20.7973],[106.70127,20.87341],[106.71652,20.86182],[106.73455,20.85308],[106.73896,20.83074],[106.74564,20.81171],[106.76571,20.80471],[106.75619,20.77377],[106.76767,20.76045],[106.77864,20.74676],[106.79309,20.73522],[106.77859,20.70648],[106.79588,20.69694],[106.80871,20.68447],[106.8644,20.69104],[106.87711,20.67604],[106.88485,20.65883],[106.89194,20.64137],[106.89838,20.62369],[106.90415,20.60581],[106.90924,20.58775],[106.91367,20.56954],[106.91741,20.55119],[106.92046,20.53274],[106.92282,20.51419],[106.92449,20.49558],[106.92546,20.47692],[106.92574,20.45825],[106.92532,20.43958],[106.92421,20.42093],[106.92241,20.40233],[106.91991,20.3838],[106.91672,20.36536],[106.91286,20.34704],[106.90831,20.32885],[106.90309,20.31083],[106.89721,20.29299],[106.89066,20.27535],[106.88347,20.25793],[106.87563,20.24076],[106.86716,20.22386],[106.85807,20.20725],[106.84837,20.19094],[106.83807,20.17496],[106.79944,20.177],[106.6532,20.25541],[106.64543,20.24577],[106.64097,20.2335],[106.6395,20.21824],[106.62692,20.2122],[106.61092,20.20993],[106.58868,20.21509],[106.58868,20.19724],[106.58174,20.18619],[106.57144,20.17893],[106.56891,20.16082],[106.61338,20.07003],[106.61308,20.03842],[106.61969,19.99049],[106.49324,20.19239],[106.58619,19.97019],[106.56788,19.96292],[106.54606,19.9647],[106.53053,19.95019],[106.51152,19.94474],[106.49233,19.93993],[106.47296,19.93574],[106.45346,19.93219],[106.43251,19.93818],[106.41412,19.92701],[106.39432,19.92538],[106.37399,19.93789],[106.35462,19.96905],[106.33842,20.02327],[106.3229,20.03304],[106.30909,20.05223],[106.29068,20.0317],[106.27318,20.02519],[106.25512,20.01932],[106.23653,20.01411],[106.22139,20.02257],[106.19198,19.98869],[106.17134,19.98584],[106.14672,19.97543],[106.19296,20.11815],[106.1134,19.99424],[106.09627,20.00241],[106.10332,20.05011],[106.06297,20.0204],[106.04684,20.03021],[106.03389,20.04418],[106.01278,20.04782],[105.99462,20.05579],[105.97345,20.06111],[105.95887,20.07382],[105.94821,20.09013],[105.93118,20.10062],[105.92907,20.12338],[105.90553,20.12917],[105.89351,20.14405],[105.92963,20.18962],[105.90767,20.1965],[105.91059,20.21805],[105.89764,20.23059],[105.9066,20.25361],[105.89046,20.2647],[105.88348,20.28],[105.85008,20.28621],[105.84392,20.30281],[105.82917,20.3171],[105.84277,20.33877],[105.84795,20.35748],[105.88222,20.38046],[105.86056,20.3934],[105.8393,20.40766],[105.88553,20.42781],[105.7983,20.44009],[105.86509,20.4585],[105.86054,20.47465],[105.84702,20.49169],[105.83896,20.50918],[105.83635,20.52663],[105.82496,20.54583],[105.82378,20.56402],[105.80466,20.58668],[105.81434,20.60336],[105.81544,20.62231],[105.97547,20.58796],[105.869,20.64211],[105.86731,20.66151],[105.86215,20.6832],[105.87503,20.69707],[105.89251,20.70813],[105.90206,20.72309],[105.90418,20.74273],[105.91501,20.75729],[105.91879,20.777],[105.92721,20.79394],[105.9292,20.81671],[105.96013,20.81483],[105.97699,20.82428],[105.98761,20.83974],[105.99273,20.86182],[106.01688,20.8628],[106.02648,20.88086],[106.04242,20.89133],[106.0613,20.89747],[106.07543,20.91068],[106.0902,20.9235],[106.1077,20.93186],[106.12158,20.94786],[106.1436,20.94685],[106.1669,20.94078],[106.18053,20.95945],[106.19933,20.96483],[106.21832,20.9696],[106.23748,20.97375],[106.2593,20.96398],[106.2762,20.98015],[106.29724,20.96898],[106.31532,20.984],[106.33597,20.958],[106.35462,20.97179]]]}}