{"type":"Feature","properties":{"towerId":"thai-nguyen-chu-van-tan","name":"Trạm Phát Sóng Thái Nguyên","estimated":true,"model":"horizon+LOS srtm z10, rx 10m, tx 100m AGL"},"geometry":{"type":"Polygon","coordinates":[[[105.84516,21.825],[105.85124,21.76195],[105.85732,21.76165],[105.86287,21.75669],[105.86672,21.74266],[105.89143,21.84372],[105.87938,21.74971],[105.90844,21.83576],[105.93867,21.90271],[105.92449,21.82681],[105.92964,21.81564],[105.93042,21.7961],[105.94168,21.80143],[105.93431,21.76989],[105.90423,21.70339],[105.95653,21.77926],[105.96319,21.77554],[106.03481,21.86101],[106.01598,21.81835],[105.87196,21.63206],[105.87314,21.63117],[105.87429,21.63024],[105.99986,21.74889],[106.07509,21.80617],[106.06467,21.78356],[106.10857,21.80518],[106.19639,21.85449],[106.11155,21.77968],[106.23473,21.84362],[105.89439,21.62876],[105.89543,21.62714],[105.89214,21.62338],[105.89298,21.62185],[105.9026,21.62394],[106.02461,21.66745],[106.03612,21.66465],[106.02921,21.65565],[106.03118,21.64964],[106.02822,21.64249],[106.02496,21.6356],[106.02618,21.62974],[106.02239,21.62323],[106.02314,21.61747],[106.02368,21.61168],[106.14968,21.60978],[106.15468,21.59988],[106.01432,21.59459],[106.31303,21.56909],[106.31156,21.55393],[106.19466,21.55412],[106.18794,21.5436],[106.17142,21.53534],[105.99059,21.56638],[105.99388,21.56044],[105.9923,21.55564],[106.37168,21.42094],[106.04684,21.52425],[106.03945,21.51958],[106.04933,21.5074],[106.05425,21.4966],[106.05441,21.48762],[106.04187,21.48568],[106.11748,21.42896],[106.1382,21.40168],[106.17237,21.36177],[106.14845,21.36288],[106.20382,21.2989],[106.17152,21.30623],[106.24055,21.21802],[106.21311,21.21882],[106.10267,21.31407],[106.16292,21.22073],[106.14286,21.21793],[106.13643,21.19731],[106.06762,21.26826],[106.09354,21.19889],[106.05126,21.23875],[106.05025,21.20802],[106.06869,21.13172],[106.05282,21.12058],[105.89639,21.46917],[106.01645,21.10828],[106.00323,21.08573],[105.97692,21.10709],[105.96139,21.08992],[105.9439,21.0776],[105.92363,21.07917],[105.90359,21.08141],[105.87711,21.17403],[105.8598,21.2092],[105.84516,21.14151],[105.83371,21.29459],[105.82193,21.29066],[105.80884,21.27818],[105.80217,21.31518],[105.79152,21.31675],[105.78794,21.34945],[105.77042,21.32092],[105.7693,21.35377],[105.79887,21.46759],[105.75763,21.3762],[105.74748,21.375],[105.73518,21.37009],[105.74142,21.4021],[105.73405,21.40559],[105.72683,21.40931],[105.7223,21.41708],[105.7236,21.43237],[105.72022,21.44006],[105.71429,21.44421],[105.69301,21.43131],[105.68677,21.43635],[105.68407,21.44483],[105.67834,21.45015],[105.6764,21.45867],[105.64901,21.44686],[105.65099,21.45887],[105.6458,21.46526],[105.64086,21.47181],[105.63207,21.47613],[105.63172,21.48537],[105.63607,21.4966],[105.63231,21.50345],[105.61557,21.50491],[105.61213,21.51242],[105.60443,21.51849],[105.6061,21.52774],[105.57566,21.52807],[105.58249,21.53904],[105.57562,21.54666],[105.56901,21.55465],[105.56267,21.56301],[105.54702,21.57076],[105.53644,21.57981],[105.52619,21.58951],[105.52113,21.59986],[105.5068,21.61081],[105.48327,21.6233],[105.49878,21.63365],[105.50023,21.64487],[105.70702,21.62276],[105.71268,21.62629],[105.71374,21.63058],[105.4823,21.69645],[105.49995,21.70403],[105.5268,21.70752],[105.52653,21.71946],[105.51791,21.73519],[105.51011,21.75161],[105.52027,21.76029],[105.51807,21.77522],[105.63992,21.71919],[105.67263,21.7082],[105.49637,21.83504],[105.49775,21.85173],[105.526,21.84844],[105.52109,21.87065],[105.52446,21.88723],[105.46457,21.96524],[105.46551,21.99071],[105.55541,21.92027],[105.54967,21.9507],[105.56589,21.95644],[105.58217,21.96156],[105.58047,21.99273],[105.59053,22.00886],[105.66312,21.91769],[105.7305,21.81837],[105.7368,21.82607],[105.6744,21.99198],[105.77229,21.78607],[105.78081,21.78405],[105.78375,21.79899],[105.79478,21.78777],[105.80187,21.78929],[105.80816,21.79501],[105.8155,21.79609],[105.82187,21.80588],[105.83063,21.79305],[105.83281,21.92822],[105.84516,21.825]]]}}