{"type":"Feature","properties":{"towerId":"thanh-hoa-quyet-thang","name":"Trạm Phát Sóng Thanh Hóa","estimated":true,"model":"horizon+LOS srtm z10, rx 10m, tx 90m AGL"},"geometry":{"type":"Polygon","coordinates":[[[105.77188,20.03704],[105.7784,19.98297],[105.78089,19.92883],[105.78538,19.92846],[105.78986,19.92794],[105.78434,19.87414],[105.81666,20.00563],[105.81703,19.97787],[105.78111,19.83797],[105.9081,20.2011],[105.89801,20.13303],[105.91002,20.12869],[105.83414,19.93915],[105.84318,19.94511],[105.93148,20.08953],[105.94425,20.08801],[105.94947,20.07456],[105.96196,20.07229],[105.9773,20.07316],[105.98704,20.06625],[105.99342,20.05559],[106.01853,20.06485],[106.01794,20.0469],[106.03012,20.0418],[106.13843,20.11725],[106.16072,20.11367],[106.17184,20.10072],[106.18247,20.08741],[106.18862,20.07125],[106.19814,20.05741],[106.21544,20.04773],[105.9112,19.87732],[105.9223,19.87664],[105.94661,19.88079],[105.93147,19.86828],[106.17644,19.94567],[106.16309,19.92679],[106.23627,19.9323],[106.24523,19.91805],[106.26305,19.90521],[106.2852,19.89209],[106.28799,19.87519],[106.29015,19.8582],[106.29168,19.84115],[106.29257,19.82406],[106.29283,19.80696],[106.29246,19.78985],[106.29145,19.77277],[106.28981,19.75574],[106.28754,19.73876],[106.28465,19.72187],[106.28113,19.70509],[106.27698,19.68843],[106.27223,19.67192],[106.26687,19.65557],[106.25642,19.64097],[106.25435,19.62346],[106.2472,19.60773],[106.23948,19.59225],[106.23119,19.57703],[106.22235,19.56209],[106.21296,19.54744],[106.20303,19.53312],[105.89555,19.72309],[106.18163,19.50549],[106.17017,19.49222],[106.15823,19.47934],[106.14583,19.46685],[106.13297,19.45478],[106.11968,19.44314],[106.10596,19.43194],[106.09184,19.4212],[106.07734,19.41093],[106.06246,19.40114],[106.04723,19.39185],[106.03167,19.38306],[106.0158,19.37479],[105.99963,19.36704],[105.98318,19.35983],[105.96648,19.35317],[105.94142,19.36819],[105.92212,19.37145],[105.82452,19.63481],[105.81808,19.63319],[105.82051,19.59219],[105.80339,19.63944],[105.80642,19.57616],[105.8033,19.52598],[105.80049,19.42195],[105.7832,19.50213],[105.77188,19.52892],[105.76123,19.52011],[105.73665,19.33223],[105.74545,19.5707],[105.71548,19.42921],[105.70233,19.43572],[105.69355,19.46023],[105.68419,19.4761],[105.63788,19.36678],[105.68047,19.54255],[105.63162,19.44427],[105.58619,19.37402],[105.60507,19.45436],[105.56498,19.40748],[105.55476,19.42247],[105.54301,19.43373],[105.57722,19.51398],[105.52653,19.46458],[105.49439,19.44736],[105.56623,19.55956],[105.49593,19.49749],[105.48142,19.50339],[105.64251,19.68152],[105.64134,19.68897],[105.64056,19.69634],[105.63651,19.70072],[105.62886,19.70246],[105.62505,19.70722],[105.62141,19.7121],[105.622,19.71949],[105.60228,19.71545],[105.59475,19.71896],[105.58727,19.72286],[105.59295,19.73264],[105.57699,19.73349],[105.56987,19.73839],[105.56742,19.74507],[105.56522,19.75182],[105.5679,19.75973],[105.37471,19.72781],[105.44252,19.75275],[105.33662,19.74961],[105.33946,19.76442],[105.33333,19.77832],[105.31816,19.79223],[105.29873,19.80709],[105.29897,19.82263],[105.30456,19.83785],[105.25838,19.85774],[105.25578,19.87519],[105.29155,19.88672],[105.29007,19.90336],[105.30783,19.9159],[105.3121,19.93107],[105.35792,19.93368],[105.29533,19.9701],[105.386,19.95385],[105.73695,19.82234],[105.73752,19.82348],[105.73812,19.8246],[105.35324,20.0343],[105.74351,19.82439],[105.37503,20.05872],[105.74481,19.82621],[105.74552,19.82709],[105.40877,20.09349],[105.38394,20.13526],[105.39633,20.14779],[105.40919,20.15992],[105.46104,20.13158],[105.43623,20.18286],[105.45628,20.18658],[105.49596,20.16401],[105.5201,20.15796],[105.53327,20.16601],[105.73124,19.87391],[105.73372,19.8752],[105.55341,20.2279],[105.65702,20.05004],[105.66788,20.0495],[105.68513,20.03164],[105.68757,20.05146],[105.698,20.04975],[105.71051,20.03894],[105.67024,20.25632],[105.68114,20.29038],[105.73524,20.05262],[105.75188,19.98659],[105.75887,19.98265],[105.76353,20.03241],[105.77188,20.03704]]]}}