{"type":"Feature","properties":{"towerId":"tien-giang-my-tho","name":"Đài Phát Thanh TH Tiền Giang","estimated":true,"model":"horizon+LOS srtm z10, rx 10m, tx 110m AGL"},"geometry":{"type":"Polygon","coordinates":[[[106.35847,10.84733],[106.37621,10.85152],[106.39424,10.85509],[106.41207,10.85356],[106.43047,10.85587],[106.44592,10.8398],[106.46508,10.8453],[106.48252,10.84134],[106.49475,10.8195],[106.51692,10.83163],[106.526,10.80478],[106.55226,10.82376],[106.56888,10.81682],[106.58524,10.80931],[106.59486,10.78935],[106.6171,10.79264],[106.63257,10.78349],[106.6477,10.77382],[106.66248,10.76363],[106.67689,10.75295],[106.6909,10.74177],[106.69838,10.72344],[106.71452,10.71478],[106.72056,10.6961],[106.72572,10.67745],[106.75106,10.67618],[106.75147,10.65422],[106.77305,10.64846],[106.75671,10.61648],[106.78136,10.61215],[106.73876,10.56832],[106.77447,10.56987],[106.82305,10.57511],[106.83065,10.55903],[106.83768,10.54269],[106.83982,10.52459],[106.83256,10.50381],[106.82443,10.48375],[106.81103,10.46334],[106.81467,10.44774],[106.85828,10.43899],[106.87009,10.42301],[106.84952,10.40309],[106.81907,10.38406],[106.83359,10.36868],[106.83386,10.35235],[106.84268,10.33571],[106.83265,10.31974],[106.82209,10.30443],[106.82913,10.28728],[106.81302,10.27352],[106.79205,10.26173],[106.824,10.23815],[106.60887,10.28196],[106.81473,10.20648],[106.66334,10.24337],[106.8244,10.16708],[106.7925,10.1622],[106.79778,10.14149],[106.69327,10.17732],[106.76591,10.12087],[106.78066,10.0927],[106.76739,10.08088],[106.75381,10.06966],[106.74712,10.05349],[106.72928,10.04611],[106.70462,10.04562],[106.70993,10.01829],[106.69152,10.0129],[106.67622,10.00502],[106.6637,9.99432],[106.66204,9.96988],[106.64292,9.96697],[106.62908,9.95744],[106.61732,9.94457],[106.61182,9.92035],[106.60062,9.90397],[106.57459,9.91615],[106.56084,9.90488],[106.55168,9.88153],[106.53019,9.88786],[106.51362,9.88225],[106.49686,9.87721],[106.47772,9.88147],[106.45812,9.89086],[106.44802,9.85229],[106.42898,9.85843],[106.40761,9.89209],[106.39317,9.86376],[106.37536,9.87635],[106.35847,9.88506],[106.34127,9.86736],[106.32599,9.89516],[106.30933,9.89209],[106.29241,9.8896],[106.27287,9.87444],[106.25977,9.89526],[106.24032,9.88584],[106.22637,9.89882],[106.27097,10.08755],[106.19143,9.90054],[106.17722,9.91072],[106.1561,9.90488],[106.14236,9.91615],[106.12916,9.9278],[106.30364,10.25924],[106.09479,9.93694],[106.07511,9.93879],[106.19738,10.13439],[106.18973,10.14006],[106.06497,10.00811],[106.03462,9.99833],[106.02225,10.00966],[106.00373,10.01516],[105.9852,10.02152],[105.99115,10.04901],[105.97342,10.05626],[105.96313,10.06966],[105.95333,10.0834],[105.94016,10.09509],[105.92336,10.1051],[105.93096,10.12865],[105.95199,10.1573],[105.9161,10.15854],[105.91371,10.17553],[105.88194,10.18164],[105.88919,10.2023],[105.8973,10.22224],[105.87521,10.23377],[105.86681,10.24949],[105.87243,10.26801],[105.86066,10.28348],[105.85395,10.30014],[105.85238,10.31749],[105.86056,10.33522],[105.87851,10.35235],[105.86964,10.36913],[105.88419,10.38498],[105.84924,10.40494],[105.86497,10.42054],[105.85866,10.43899],[105.86201,10.4561],[105.86597,10.47308],[105.87053,10.48991],[105.88439,10.50381],[105.89003,10.52],[105.90897,10.53094],[105.89883,10.55356],[105.91446,10.56528],[105.91822,10.5825],[105.92268,10.59972],[105.92005,10.62167],[105.94125,10.62902],[105.95501,10.64054],[105.95825,10.65974],[105.96237,10.67907],[105.99122,10.67745],[105.99638,10.6961],[106.01197,10.70509],[106.02776,10.71343],[106.03487,10.73145],[106.04852,10.74232],[106.05985,10.75636],[106.07949,10.75892],[106.09409,10.76825],[106.10672,10.78096],[106.13284,10.7695],[106.13573,10.80123],[106.15552,10.80039],[106.17155,10.80709],[106.18467,10.82168],[106.20427,10.81881],[106.21966,10.82814],[106.23664,10.83261],[106.25377,10.8365],[106.27102,10.8398],[106.28902,10.83806],[106.30439,10.85803],[106.32302,10.85061],[106.34073,10.85152],[106.35847,10.84733]]]}}