{"type":"Feature","properties":{"towerId":"tp-hcm-dinh-tien-hoang","name":"Đài TH Thành Phố Hồ Chí Minh","estimated":true,"model":"horizon+LOS srtm z10, rx 10m, tx 220m AGL"},"geometry":{"type":"Polygon","coordinates":[[[106.70331,11.29931],[106.72379,11.36191],[106.74362,11.35189],[106.77284,11.43512],[106.79204,11.40563],[106.81163,11.38892],[106.84638,11.44641],[106.86756,11.43238],[106.89552,11.44364],[106.90458,11.3939],[106.84596,11.17118],[106.86127,11.17022],[106.96073,11.35347],[106.99485,11.37258],[106.97238,11.28286],[107.01513,11.31615],[106.99484,11.24416],[107.00837,11.23016],[107.01856,11.21216],[107.02502,11.19047],[107.05983,11.20329],[107.06521,11.1808],[107.07263,11.16169],[107.06263,11.12696],[107.05064,11.0934],[107.09998,11.11305],[107.21258,11.17662],[107.21498,11.15101],[107.15535,11.08559],[107.21626,11.1008],[107.22313,11.08079],[107.13609,11.01227],[107.1356,10.99337],[107.17198,10.99118],[107.17045,10.97163],[107.18965,10.9601],[107.20422,10.94609],[107.22278,10.93251],[107.37879,10.95131],[107.3842,10.92805],[107.19481,10.87142],[107.23832,10.86008],[107.23148,10.84077],[107.2422,10.82324],[107.25688,10.80519],[107.23887,10.78624],[107.24766,10.76755],[107.27402,10.74696],[107.2768,10.72695],[107.24712,10.71112],[107.2531,10.69095],[107.23145,10.67593],[107.21831,10.66008],[107.23986,10.63502],[107.24283,10.61393],[107.24924,10.5909],[107.26736,10.56215],[107.2298,10.55581],[107.11035,10.59128],[107.13544,10.56052],[107.13506,10.54133],[107.13382,10.5219],[107.24534,10.42666],[107.25069,10.39505],[107.20766,10.39872],[107.17259,10.39904],[107.08388,10.44948],[107.13736,10.37408],[107.11928,10.36269],[107.07038,10.38549],[107.06471,10.3628],[107.09159,10.29747],[107.10081,10.24805],[107.08401,10.23102],[107.06648,10.21449],[107.04596,10.20238],[107.02503,10.19099],[107.00371,10.18032],[106.98017,10.1745],[106.9617,10.15704],[106.93766,10.15279],[106.91645,10.14087],[106.89217,10.13828],[106.86906,10.1322],[106.8467,10.12251],[106.82228,10.12243],[106.79993,10.10985],[106.7611,10.24558],[106.75078,10.11833],[106.72722,10.11261],[106.70331,10.13019],[106.68226,10.1935],[106.65647,10.1273],[106.63312,10.12931],[106.60986,10.13211],[106.60809,10.25529],[106.56559,10.14891],[106.54417,10.15838],[106.52199,10.16422],[106.49721,10.16226],[106.51575,10.27959],[106.45174,10.17373],[106.42459,10.17039],[106.4089,10.19245],[106.3773,10.18305],[106.36293,10.20628],[106.35947,10.24501],[106.32005,10.22728],[106.31116,10.25533],[106.28974,10.26555],[106.26563,10.27315],[106.23851,10.27843],[106.23977,10.3141],[106.21015,10.31777],[106.19719,10.33798],[106.17807,10.3527],[106.17017,10.37652],[106.14115,10.38445],[106.1272,10.40397],[106.12945,10.43351],[106.10538,10.44663],[106.10172,10.47158],[106.08677,10.49041],[106.07661,10.51173],[106.05874,10.53],[106.05858,10.55534],[106.05074,10.57759],[106.05248,10.60258],[106.04188,10.62391],[106.04095,10.64763],[106.04089,10.67121],[106.0417,10.69463],[106.0115,10.71449],[106.0139,10.73857],[106.01258,10.76223],[106.00753,10.78592],[106.01705,10.80948],[106.01368,10.8333],[106.01573,10.85691],[106.03222,10.87859],[106.02234,10.90385],[106.02241,10.92805],[106.02782,10.95131],[106.03847,10.97314],[106.04983,10.99444],[106.04898,11.01977],[106.07464,11.03536],[106.07966,11.05858],[106.07732,11.08568],[106.09641,11.10275],[106.10403,11.12561],[106.13977,11.13169],[106.15617,11.14829],[106.21761,11.13255],[106.15425,11.207],[106.20469,11.19672],[106.21615,11.21657],[106.20861,11.25484],[106.21918,11.27797],[106.27689,11.25089],[106.34088,11.21017],[106.33355,11.25066],[106.32328,11.29939],[106.38541,11.24879],[106.41664,11.23654],[106.36851,11.35506],[106.3803,11.38207],[106.40975,11.37662],[106.44962,11.34526],[106.45243,11.39529],[106.49154,11.35706],[106.53185,11.30411],[106.53137,11.3745],[106.56796,11.31896],[106.56596,11.42003],[106.60935,11.30922],[106.60689,11.45906],[106.63041,11.46643],[106.65594,11.45057],[106.68153,11.39786],[106.70331,11.29931]]]}}