{"type":"Feature","properties":{"towerId":"tp-hcm-bo-tu-lenh","name":"Trạm TP. HCM","estimated":true,"model":"horizon+LOS srtm z10, rx 10m, tx 120m AGL"},"geometry":{"type":"Polygon","coordinates":[[[106.6754,11.25313],[106.69124,11.22138],[106.70898,11.24748],[106.7238,11.22815],[106.73409,11.18615],[106.75022,11.19274],[106.76308,11.18112],[106.77742,11.17787],[106.78657,11.15684],[106.80003,11.1528],[106.81334,11.1483],[106.83852,11.17252],[106.85437,11.17079],[106.86627,11.16037],[106.88412,11.16153],[106.88621,11.13468],[106.92557,11.16916],[106.96762,11.20133],[106.99334,11.20559],[107.0084,11.19443],[107.02306,11.18276],[106.88077,11.00031],[107.05109,11.15794],[107.06442,11.14483],[106.91028,10.98401],[106.99126,11.03646],[106.92083,10.96464],[106.93849,10.96403],[106.94879,10.95741],[107.13,11.05495],[107.12372,11.03022],[107.13246,11.0147],[107.13652,10.99692],[107.15662,10.98644],[107.17228,10.97317],[107.18326,10.95755],[107.18937,10.94003],[107.19486,10.92231],[107.19971,10.90441],[107.19944,10.88543],[107.20297,10.8674],[107.2104,10.84987],[107.21267,10.83149],[107.21428,10.81304],[107.20608,10.79424],[107.21553,10.77602],[107.21059,10.75767],[107.21414,10.73901],[107.19882,10.722],[107.14671,10.71105],[107.20716,10.6839],[107.20353,10.66573],[107.13269,10.66411],[107.11962,10.65099],[107.13663,10.62886],[107.1225,10.61623],[107.125,10.59761],[107.09331,10.59332],[107.13584,10.55538],[107.1277,10.53973],[107.12693,10.51986],[107.11753,10.50453],[107.09245,10.49962],[107.07127,10.49343],[107.08977,10.45785],[107.0782,10.44384],[107.02541,10.46639],[107.0109,10.4577],[106.97717,10.46906],[106.97218,10.45221],[106.96049,10.44223],[106.97094,10.4043],[106.95487,10.39803],[106.93616,10.39614],[106.89104,10.43703],[106.89941,10.39478],[106.88573,10.38733],[106.8838,10.3561],[106.86319,10.36154],[106.7645,10.55968],[106.85047,10.30319],[106.83922,10.28037],[106.81271,10.30532],[106.78488,10.34453],[106.78087,10.28825],[106.76428,10.28051],[106.7479,10.26886],[106.73033,10.26221],[106.71174,10.26512],[106.69358,10.26419],[106.6754,10.27287],[106.65722,10.26419],[106.63874,10.26064],[106.61999,10.25774],[106.60226,10.2644],[106.58256,10.25836],[106.56709,10.27506],[106.54826,10.27471],[106.5318,10.2837],[106.51441,10.28892],[106.49721,10.29474],[106.47681,10.2928],[106.46163,10.30401],[106.447,10.31567],[106.43936,10.33967],[106.41487,10.33245],[106.39928,10.34165],[106.38401,10.35138],[106.36105,10.35071],[106.36862,10.39011],[106.33748,10.38018],[106.32973,10.3987],[106.31018,10.4043],[106.30048,10.42017],[106.29145,10.43626],[106.2761,10.44673],[106.25383,10.45231],[106.26105,10.4802],[106.24321,10.48954],[106.23327,10.50453],[106.21992,10.5176],[106.20293,10.52914],[106.19853,10.54747],[106.19485,10.56579],[106.18765,10.5824],[106.18104,10.59924],[106.18808,10.62048],[106.15645,10.62981],[106.15598,10.64878],[106.16517,10.66949],[106.15266,10.68548],[106.14973,10.70345],[106.15654,10.72248],[106.15492,10.7403],[106.15851,10.75833],[106.1719,10.77608],[106.16302,10.79364],[106.14566,10.81242],[106.14724,10.83056],[106.14494,10.84926],[106.14332,10.86817],[106.16033,10.88358],[106.15554,10.90333],[106.16476,10.91984],[106.16143,10.94003],[106.18046,10.95296],[106.19552,10.96646],[106.18162,10.99191],[106.21016,10.99888],[106.23858,11.00417],[106.27075,11.00555],[106.27525,11.02166],[106.24238,11.06284],[106.32331,11.02738],[106.27461,11.08352],[106.32442,11.06533],[106.30763,11.10122],[106.30949,11.12299],[106.32522,11.1321],[106.32579,11.15724],[106.35724,11.14834],[106.3424,11.19443],[106.38984,11.16197],[106.42169,11.14544],[106.45684,11.11961],[106.42558,11.20085],[106.44298,11.20519],[106.48051,11.16846],[106.46843,11.23239],[106.49337,11.21837],[106.53432,11.15675],[106.54935,11.15707],[106.52627,11.2865],[106.54451,11.2913],[106.56864,11.26909],[106.58304,11.29016],[106.61544,11.19505],[106.6222,11.27287],[106.64406,11.21608],[106.65764,11.27531],[106.6754,11.25313]]]}}