{"type":"Feature","properties":{"towerId":"tra-vinh-dai-ptth","name":"Đài PTTH Trà Vinh","estimated":true,"model":"horizon+LOS srtm z10, rx 10m, tx 140m AGL"},"geometry":{"type":"Polygon","coordinates":[[[106.34266,10.49109],[106.36133,10.47728],[106.3803,10.4808],[106.39858,10.47471],[106.41457,10.45466],[106.43556,10.46959],[106.45103,10.45289],[106.47319,10.46631],[106.48633,10.44422],[106.49807,10.42188],[106.52249,10.43737],[106.53619,10.42256],[106.54906,10.40741],[106.58318,10.43639],[106.51214,10.26511],[106.59637,10.38365],[106.62853,10.40135],[106.65455,10.40615],[106.66241,10.38425],[106.67475,10.36945],[106.60114,10.25452],[106.6209,10.25547],[106.73639,10.35235],[106.6615,10.25433],[106.74003,10.30329],[106.75226,10.28942],[106.77841,10.28619],[106.7604,10.2499],[106.7783,10.24038],[106.7999,10.23236],[106.78977,10.20526],[106.76619,10.17289],[106.81075,10.17588],[106.81424,10.15783],[106.82549,10.14318],[106.83627,10.128],[106.84222,10.11092],[106.79045,10.07762],[106.8567,10.07729],[106.88764,10.06511],[106.89582,10.04708],[106.89433,10.02739],[106.90121,10.00885],[106.90289,9.98961],[106.89932,9.97018],[106.89962,9.95104],[106.89925,9.93189],[106.8982,9.91277],[106.89648,9.8937],[106.88956,9.87533],[106.86854,9.85973],[106.86049,9.84265],[106.80761,9.83696],[106.85588,9.80609],[106.87209,9.78156],[106.86574,9.76347],[106.85875,9.7456],[106.85113,9.72799],[106.84289,9.71064],[106.83405,9.6936],[106.8246,9.67686],[106.81458,9.66046],[106.8002,9.64694],[106.79281,9.62875],[106.77751,9.61624],[106.77235,9.59571],[106.75272,9.58718],[106.74612,9.56705],[106.73226,9.55342],[106.71488,9.54361],[106.6768,9.55865],[106.65427,9.55804],[106.62409,9.56941],[106.60785,9.5637],[106.61326,9.5243],[106.60026,9.51136],[106.57383,9.52263],[106.57249,9.48664],[106.54849,9.49546],[106.53564,9.48033],[106.51573,9.48243],[106.50184,9.46821],[106.47837,9.48465],[106.46617,9.46281],[106.44976,9.45447],[106.43448,9.4378],[106.41625,9.43496],[106.3946,9.46405],[106.37224,9.53433],[106.3565,9.56053],[106.34266,9.45237],[106.32293,9.39426],[106.30324,9.39527],[106.28453,9.40591],[106.28238,9.52847],[106.26428,9.51309],[106.24408,9.49405],[106.22795,9.49772],[106.20946,9.4933],[106.16941,9.42544],[106.15402,9.44017],[106.13945,9.4553],[106.12016,9.45848],[106.10086,9.46239],[106.08583,9.47497],[106.0714,9.48798],[106.05999,9.50522],[106.03927,9.50775],[106.0291,9.52573],[106.02824,9.55449],[105.98803,9.53452],[105.97653,9.5503],[105.96255,9.56313],[105.95558,9.58269],[105.93937,9.59321],[105.92343,9.6044],[105.9078,9.61624],[105.91462,9.64463],[105.91912,9.66961],[105.86688,9.65807],[105.85282,9.67235],[105.87139,9.70418],[105.85472,9.71658],[105.83002,9.72615],[105.81812,9.74222],[105.8153,9.76192],[105.83491,9.78854],[105.81628,9.80236],[105.83344,9.82601],[105.8159,9.84077],[105.79431,9.85579],[105.80028,9.87596],[105.79338,9.89418],[105.95559,9.92461],[105.79975,9.93239],[105.82678,9.9511],[105.9092,9.96613],[105.80065,9.98839],[105.79773,10.00746],[105.79098,10.02739],[105.785,10.04786],[105.78874,10.06697],[105.81532,10.08053],[105.81141,10.10105],[105.83006,10.11507],[105.82327,10.13718],[105.81744,10.15996],[105.83349,10.17424],[105.85813,10.18375],[105.87876,10.19394],[105.85198,10.22993],[105.86214,10.24662],[105.87668,10.26045],[105.89901,10.26837],[105.8997,10.29171],[105.90852,10.30962],[105.92148,10.32432],[105.93495,10.33857],[105.94892,10.35235],[105.99094,10.3356],[106.08124,10.25796],[106.11198,10.24197],[106.00945,10.40242],[106.03333,10.40242],[106.04708,10.41659],[106.06376,10.42647],[106.09153,10.41592],[106.10615,10.42831],[106.11577,10.45258],[106.14569,10.43089],[106.15186,10.46694],[106.17168,10.46891],[106.19646,10.45287],[106.21102,10.47067],[106.23238,10.46169],[106.25055,10.46517],[106.26501,10.49474],[106.28769,10.46577],[106.30438,10.48977],[106.32351,10.49076],[106.34266,10.49109]]]}}