{"type":"Feature","properties":{"towerId":"vinh-phuc-vnpt","name":"Trạm Phát Sóng Vĩnh Phúc","estimated":true,"model":"horizon+LOS srtm z10, rx 10m, tx 55m AGL"},"geometry":{"type":"Polygon","coordinates":[[[105.59196,21.53395],[105.59938,21.50235],[105.60679,21.50199],[105.61469,21.50586],[105.62155,21.50054],[105.62888,21.49946],[105.63516,21.49374],[105.63755,21.47477],[105.64123,21.46454],[105.6472,21.46284],[105.64979,21.4525],[105.64987,21.43802],[105.66663,21.4607],[105.67244,21.45818],[105.67815,21.45547],[105.68133,21.44868],[105.68668,21.44569],[105.6865,21.43507],[105.69134,21.43191],[105.69605,21.4286],[105.71617,21.44236],[105.72126,21.43823],[105.72283,21.43072],[105.72399,21.42326],[105.72118,21.41289],[105.72886,21.41151],[105.70231,21.38487],[105.73653,21.40235],[105.70405,21.37499],[105.69842,21.36654],[105.76344,21.39671],[105.76251,21.38897],[105.74386,21.37354],[105.74193,21.36674],[105.73969,21.36014],[105.7326,21.35224],[105.77564,21.3601],[105.76831,21.35162],[105.78871,21.35019],[105.79501,21.3447],[105.79639,21.33807],[105.79751,21.3314],[105.76958,21.32192],[105.79419,21.31767],[105.78973,21.31094],[105.78984,21.3045],[105.8283,21.29676],[105.82304,21.2894],[105.82232,21.2819],[105.81177,21.27569],[105.82955,21.26541],[105.82793,21.25771],[105.86814,21.24021],[105.9258,21.21505],[105.95431,21.19446],[105.92279,21.19203],[105.94516,21.17118],[105.93554,21.16161],[106.00787,21.11487],[105.89847,21.15235],[105.86338,21.15826],[105.93939,21.10172],[105.9196,21.09811],[105.91946,21.08229],[105.92609,21.06067],[105.89833,21.06444],[105.87843,21.06367],[105.87961,21.04511],[105.86639,21.03916],[105.86272,21.0237],[105.84896,21.01852],[105.7611,21.10256],[105.82411,21.00616],[105.82625,20.98013],[105.81142,20.97653],[105.79662,20.97349],[105.78863,20.95909],[105.77349,20.95695],[105.76819,20.93482],[105.74527,20.95017],[105.73521,20.93695],[105.72287,20.92823],[105.69681,20.96311],[105.69212,20.92937],[105.66605,20.97912],[105.65384,20.97691],[105.65091,20.91276],[105.63674,20.90661],[105.62151,20.90988],[105.60641,20.91814],[105.59196,20.88643],[105.57801,20.93163],[105.56375,20.92782],[105.54868,20.92002],[105.53568,20.93057],[105.52007,20.92377],[105.50588,20.92634],[105.49296,20.93373],[105.48048,20.9415],[105.46698,20.94534],[105.45527,20.95385],[105.44224,20.95851],[105.42549,20.95537],[105.41043,20.95695],[105.42687,21.01471],[105.37048,20.94621],[105.39796,21.01469],[105.38992,21.02491],[105.37958,21.03165],[105.37246,21.04227],[105.36896,21.05646],[105.35981,21.06386],[105.35428,21.0748],[105.35621,21.09205],[105.27332,21.03653],[105.25242,21.03836],[105.24266,21.04957],[105.23332,21.06108],[105.22441,21.07289],[105.20371,21.0778],[105.19545,21.09057],[105.18767,21.10359],[105.43587,21.23358],[105.16918,21.12851],[105.20302,21.15762],[105.18869,21.16726],[105.21585,21.19026],[105.19789,21.19881],[105.23157,21.22047],[105.2239,21.2313],[105.22137,21.24331],[105.16197,21.24775],[105.15049,21.2608],[105.14909,21.27518],[105.14824,21.2896],[105.13827,21.30401],[105.12886,21.31905],[105.12965,21.3341],[105.21746,21.34087],[105.22382,21.3524],[105.31619,21.34968],[105.31804,21.35862],[105.32491,21.36641],[105.23449,21.39968],[105.31639,21.38777],[105.3015,21.4028],[105.30535,21.41218],[105.19027,21.47057],[105.19237,21.48549],[105.19938,21.49838],[105.25716,21.48415],[105.21483,21.52342],[105.2072,21.54557],[105.34568,21.47095],[105.34444,21.48438],[105.35133,21.49232],[105.42322,21.44595],[105.40078,21.47631],[105.41069,21.47919],[105.41735,21.48498],[105.42111,21.49398],[105.32394,21.62331],[105.34461,21.62093],[105.38373,21.59153],[105.39976,21.59051],[105.42514,21.57323],[105.44214,21.56659],[105.39894,21.67229],[105.41286,21.67834],[105.45788,21.61308],[105.46788,21.62148],[105.47835,21.6296],[105.49463,21.62013],[105.51122,21.60565],[105.52862,21.5817],[105.54074,21.57474],[105.55158,21.57178],[105.56619,21.53269],[105.57476,21.53339],[105.58335,21.53381],[105.59196,21.53395]]]}}