{"type":"Feature","properties":{"towerId":"vinh-long-dai-ptth","name":"Đài PTTH Vĩnh Long","estimated":true,"model":"horizon+LOS srtm z10, rx 10m, tx 150m AGL"},"geometry":{"type":"Polygon","coordinates":[[[105.97661,10.80811],[105.99658,10.80776],[106.01556,10.79328],[106.0369,10.80949],[106.05752,10.81153],[106.07677,10.80398],[106.09367,10.78701],[106.11392,10.78702],[106.128,10.76469],[106.15058,10.772],[106.16132,10.74458],[106.17891,10.73793],[106.20185,10.743],[106.2254,10.74708],[106.23658,10.72633],[106.2489,10.70932],[106.27732,10.71874],[106.29393,10.70813],[106.31553,10.70422],[106.33159,10.6923],[106.34721,10.67984],[106.36545,10.67018],[106.37072,10.64688],[106.38141,10.62998],[106.39478,10.61585],[106.41467,10.60703],[106.43081,10.59453],[106.43919,10.57608],[106.44302,10.55498],[106.44981,10.53639],[106.46775,10.52445],[106.46519,10.5011],[106.48627,10.49006],[106.49043,10.47058],[106.51504,10.45951],[106.51797,10.43936],[106.52014,10.41927],[106.51275,10.3968],[106.5,10.37397],[106.5221,10.35963],[106.52128,10.34006],[106.51974,10.32068],[106.54932,10.30475],[106.52367,10.28321],[106.55205,10.2653],[106.31475,10.24586],[106.53371,10.22641],[106.5281,10.20761],[106.50822,10.19061],[106.524,10.16985],[106.50746,10.15346],[106.50831,10.13435],[106.40211,10.14132],[106.50785,10.09563],[106.43271,10.09981],[106.49158,10.06108],[106.4847,10.0435],[106.46886,10.02985],[106.46498,10.0111],[106.44829,9.9987],[106.44318,9.9804],[106.42574,9.96932],[106.45724,9.92634],[106.41978,9.92857],[106.40826,9.91354],[106.39271,9.90182],[106.36331,9.9028],[106.34763,9.89285],[106.35072,9.86414],[106.35221,9.8348],[106.31983,9.84283],[106.31656,9.81711],[106.30383,9.80205],[106.29555,9.7799],[106.27884,9.76923],[106.25494,9.77082],[106.23152,9.77347],[106.22062,9.75287],[106.19374,9.76534],[106.19194,9.72064],[106.15607,9.76006],[106.15001,9.71997],[106.125,9.73595],[106.09693,9.77044],[106.0838,9.749],[106.07167,9.71462],[106.05597,9.68942],[106.03431,9.70492],[106.01479,9.70775],[105.99603,9.69778],[105.97661,9.68395],[105.95655,9.6798],[105.94605,9.81541],[105.91605,9.67808],[105.89915,9.70277],[105.88155,9.71462],[105.86942,9.749],[105.83866,9.70062],[105.82194,9.71434],[105.8018,9.7157],[105.77846,9.70934],[105.76469,9.72898],[105.74466,9.73247],[105.7306,9.74883],[105.7217,9.77347],[105.71195,9.7942],[105.68403,9.78449],[105.66022,9.78363],[105.64938,9.80205],[105.62824,9.80647],[105.60409,9.80836],[105.60406,9.83814],[105.58983,9.85118],[105.56951,9.85845],[105.55941,9.87568],[105.55003,9.89313],[105.75348,10.07431],[105.7586,10.09002],[105.49598,9.92634],[105.49653,9.95021],[105.48238,9.96462],[105.4727,9.98177],[105.48413,10.00912],[105.47185,10.02434],[105.46429,10.04181],[105.44019,10.05335],[105.43368,10.07189],[105.42782,10.09064],[105.43592,10.11287],[105.41811,10.12869],[105.40978,10.14716],[105.42921,10.16985],[105.4132,10.18726],[105.42511,10.20761],[105.4332,10.22691],[105.43741,10.24559],[105.42857,10.2644],[105.43866,10.2826],[105.44482,10.30059],[105.45611,10.31758],[105.45445,10.33619],[105.44454,10.35685],[105.43103,10.37938],[105.47125,10.38817],[105.45918,10.41097],[105.46104,10.43017],[105.4509,10.45448],[105.73859,10.35019],[105.48751,10.48023],[105.48802,10.5011],[105.52907,10.49978],[105.51893,10.52688],[105.51399,10.55247],[105.52514,10.56817],[105.54405,10.57795],[105.57012,10.58106],[105.56864,10.60683],[105.5817,10.62062],[105.58886,10.64042],[105.60003,10.65683],[105.61779,10.66607],[105.63292,10.67814],[105.64308,10.69695],[105.66954,10.69323],[105.68075,10.71112],[105.69057,10.73268],[105.71448,10.7303],[105.72782,10.74708],[105.75882,10.72658],[105.76743,10.7546],[105.78562,10.76148],[105.7998,10.78055],[105.82521,10.76469],[105.8404,10.78266],[105.8586,10.7914],[105.88043,10.78184],[105.89697,10.80263],[105.91775,10.79608],[105.93605,10.81571],[105.9576,10.7808],[105.97661,10.80811]]]}}